<?xml version="1.0" encoding="UTF-8"?>
<gpx version="1.1" creator="BRouter" xmlns="http://www.topografix.com/GPX/1/1">
 <metadata><name>Day 1 - Paso > Peachy Canyon > Opolo > Tin City > Firestone > Vinyl Vineyards</name></metadata>
 <trk>
  <name>Day 1 - Paso > Peachy Canyon > Opolo > Tin City > Firestone > Vinyl Vineyards</name>
  <type>cycling</type>
  <trkseg>
   <trkpt lat="35.626471" lon="-120.690969"><ele>230.75</ele></trkpt>
   <trkpt lat="35.626561" lon="-120.691270"><ele>231.0</ele></trkpt>
   <trkpt lat="35.626672" lon="-120.691278"><ele>230.75</ele></trkpt>
   <trkpt lat="35.626665" lon="-120.691390"><ele>231.0</ele></trkpt>
   <trkpt lat="35.626663" lon="-120.691531"><ele>231.0</ele></trkpt>
   <trkpt lat="35.626662" lon="-120.691645"><ele>231.0</ele></trkpt>
   <trkpt lat="35.626658" lon="-120.691926"><ele>231.0</ele></trkpt>
   <trkpt lat="35.626656" lon="-120.691959"><ele>231.0</ele></trkpt>
   <trkpt lat="35.626634" lon="-120.692353"><ele>231.0</ele></trkpt>
   <trkpt lat="35.626621" lon="-120.692575"><ele>231.0</ele></trkpt>
   <trkpt lat="35.626576" lon="-120.693370"><ele>232.75</ele></trkpt>
   <trkpt lat="35.626532" lon="-120.693935"><ele>233.5</ele></trkpt>
   <trkpt lat="35.626497" lon="-120.694574"><ele>234.0</ele></trkpt>
   <trkpt lat="35.626465" lon="-120.695183"><ele>236.0</ele></trkpt>
   <trkpt lat="35.625409" lon="-120.695098"><ele>240.5</ele></trkpt>
   <trkpt lat="35.624831" lon="-120.695044"><ele>244.0</ele></trkpt>
   <trkpt lat="35.624754" lon="-120.695037"><ele>244.25</ele></trkpt>
   <trkpt lat="35.624374" lon="-120.695001"><ele>245.25</ele></trkpt>
   <trkpt lat="35.623333" lon="-120.694912"><ele>244.25</ele></trkpt>
   <trkpt lat="35.622288" lon="-120.694820"><ele>245.0</ele></trkpt>
   <trkpt lat="35.621973" lon="-120.694800"><ele>245.5</ele></trkpt>
   <trkpt lat="35.621676" lon="-120.694781"><ele>246.0</ele></trkpt>
   <trkpt lat="35.621398" lon="-120.694763"><ele>246.0</ele></trkpt>
   <trkpt lat="35.621256" lon="-120.694754"><ele>246.0</ele></trkpt>
   <trkpt lat="35.621097" lon="-120.694743"><ele>246.25</ele></trkpt>
   <trkpt lat="35.620907" lon="-120.694729"><ele>246.25</ele></trkpt>
   <trkpt lat="35.620500" lon="-120.694699"><ele>246.75</ele></trkpt>
   <trkpt lat="35.620464" lon="-120.695334"><ele>251.5</ele></trkpt>
   <trkpt lat="35.620459" lon="-120.695422"><ele>252.25</ele></trkpt>
   <trkpt lat="35.620447" lon="-120.695662"><ele>254.0</ele></trkpt>
   <trkpt lat="35.620444" lon="-120.695719"><ele>254.5</ele></trkpt>
   <trkpt lat="35.620430" lon="-120.696044"><ele>255.5</ele></trkpt>
   <trkpt lat="35.620425" lon="-120.696158"><ele>255.5</ele></trkpt>
   <trkpt lat="35.620410" lon="-120.696500"><ele>255.75</ele></trkpt>
   <trkpt lat="35.620395" lon="-120.696848"><ele>255.5</ele></trkpt>
   <trkpt lat="35.620400" lon="-120.696917"><ele>255.25</ele></trkpt>
   <trkpt lat="35.620410" lon="-120.697049"><ele>255.0</ele></trkpt>
   <trkpt lat="35.620441" lon="-120.697202"><ele>254.5</ele></trkpt>
   <trkpt lat="35.620560" lon="-120.697553"><ele>253.25</ele></trkpt>
   <trkpt lat="35.620809" lon="-120.698263"><ele>253.75</ele></trkpt>
   <trkpt lat="35.621113" lon="-120.699121"><ele>258.5</ele></trkpt>
   <trkpt lat="35.621202" lon="-120.699372"><ele>260.0</ele></trkpt>
   <trkpt lat="35.621238" lon="-120.699472"><ele>260.5</ele></trkpt>
   <trkpt lat="35.621339" lon="-120.699757"><ele>262.25</ele></trkpt>
   <trkpt lat="35.621482" lon="-120.700171"><ele>265.0</ele></trkpt>
   <trkpt lat="35.621517" lon="-120.700273"><ele>265.75</ele></trkpt>
   <trkpt lat="35.621594" lon="-120.700495"><ele>267.5</ele></trkpt>
   <trkpt lat="35.621733" lon="-120.700896"><ele>270.25</ele></trkpt>
   <trkpt lat="35.621822" lon="-120.701154"><ele>272.25</ele></trkpt>
   <trkpt lat="35.621967" lon="-120.701576"><ele>275.0</ele></trkpt>
   <trkpt lat="35.622151" lon="-120.702087"><ele>278.25</ele></trkpt>
   <trkpt lat="35.622171" lon="-120.702144"><ele>278.5</ele></trkpt>
   <trkpt lat="35.622247" lon="-120.702353"><ele>279.75</ele></trkpt>
   <trkpt lat="35.622285" lon="-120.702459"><ele>280.0</ele></trkpt>
   <trkpt lat="35.622401" lon="-120.702779"><ele>281.25</ele></trkpt>
   <trkpt lat="35.622476" lon="-120.702988"><ele>281.75</ele></trkpt>
   <trkpt lat="35.622564" lon="-120.703231"><ele>282.75</ele></trkpt>
   <trkpt lat="35.622629" lon="-120.703327"><ele>283.25</ele></trkpt>
   <trkpt lat="35.622827" lon="-120.703871"><ele>288.0</ele></trkpt>
   <trkpt lat="35.623004" lon="-120.704384"><ele>291.25</ele></trkpt>
   <trkpt lat="35.623032" lon="-120.704466"><ele>292.0</ele></trkpt>
   <trkpt lat="35.623145" lon="-120.704778"><ele>294.25</ele></trkpt>
   <trkpt lat="35.623256" lon="-120.705221"><ele>297.5</ele></trkpt>
   <trkpt lat="35.623368" lon="-120.705981"><ele>302.25</ele></trkpt>
   <trkpt lat="35.623417" lon="-120.706396"><ele>306.5</ele></trkpt>
   <trkpt lat="35.623427" lon="-120.706576"><ele>308.0</ele></trkpt>
   <trkpt lat="35.623416" lon="-120.706817"><ele>310.25</ele></trkpt>
   <trkpt lat="35.623370" lon="-120.707054"><ele>312.0</ele></trkpt>
   <trkpt lat="35.623247" lon="-120.707454"><ele>316.0</ele></trkpt>
   <trkpt lat="35.622883" lon="-120.708406"><ele>323.75</ele></trkpt>
   <trkpt lat="35.622774" lon="-120.708644"><ele>325.25</ele></trkpt>
   <trkpt lat="35.622693" lon="-120.708769"><ele>325.75</ele></trkpt>
   <trkpt lat="35.622607" lon="-120.708875"><ele>326.25</ele></trkpt>
   <trkpt lat="35.622520" lon="-120.708944"><ele>326.5</ele></trkpt>
   <trkpt lat="35.622373" lon="-120.709012"><ele>325.75</ele></trkpt>
   <trkpt lat="35.622215" lon="-120.709072"><ele>324.25</ele></trkpt>
   <trkpt lat="35.622105" lon="-120.709105"><ele>323.0</ele></trkpt>
   <trkpt lat="35.621974" lon="-120.709180"><ele>321.25</ele></trkpt>
   <trkpt lat="35.621871" lon="-120.709285"><ele>320.5</ele></trkpt>
   <trkpt lat="35.621794" lon="-120.709417"><ele>320.25</ele></trkpt>
   <trkpt lat="35.621759" lon="-120.709545"><ele>320.0</ele></trkpt>
   <trkpt lat="35.621763" lon="-120.709953"><ele>321.5</ele></trkpt>
   <trkpt lat="35.621786" lon="-120.710684"><ele>324.75</ele></trkpt>
   <trkpt lat="35.621820" lon="-120.710997"><ele>326.5</ele></trkpt>
   <trkpt lat="35.621830" lon="-120.711087"><ele>326.5</ele></trkpt>
   <trkpt lat="35.622137" lon="-120.712661"><ele>330.25</ele></trkpt>
   <trkpt lat="35.622175" lon="-120.712989"><ele>331.75</ele></trkpt>
   <trkpt lat="35.622298" lon="-120.714262"><ele>335.25</ele></trkpt>
   <trkpt lat="35.622324" lon="-120.714426"><ele>336.0</ele></trkpt>
   <trkpt lat="35.622451" lon="-120.715218"><ele>337.25</ele></trkpt>
   <trkpt lat="35.622730" lon="-120.716630"><ele>346.5</ele></trkpt>
   <trkpt lat="35.622804" lon="-120.716855"><ele>349.75</ele></trkpt>
   <trkpt lat="35.622963" lon="-120.717238"><ele>352.25</ele></trkpt>
   <trkpt lat="35.623116" lon="-120.717662"><ele>349.5</ele></trkpt>
   <trkpt lat="35.623181" lon="-120.717944"><ele>347.75</ele></trkpt>
   <trkpt lat="35.623241" lon="-120.718392"><ele>345.0</ele></trkpt>
   <trkpt lat="35.623275" lon="-120.718797"><ele>344.75</ele></trkpt>
   <trkpt lat="35.623311" lon="-120.719286"><ele>344.5</ele></trkpt>
   <trkpt lat="35.623316" lon="-120.719353"><ele>344.25</ele></trkpt>
   <trkpt lat="35.623337" lon="-120.719660"><ele>344.0</ele></trkpt>
   <trkpt lat="35.623347" lon="-120.720030"><ele>344.0</ele></trkpt>
   <trkpt lat="35.623348" lon="-120.720338"><ele>344.75</ele></trkpt>
   <trkpt lat="35.623360" lon="-120.720521"><ele>345.25</ele></trkpt>
   <trkpt lat="35.623376" lon="-120.720620"><ele>345.5</ele></trkpt>
   <trkpt lat="35.623407" lon="-120.720731"><ele>346.0</ele></trkpt>
   <trkpt lat="35.623428" lon="-120.720776"><ele>346.25</ele></trkpt>
   <trkpt lat="35.623447" lon="-120.720816"><ele>346.5</ele></trkpt>
   <trkpt lat="35.623483" lon="-120.720869"><ele>347.25</ele></trkpt>
   <trkpt lat="35.623572" lon="-120.720942"><ele>348.75</ele></trkpt>
   <trkpt lat="35.623761" lon="-120.721067"><ele>351.5</ele></trkpt>
   <trkpt lat="35.623994" lon="-120.721220"><ele>355.0</ele></trkpt>
   <trkpt lat="35.624142" lon="-120.721338"><ele>357.75</ele></trkpt>
   <trkpt lat="35.624400" lon="-120.721628"><ele>362.75</ele></trkpt>
   <trkpt lat="35.624558" lon="-120.721878"><ele>366.5</ele></trkpt>
   <trkpt lat="35.624812" lon="-120.722399"><ele>369.5</ele></trkpt>
   <trkpt lat="35.624958" lon="-120.722853"><ele>371.25</ele></trkpt>
   <trkpt lat="35.625013" lon="-120.723176"><ele>374.0</ele></trkpt>
   <trkpt lat="35.625039" lon="-120.723612"><ele>377.0</ele></trkpt>
   <trkpt lat="35.625023" lon="-120.724267"><ele>379.5</ele></trkpt>
   <trkpt lat="35.625029" lon="-120.724825"><ele>382.75</ele></trkpt>
   <trkpt lat="35.625179" lon="-120.725578"><ele>390.75</ele></trkpt>
   <trkpt lat="35.625249" lon="-120.725893"><ele>393.75</ele></trkpt>
   <trkpt lat="35.625305" lon="-120.726101"><ele>394.25</ele></trkpt>
   <trkpt lat="35.625328" lon="-120.726278"><ele>395.0</ele></trkpt>
   <trkpt lat="35.625362" lon="-120.726454"><ele>395.5</ele></trkpt>
   <trkpt lat="35.625396" lon="-120.726545"><ele>395.25</ele></trkpt>
   <trkpt lat="35.625380" lon="-120.726652"><ele>396.25</ele></trkpt>
   <trkpt lat="35.625394" lon="-120.726769"><ele>396.25</ele></trkpt>
   <trkpt lat="35.625392" lon="-120.726929"><ele>396.75</ele></trkpt>
   <trkpt lat="35.625381" lon="-120.727063"><ele>397.5</ele></trkpt>
   <trkpt lat="35.625382" lon="-120.727249"><ele>398.0</ele></trkpt>
   <trkpt lat="35.625373" lon="-120.727434"><ele>399.0</ele></trkpt>
   <trkpt lat="35.625381" lon="-120.727581"><ele>399.5</ele></trkpt>
   <trkpt lat="35.625360" lon="-120.727724"><ele>401.25</ele></trkpt>
   <trkpt lat="35.625312" lon="-120.727900"><ele>404.0</ele></trkpt>
   <trkpt lat="35.625276" lon="-120.727976"><ele>405.75</ele></trkpt>
   <trkpt lat="35.625189" lon="-120.728105"><ele>409.25</ele></trkpt>
   <trkpt lat="35.625153" lon="-120.728175"><ele>411.0</ele></trkpt>
   <trkpt lat="35.625142" lon="-120.728257"><ele>412.0</ele></trkpt>
   <trkpt lat="35.625161" lon="-120.728399"><ele>413.0</ele></trkpt>
   <trkpt lat="35.625243" lon="-120.728583"><ele>413.5</ele></trkpt>
   <trkpt lat="35.625294" lon="-120.728651"><ele>413.25</ele></trkpt>
   <trkpt lat="35.625364" lon="-120.728725"><ele>412.5</ele></trkpt>
   <trkpt lat="35.625482" lon="-120.728803"><ele>411.0</ele></trkpt>
   <trkpt lat="35.625551" lon="-120.728808"><ele>409.25</ele></trkpt>
   <trkpt lat="35.625623" lon="-120.728832"><ele>408.0</ele></trkpt>
   <trkpt lat="35.625753" lon="-120.728933"><ele>406.75</ele></trkpt>
   <trkpt lat="35.625823" lon="-120.729008"><ele>406.75</ele></trkpt>
   <trkpt lat="35.626128" lon="-120.729524"><ele>411.75</ele></trkpt>
   <trkpt lat="35.626194" lon="-120.729664"><ele>413.0</ele></trkpt>
   <trkpt lat="35.626241" lon="-120.729819"><ele>414.5</ele></trkpt>
   <trkpt lat="35.626287" lon="-120.730042"><ele>417.0</ele></trkpt>
   <trkpt lat="35.626353" lon="-120.730259"><ele>417.75</ele></trkpt>
   <trkpt lat="35.626397" lon="-120.730373"><ele>417.75</ele></trkpt>
   <trkpt lat="35.626480" lon="-120.730757"><ele>420.0</ele></trkpt>
   <trkpt lat="35.626487" lon="-120.730920"><ele>421.75</ele></trkpt>
   <trkpt lat="35.626474" lon="-120.731011"><ele>423.0</ele></trkpt>
   <trkpt lat="35.626471" lon="-120.731104"><ele>424.0</ele></trkpt>
   <trkpt lat="35.626482" lon="-120.731201"><ele>424.5</ele></trkpt>
   <trkpt lat="35.626508" lon="-120.731331"><ele>425.25</ele></trkpt>
   <trkpt lat="35.626551" lon="-120.731461"><ele>426.0</ele></trkpt>
   <trkpt lat="35.626672" lon="-120.731687"><ele>427.0</ele></trkpt>
   <trkpt lat="35.626777" lon="-120.731821"><ele>426.75</ele></trkpt>
   <trkpt lat="35.626846" lon="-120.731947"><ele>427.25</ele></trkpt>
   <trkpt lat="35.626906" lon="-120.732129"><ele>428.25</ele></trkpt>
   <trkpt lat="35.626896" lon="-120.732283"><ele>429.5</ele></trkpt>
   <trkpt lat="35.626898" lon="-120.732602"><ele>430.0</ele></trkpt>
   <trkpt lat="35.626919" lon="-120.732816"><ele>428.0</ele></trkpt>
   <trkpt lat="35.626920" lon="-120.733405"><ele>422.75</ele></trkpt>
   <trkpt lat="35.626902" lon="-120.733700"><ele>420.75</ele></trkpt>
   <trkpt lat="35.626898" lon="-120.733964"><ele>418.75</ele></trkpt>
   <trkpt lat="35.626916" lon="-120.734188"><ele>416.75</ele></trkpt>
   <trkpt lat="35.626909" lon="-120.734332"><ele>415.25</ele></trkpt>
   <trkpt lat="35.626865" lon="-120.734496"><ele>413.75</ele></trkpt>
   <trkpt lat="35.626731" lon="-120.734817"><ele>410.5</ele></trkpt>
   <trkpt lat="35.626549" lon="-120.735113"><ele>405.25</ele></trkpt>
   <trkpt lat="35.626371" lon="-120.735374"><ele>399.5</ele></trkpt>
   <trkpt lat="35.626222" lon="-120.735529"><ele>396.0</ele></trkpt>
   <trkpt lat="35.626008" lon="-120.735644"><ele>393.25</ele></trkpt>
   <trkpt lat="35.625914" lon="-120.735659"><ele>392.75</ele></trkpt>
   <trkpt lat="35.625775" lon="-120.735640"><ele>392.0</ele></trkpt>
   <trkpt lat="35.625670" lon="-120.735599"><ele>390.75</ele></trkpt>
   <trkpt lat="35.625568" lon="-120.735494"><ele>391.25</ele></trkpt>
   <trkpt lat="35.625524" lon="-120.735417"><ele>392.0</ele></trkpt>
   <trkpt lat="35.625479" lon="-120.735299"><ele>394.0</ele></trkpt>
   <trkpt lat="35.625465" lon="-120.735206"><ele>396.0</ele></trkpt>
   <trkpt lat="35.625461" lon="-120.735116"><ele>398.0</ele></trkpt>
   <trkpt lat="35.625442" lon="-120.734963"><ele>401.0</ele></trkpt>
   <trkpt lat="35.625412" lon="-120.734908"><ele>401.75</ele></trkpt>
   <trkpt lat="35.625351" lon="-120.734845"><ele>402.0</ele></trkpt>
   <trkpt lat="35.625309" lon="-120.734843"><ele>401.25</ele></trkpt>
   <trkpt lat="35.625204" lon="-120.734867"><ele>399.0</ele></trkpt>
   <trkpt lat="35.625115" lon="-120.734916"><ele>396.5</ele></trkpt>
   <trkpt lat="35.624925" lon="-120.735054"><ele>391.75</ele></trkpt>
   <trkpt lat="35.624833" lon="-120.735168"><ele>389.0</ele></trkpt>
   <trkpt lat="35.624750" lon="-120.735299"><ele>385.75</ele></trkpt>
   <trkpt lat="35.624623" lon="-120.735416"><ele>383.0</ele></trkpt>
   <trkpt lat="35.624452" lon="-120.735497"><ele>381.25</ele></trkpt>
   <trkpt lat="35.624212" lon="-120.735528"><ele>380.75</ele></trkpt>
   <trkpt lat="35.624041" lon="-120.735522"><ele>380.25</ele></trkpt>
   <trkpt lat="35.623755" lon="-120.735454"><ele>379.5</ele></trkpt>
   <trkpt lat="35.623608" lon="-120.735470"><ele>378.25</ele></trkpt>
   <trkpt lat="35.623556" lon="-120.735495"><ele>377.5</ele></trkpt>
   <trkpt lat="35.623482" lon="-120.735572"><ele>377.0</ele></trkpt>
   <trkpt lat="35.623466" lon="-120.735638"><ele>376.75</ele></trkpt>
   <trkpt lat="35.623466" lon="-120.735716"><ele>376.5</ele></trkpt>
   <trkpt lat="35.623502" lon="-120.735793"><ele>376.25</ele></trkpt>
   <trkpt lat="35.623630" lon="-120.735908"><ele>376.25</ele></trkpt>
   <trkpt lat="35.623931" lon="-120.736109"><ele>375.25</ele></trkpt>
   <trkpt lat="35.624028" lon="-120.736188"><ele>374.25</ele></trkpt>
   <trkpt lat="35.624147" lon="-120.736330"><ele>372.5</ele></trkpt>
   <trkpt lat="35.624225" lon="-120.736534"><ele>371.5</ele></trkpt>
   <trkpt lat="35.624259" lon="-120.736600"><ele>371.25</ele></trkpt>
   <trkpt lat="35.624304" lon="-120.736774"><ele>370.75</ele></trkpt>
   <trkpt lat="35.624347" lon="-120.736879"><ele>370.75</ele></trkpt>
   <trkpt lat="35.624416" lon="-120.736978"><ele>370.0</ele></trkpt>
   <trkpt lat="35.624541" lon="-120.737207"><ele>368.75</ele></trkpt>
   <trkpt lat="35.624589" lon="-120.737310"><ele>368.25</ele></trkpt>
   <trkpt lat="35.624645" lon="-120.737477"><ele>367.5</ele></trkpt>
   <trkpt lat="35.624663" lon="-120.737592"><ele>366.5</ele></trkpt>
   <trkpt lat="35.624664" lon="-120.737711"><ele>365.5</ele></trkpt>
   <trkpt lat="35.624641" lon="-120.737840"><ele>364.75</ele></trkpt>
   <trkpt lat="35.624599" lon="-120.737985"><ele>364.25</ele></trkpt>
   <trkpt lat="35.624521" lon="-120.738199"><ele>363.0</ele></trkpt>
   <trkpt lat="35.624460" lon="-120.738309"><ele>362.25</ele></trkpt>
   <trkpt lat="35.624321" lon="-120.738511"><ele>360.75</ele></trkpt>
   <trkpt lat="35.624262" lon="-120.738572"><ele>359.75</ele></trkpt>
   <trkpt lat="35.624111" lon="-120.738702"><ele>357.5</ele></trkpt>
   <trkpt lat="35.623995" lon="-120.738782"><ele>356.0</ele></trkpt>
   <trkpt lat="35.623765" lon="-120.738906"><ele>353.5</ele></trkpt>
   <trkpt lat="35.623667" lon="-120.738947"><ele>352.75</ele></trkpt>
   <trkpt lat="35.623085" lon="-120.738987"><ele>349.75</ele></trkpt>
   <trkpt lat="35.622919" lon="-120.739031"><ele>348.25</ele></trkpt>
   <trkpt lat="35.622727" lon="-120.739133"><ele>345.5</ele></trkpt>
   <trkpt lat="35.622407" lon="-120.739224"><ele>344.75</ele></trkpt>
   <trkpt lat="35.622185" lon="-120.739250"><ele>344.5</ele></trkpt>
   <trkpt lat="35.622022" lon="-120.739285"><ele>345.0</ele></trkpt>
   <trkpt lat="35.621902" lon="-120.739303"><ele>345.0</ele></trkpt>
   <trkpt lat="35.621438" lon="-120.739301"><ele>345.75</ele></trkpt>
   <trkpt lat="35.620662" lon="-120.739238"><ele>348.0</ele></trkpt>
   <trkpt lat="35.620328" lon="-120.739218"><ele>348.25</ele></trkpt>
   <trkpt lat="35.619848" lon="-120.739224"><ele>347.0</ele></trkpt>
   <trkpt lat="35.619333" lon="-120.739252"><ele>341.0</ele></trkpt>
   <trkpt lat="35.619167" lon="-120.739292"><ele>339.25</ele></trkpt>
   <trkpt lat="35.619107" lon="-120.739315"><ele>339.5</ele></trkpt>
   <trkpt lat="35.619053" lon="-120.739355"><ele>340.25</ele></trkpt>
   <trkpt lat="35.619021" lon="-120.739390"><ele>340.75</ele></trkpt>
   <trkpt lat="35.618978" lon="-120.739484"><ele>342.0</ele></trkpt>
   <trkpt lat="35.618967" lon="-120.739541"><ele>342.75</ele></trkpt>
   <trkpt lat="35.618975" lon="-120.739655"><ele>344.0</ele></trkpt>
   <trkpt lat="35.619017" lon="-120.739818"><ele>345.75</ele></trkpt>
   <trkpt lat="35.619062" lon="-120.739929"><ele>346.75</ele></trkpt>
   <trkpt lat="35.619159" lon="-120.740124"><ele>347.25</ele></trkpt>
   <trkpt lat="35.619266" lon="-120.740305"><ele>349.0</ele></trkpt>
   <trkpt lat="35.619341" lon="-120.740412"><ele>350.0</ele></trkpt>
   <trkpt lat="35.619396" lon="-120.740492"><ele>350.5</ele></trkpt>
   <trkpt lat="35.619518" lon="-120.740614"><ele>351.5</ele></trkpt>
   <trkpt lat="35.619613" lon="-120.740792"><ele>351.25</ele></trkpt>
   <trkpt lat="35.619688" lon="-120.741049"><ele>352.75</ele></trkpt>
   <trkpt lat="35.619880" lon="-120.741814"><ele>356.25</ele></trkpt>
   <trkpt lat="35.620006" lon="-120.742107"><ele>355.0</ele></trkpt>
   <trkpt lat="35.620053" lon="-120.742296"><ele>355.0</ele></trkpt>
   <trkpt lat="35.620184" lon="-120.742994"><ele>356.75</ele></trkpt>
   <trkpt lat="35.620243" lon="-120.743144"><ele>357.0</ele></trkpt>
   <trkpt lat="35.620361" lon="-120.743366"><ele>357.0</ele></trkpt>
   <trkpt lat="35.620477" lon="-120.743614"><ele>358.5</ele></trkpt>
   <trkpt lat="35.620533" lon="-120.743691"><ele>358.75</ele></trkpt>
   <trkpt lat="35.620602" lon="-120.743749"><ele>358.25</ele></trkpt>
   <trkpt lat="35.620757" lon="-120.743835"><ele>356.75</ele></trkpt>
   <trkpt lat="35.620903" lon="-120.743966"><ele>357.25</ele></trkpt>
   <trkpt lat="35.620999" lon="-120.744077"><ele>358.75</ele></trkpt>
   <trkpt lat="35.621085" lon="-120.744234"><ele>360.75</ele></trkpt>
   <trkpt lat="35.621154" lon="-120.744422"><ele>362.75</ele></trkpt>
   <trkpt lat="35.621199" lon="-120.744615"><ele>364.75</ele></trkpt>
   <trkpt lat="35.621202" lon="-120.744717"><ele>365.25</ele></trkpt>
   <trkpt lat="35.621196" lon="-120.744820"><ele>366.0</ele></trkpt>
   <trkpt lat="35.621172" lon="-120.744961"><ele>366.5</ele></trkpt>
   <trkpt lat="35.621081" lon="-120.745380"><ele>366.75</ele></trkpt>
   <trkpt lat="35.621060" lon="-120.745536"><ele>367.0</ele></trkpt>
   <trkpt lat="35.621076" lon="-120.745846"><ele>368.25</ele></trkpt>
   <trkpt lat="35.621116" lon="-120.746432"><ele>374.0</ele></trkpt>
   <trkpt lat="35.621143" lon="-120.746580"><ele>375.5</ele></trkpt>
   <trkpt lat="35.621167" lon="-120.746630"><ele>376.25</ele></trkpt>
   <trkpt lat="35.621174" lon="-120.746699"><ele>377.0</ele></trkpt>
   <trkpt lat="35.621219" lon="-120.746883"><ele>378.75</ele></trkpt>
   <trkpt lat="35.621259" lon="-120.747030"><ele>380.5</ele></trkpt>
   <trkpt lat="35.621295" lon="-120.747222"><ele>382.25</ele></trkpt>
   <trkpt lat="35.621315" lon="-120.747417"><ele>383.75</ele></trkpt>
   <trkpt lat="35.621310" lon="-120.747568"><ele>384.5</ele></trkpt>
   <trkpt lat="35.621352" lon="-120.747882"><ele>386.0</ele></trkpt>
   <trkpt lat="35.621497" lon="-120.748209"><ele>388.25</ele></trkpt>
   <trkpt lat="35.621546" lon="-120.748534"><ele>388.75</ele></trkpt>
   <trkpt lat="35.621618" lon="-120.748926"><ele>388.5</ele></trkpt>
   <trkpt lat="35.621657" lon="-120.749259"><ele>387.5</ele></trkpt>
   <trkpt lat="35.621770" lon="-120.749423"><ele>390.0</ele></trkpt>
   <trkpt lat="35.622063" lon="-120.749738"><ele>396.0</ele></trkpt>
   <trkpt lat="35.622232" lon="-120.749933"><ele>397.75</ele></trkpt>
   <trkpt lat="35.622398" lon="-120.750108"><ele>399.5</ele></trkpt>
   <trkpt lat="35.622471" lon="-120.750215"><ele>399.75</ele></trkpt>
   <trkpt lat="35.622627" lon="-120.750543"><ele>398.25</ele></trkpt>
   <trkpt lat="35.622679" lon="-120.750626"><ele>397.75</ele></trkpt>
   <trkpt lat="35.622778" lon="-120.750716"><ele>397.5</ele></trkpt>
   <trkpt lat="35.622824" lon="-120.750748"><ele>397.5</ele></trkpt>
   <trkpt lat="35.622893" lon="-120.750768"><ele>398.0</ele></trkpt>
   <trkpt lat="35.623023" lon="-120.750781"><ele>399.0</ele></trkpt>
   <trkpt lat="35.623128" lon="-120.750816"><ele>399.25</ele></trkpt>
   <trkpt lat="35.623246" lon="-120.750893"><ele>399.75</ele></trkpt>
   <trkpt lat="35.623414" lon="-120.750976"><ele>400.5</ele></trkpt>
   <trkpt lat="35.623476" lon="-120.750984"><ele>401.0</ele></trkpt>
   <trkpt lat="35.623606" lon="-120.750954"><ele>402.0</ele></trkpt>
   <trkpt lat="35.623795" lon="-120.750841"><ele>403.75</ele></trkpt>
   <trkpt lat="35.623892" lon="-120.750833"><ele>404.25</ele></trkpt>
   <trkpt lat="35.623943" lon="-120.750875"><ele>404.5</ele></trkpt>
   <trkpt lat="35.623959" lon="-120.751004"><ele>405.0</ele></trkpt>
   <trkpt lat="35.623947" lon="-120.751089"><ele>405.0</ele></trkpt>
   <trkpt lat="35.623903" lon="-120.751221"><ele>404.75</ele></trkpt>
   <trkpt lat="35.623781" lon="-120.751518"><ele>403.0</ele></trkpt>
   <trkpt lat="35.623751" lon="-120.751634"><ele>402.5</ele></trkpt>
   <trkpt lat="35.623738" lon="-120.751823"><ele>402.75</ele></trkpt>
   <trkpt lat="35.623744" lon="-120.751899"><ele>403.25</ele></trkpt>
   <trkpt lat="35.623765" lon="-120.751993"><ele>404.0</ele></trkpt>
   <trkpt lat="35.623796" lon="-120.752080"><ele>404.75</ele></trkpt>
   <trkpt lat="35.623830" lon="-120.752147"><ele>405.75</ele></trkpt>
   <trkpt lat="35.623967" lon="-120.752420"><ele>408.75</ele></trkpt>
   <trkpt lat="35.624166" lon="-120.752761"><ele>410.25</ele></trkpt>
   <trkpt lat="35.624290" lon="-120.752954"><ele>411.5</ele></trkpt>
   <trkpt lat="35.624882" lon="-120.753683"><ele>413.75</ele></trkpt>
   <trkpt lat="35.625141" lon="-120.753887"><ele>413.75</ele></trkpt>
   <trkpt lat="35.625370" lon="-120.754056"><ele>413.75</ele></trkpt>
   <trkpt lat="35.625503" lon="-120.754124"><ele>414.0</ele></trkpt>
   <trkpt lat="35.625701" lon="-120.754175"><ele>415.25</ele></trkpt>
   <trkpt lat="35.625843" lon="-120.754192"><ele>416.75</ele></trkpt>
   <trkpt lat="35.626046" lon="-120.754197"><ele>417.75</ele></trkpt>
   <trkpt lat="35.626305" lon="-120.754156"><ele>419.25</ele></trkpt>
   <trkpt lat="35.626551" lon="-120.754101"><ele>421.5</ele></trkpt>
   <trkpt lat="35.626706" lon="-120.754113"><ele>422.0</ele></trkpt>
   <trkpt lat="35.626824" lon="-120.754156"><ele>422.0</ele></trkpt>
   <trkpt lat="35.626900" lon="-120.754280"><ele>422.75</ele></trkpt>
   <trkpt lat="35.626911" lon="-120.754405"><ele>423.5</ele></trkpt>
   <trkpt lat="35.626835" lon="-120.754483"><ele>423.25</ele></trkpt>
   <trkpt lat="35.626370" lon="-120.754649"><ele>418.75</ele></trkpt>
   <trkpt lat="35.626279" lon="-120.754916"><ele>416.75</ele></trkpt>
   <trkpt lat="35.626320" lon="-120.755251"><ele>418.0</ele></trkpt>
   <trkpt lat="35.626334" lon="-120.755314"><ele>418.25</ele></trkpt>
   <trkpt lat="35.626403" lon="-120.755531"><ele>420.0</ele></trkpt>
   <trkpt lat="35.626481" lon="-120.755719"><ele>421.75</ele></trkpt>
   <trkpt lat="35.626555" lon="-120.755849"><ele>423.0</ele></trkpt>
   <trkpt lat="35.626680" lon="-120.756031"><ele>423.75</ele></trkpt>
   <trkpt lat="35.627004" lon="-120.756659"><ele>429.0</ele></trkpt>
   <trkpt lat="35.627107" lon="-120.756811"><ele>430.25</ele></trkpt>
   <trkpt lat="35.627158" lon="-120.756918"><ele>430.0</ele></trkpt>
   <trkpt lat="35.627200" lon="-120.757195"><ele>427.25</ele></trkpt>
   <trkpt lat="35.627257" lon="-120.757399"><ele>425.5</ele></trkpt>
   <trkpt lat="35.627304" lon="-120.757697"><ele>423.75</ele></trkpt>
   <trkpt lat="35.627347" lon="-120.757894"><ele>423.5</ele></trkpt>
   <trkpt lat="35.627413" lon="-120.758146"><ele>423.0</ele></trkpt>
   <trkpt lat="35.627501" lon="-120.758638"><ele>423.75</ele></trkpt>
   <trkpt lat="35.627522" lon="-120.758918"><ele>425.0</ele></trkpt>
   <trkpt lat="35.627533" lon="-120.759169"><ele>425.75</ele></trkpt>
   <trkpt lat="35.627529" lon="-120.759282"><ele>426.25</ele></trkpt>
   <trkpt lat="35.627501" lon="-120.759413"><ele>426.0</ele></trkpt>
   <trkpt lat="35.627459" lon="-120.759509"><ele>426.5</ele></trkpt>
   <trkpt lat="35.627375" lon="-120.759650"><ele>427.0</ele></trkpt>
   <trkpt lat="35.627249" lon="-120.759813"><ele>427.5</ele></trkpt>
   <trkpt lat="35.627118" lon="-120.759948"><ele>428.25</ele></trkpt>
   <trkpt lat="35.627090" lon="-120.759987"><ele>428.25</ele></trkpt>
   <trkpt lat="35.627073" lon="-120.760052"><ele>428.75</ele></trkpt>
   <trkpt lat="35.627071" lon="-120.760164"><ele>429.25</ele></trkpt>
   <trkpt lat="35.627094" lon="-120.760339"><ele>430.25</ele></trkpt>
   <trkpt lat="35.627118" lon="-120.760690"><ele>431.75</ele></trkpt>
   <trkpt lat="35.627117" lon="-120.760755"><ele>432.25</ele></trkpt>
   <trkpt lat="35.627095" lon="-120.760913"><ele>433.25</ele></trkpt>
   <trkpt lat="35.626974" lon="-120.761398"><ele>438.25</ele></trkpt>
   <trkpt lat="35.626985" lon="-120.761522"><ele>439.0</ele></trkpt>
   <trkpt lat="35.627037" lon="-120.761667"><ele>439.25</ele></trkpt>
   <trkpt lat="35.627119" lon="-120.761790"><ele>439.25</ele></trkpt>
   <trkpt lat="35.627286" lon="-120.762118"><ele>439.75</ele></trkpt>
   <trkpt lat="35.627435" lon="-120.762325"><ele>438.0</ele></trkpt>
   <trkpt lat="35.627474" lon="-120.762391"><ele>437.75</ele></trkpt>
   <trkpt lat="35.627548" lon="-120.762592"><ele>439.0</ele></trkpt>
   <trkpt lat="35.627611" lon="-120.762828"><ele>441.25</ele></trkpt>
   <trkpt lat="35.627736" lon="-120.763444"><ele>445.75</ele></trkpt>
   <trkpt lat="35.627741" lon="-120.763514"><ele>445.75</ele></trkpt>
   <trkpt lat="35.627727" lon="-120.763591"><ele>446.0</ele></trkpt>
   <trkpt lat="35.627691" lon="-120.763717"><ele>446.5</ele></trkpt>
   <trkpt lat="35.627591" lon="-120.763793"><ele>447.25</ele></trkpt>
   <trkpt lat="35.627455" lon="-120.763865"><ele>448.25</ele></trkpt>
   <trkpt lat="35.627275" lon="-120.763992"><ele>450.5</ele></trkpt>
   <trkpt lat="35.627185" lon="-120.764092"><ele>451.5</ele></trkpt>
   <trkpt lat="35.627118" lon="-120.764192"><ele>452.25</ele></trkpt>
   <trkpt lat="35.627095" lon="-120.764248"><ele>453.25</ele></trkpt>
   <trkpt lat="35.627054" lon="-120.764353"><ele>454.5</ele></trkpt>
   <trkpt lat="35.626995" lon="-120.764606"><ele>457.0</ele></trkpt>
   <trkpt lat="35.626862" lon="-120.765322"><ele>462.25</ele></trkpt>
   <trkpt lat="35.626709" lon="-120.765751"><ele>463.75</ele></trkpt>
   <trkpt lat="35.626284" lon="-120.766389"><ele>466.75</ele></trkpt>
   <trkpt lat="35.626124" lon="-120.766715"><ele>464.75</ele></trkpt>
   <trkpt lat="35.626078" lon="-120.766843"><ele>464.25</ele></trkpt>
   <trkpt lat="35.626022" lon="-120.767040"><ele>463.25</ele></trkpt>
   <trkpt lat="35.625976" lon="-120.767166"><ele>462.25</ele></trkpt>
   <trkpt lat="35.625757" lon="-120.767551"><ele>458.25</ele></trkpt>
   <trkpt lat="35.625730" lon="-120.767623"><ele>458.25</ele></trkpt>
   <trkpt lat="35.625717" lon="-120.767680"><ele>458.25</ele></trkpt>
   <trkpt lat="35.625726" lon="-120.767801"><ele>458.75</ele></trkpt>
   <trkpt lat="35.625842" lon="-120.768217"><ele>461.75</ele></trkpt>
   <trkpt lat="35.625830" lon="-120.768284"><ele>461.75</ele></trkpt>
   <trkpt lat="35.625785" lon="-120.768349"><ele>461.5</ele></trkpt>
   <trkpt lat="35.625712" lon="-120.768430"><ele>460.75</ele></trkpt>
   <trkpt lat="35.625638" lon="-120.768521"><ele>460.25</ele></trkpt>
   <trkpt lat="35.625579" lon="-120.768633"><ele>460.0</ele></trkpt>
   <trkpt lat="35.625570" lon="-120.768765"><ele>460.0</ele></trkpt>
   <trkpt lat="35.625635" lon="-120.769062"><ele>461.0</ele></trkpt>
   <trkpt lat="35.625648" lon="-120.769107"><ele>461.25</ele></trkpt>
   <trkpt lat="35.625638" lon="-120.769165"><ele>461.25</ele></trkpt>
   <trkpt lat="35.625614" lon="-120.769197"><ele>461.25</ele></trkpt>
   <trkpt lat="35.625585" lon="-120.769217"><ele>461.25</ele></trkpt>
   <trkpt lat="35.625531" lon="-120.769233"><ele>461.0</ele></trkpt>
   <trkpt lat="35.625271" lon="-120.769199"><ele>458.5</ele></trkpt>
   <trkpt lat="35.625184" lon="-120.769211"><ele>457.75</ele></trkpt>
   <trkpt lat="35.625072" lon="-120.769318"><ele>457.25</ele></trkpt>
   <trkpt lat="35.625041" lon="-120.769470"><ele>457.75</ele></trkpt>
   <trkpt lat="35.625097" lon="-120.769910"><ele>461.0</ele></trkpt>
   <trkpt lat="35.625157" lon="-120.770108"><ele>462.5</ele></trkpt>
   <trkpt lat="35.625321" lon="-120.770816"><ele>467.25</ele></trkpt>
   <trkpt lat="35.625380" lon="-120.770962"><ele>468.25</ele></trkpt>
   <trkpt lat="35.625462" lon="-120.771080"><ele>470.25</ele></trkpt>
   <trkpt lat="35.625593" lon="-120.771188"><ele>473.25</ele></trkpt>
   <trkpt lat="35.625728" lon="-120.771264"><ele>476.25</ele></trkpt>
   <trkpt lat="35.625836" lon="-120.771316"><ele>479.0</ele></trkpt>
   <trkpt lat="35.625880" lon="-120.771359"><ele>480.0</ele></trkpt>
   <trkpt lat="35.625894" lon="-120.771394"><ele>480.5</ele></trkpt>
   <trkpt lat="35.625895" lon="-120.771452"><ele>480.5</ele></trkpt>
   <trkpt lat="35.625887" lon="-120.771485"><ele>480.25</ele></trkpt>
   <trkpt lat="35.625838" lon="-120.771556"><ele>479.0</ele></trkpt>
   <trkpt lat="35.625688" lon="-120.771724"><ele>475.75</ele></trkpt>
   <trkpt lat="35.625615" lon="-120.771824"><ele>474.75</ele></trkpt>
   <trkpt lat="35.625520" lon="-120.772003"><ele>474.0</ele></trkpt>
   <trkpt lat="35.625460" lon="-120.772417"><ele>476.25</ele></trkpt>
   <trkpt lat="35.625452" lon="-120.772652"><ele>476.25</ele></trkpt>
   <trkpt lat="35.625514" lon="-120.773053"><ele>476.25</ele></trkpt>
   <trkpt lat="35.625555" lon="-120.773191"><ele>476.75</ele></trkpt>
   <trkpt lat="35.625635" lon="-120.773368"><ele>478.0</ele></trkpt>
   <trkpt lat="35.625696" lon="-120.773476"><ele>478.5</ele></trkpt>
   <trkpt lat="35.626189" lon="-120.773953"><ele>483.75</ele></trkpt>
   <trkpt lat="35.626405" lon="-120.774203"><ele>484.25</ele></trkpt>
   <trkpt lat="35.626569" lon="-120.774438"><ele>485.5</ele></trkpt>
   <trkpt lat="35.626653" lon="-120.774533"><ele>485.75</ele></trkpt>
   <trkpt lat="35.626877" lon="-120.774656"><ele>485.75</ele></trkpt>
   <trkpt lat="35.627044" lon="-120.774654"><ele>486.5</ele></trkpt>
   <trkpt lat="35.627262" lon="-120.774607"><ele>488.0</ele></trkpt>
   <trkpt lat="35.627367" lon="-120.774554"><ele>489.0</ele></trkpt>
   <trkpt lat="35.627521" lon="-120.774535"><ele>489.75</ele></trkpt>
   <trkpt lat="35.627569" lon="-120.774571"><ele>489.75</ele></trkpt>
   <trkpt lat="35.627584" lon="-120.774673"><ele>489.5</ele></trkpt>
   <trkpt lat="35.627598" lon="-120.774760"><ele>489.0</ele></trkpt>
   <trkpt lat="35.627527" lon="-120.774857"><ele>488.0</ele></trkpt>
   <trkpt lat="35.627274" lon="-120.775120"><ele>485.5</ele></trkpt>
   <trkpt lat="35.627189" lon="-120.775232"><ele>485.25</ele></trkpt>
   <trkpt lat="35.627153" lon="-120.775317"><ele>485.25</ele></trkpt>
   <trkpt lat="35.627141" lon="-120.775404"><ele>485.5</ele></trkpt>
   <trkpt lat="35.627153" lon="-120.775532"><ele>485.75</ele></trkpt>
   <trkpt lat="35.627169" lon="-120.775832"><ele>486.75</ele></trkpt>
   <trkpt lat="35.627161" lon="-120.775906"><ele>487.0</ele></trkpt>
   <trkpt lat="35.627128" lon="-120.775989"><ele>487.5</ele></trkpt>
   <trkpt lat="35.627058" lon="-120.776079"><ele>487.75</ele></trkpt>
   <trkpt lat="35.626808" lon="-120.776321"><ele>488.25</ele></trkpt>
   <trkpt lat="35.626706" lon="-120.776502"><ele>489.0</ele></trkpt>
   <trkpt lat="35.626677" lon="-120.776574"><ele>489.25</ele></trkpt>
   <trkpt lat="35.626586" lon="-120.776924"><ele>487.5</ele></trkpt>
   <trkpt lat="35.626517" lon="-120.777315"><ele>484.25</ele></trkpt>
   <trkpt lat="35.626443" lon="-120.777870"><ele>481.75</ele></trkpt>
   <trkpt lat="35.626447" lon="-120.778188"><ele>481.25</ele></trkpt>
   <trkpt lat="35.626455" lon="-120.778335"><ele>481.0</ele></trkpt>
   <trkpt lat="35.626426" lon="-120.778509"><ele>481.5</ele></trkpt>
   <trkpt lat="35.626384" lon="-120.778592"><ele>482.0</ele></trkpt>
   <trkpt lat="35.626252" lon="-120.778729"><ele>482.5</ele></trkpt>
   <trkpt lat="35.626081" lon="-120.778866"><ele>483.25</ele></trkpt>
   <trkpt lat="35.625939" lon="-120.779044"><ele>484.25</ele></trkpt>
   <trkpt lat="35.625871" lon="-120.779170"><ele>484.75</ele></trkpt>
   <trkpt lat="35.625808" lon="-120.779424"><ele>485.0</ele></trkpt>
   <trkpt lat="35.625794" lon="-120.779662"><ele>485.0</ele></trkpt>
   <trkpt lat="35.625831" lon="-120.779883"><ele>485.0</ele></trkpt>
   <trkpt lat="35.626007" lon="-120.780618"><ele>486.25</ele></trkpt>
   <trkpt lat="35.626051" lon="-120.780886"><ele>487.5</ele></trkpt>
   <trkpt lat="35.626117" lon="-120.781121"><ele>489.5</ele></trkpt>
   <trkpt lat="35.626157" lon="-120.781326"><ele>490.75</ele></trkpt>
   <trkpt lat="35.626507" lon="-120.781971"><ele>494.25</ele></trkpt>
   <trkpt lat="35.626601" lon="-120.782217"><ele>494.0</ele></trkpt>
   <trkpt lat="35.626689" lon="-120.782547"><ele>493.25</ele></trkpt>
   <trkpt lat="35.626853" lon="-120.782886"><ele>495.5</ele></trkpt>
   <trkpt lat="35.626876" lon="-120.782960"><ele>495.75</ele></trkpt>
   <trkpt lat="35.626894" lon="-120.783062"><ele>496.0</ele></trkpt>
   <trkpt lat="35.626928" lon="-120.783401"><ele>496.5</ele></trkpt>
   <trkpt lat="35.626980" lon="-120.784316"><ele>497.75</ele></trkpt>
   <trkpt lat="35.626911" lon="-120.784832"><ele>499.25</ele></trkpt>
   <trkpt lat="35.626949" lon="-120.785182"><ele>500.75</ele></trkpt>
   <trkpt lat="35.626987" lon="-120.785340"><ele>501.75</ele></trkpt>
   <trkpt lat="35.627127" lon="-120.785671"><ele>503.25</ele></trkpt>
   <trkpt lat="35.627220" lon="-120.785874"><ele>503.5</ele></trkpt>
   <trkpt lat="35.627338" lon="-120.786102"><ele>503.5</ele></trkpt>
   <trkpt lat="35.627560" lon="-120.786985"><ele>504.75</ele></trkpt>
   <trkpt lat="35.627647" lon="-120.787426"><ele>505.75</ele></trkpt>
   <trkpt lat="35.627677" lon="-120.787724"><ele>507.75</ele></trkpt>
   <trkpt lat="35.627578" lon="-120.787962"><ele>509.5</ele></trkpt>
   <trkpt lat="35.627471" lon="-120.788108"><ele>510.25</ele></trkpt>
   <trkpt lat="35.627141" lon="-120.788501"><ele>513.25</ele></trkpt>
   <trkpt lat="35.626883" lon="-120.788849"><ele>516.5</ele></trkpt>
   <trkpt lat="35.626042" lon="-120.789773"><ele>524.75</ele></trkpt>
   <trkpt lat="35.625835" lon="-120.789881"><ele>525.0</ele></trkpt>
   <trkpt lat="35.625754" lon="-120.789859"><ele>526.75</ele></trkpt>
   <trkpt lat="35.625681" lon="-120.789802"><ele>528.5</ele></trkpt>
   <trkpt lat="35.625654" lon="-120.789706"><ele>529.0</ele></trkpt>
   <trkpt lat="35.625640" lon="-120.789553"><ele>529.5</ele></trkpt>
   <trkpt lat="35.625596" lon="-120.789328"><ele>530.75</ele></trkpt>
   <trkpt lat="35.625524" lon="-120.789145"><ele>532.5</ele></trkpt>
   <trkpt lat="35.625479" lon="-120.789079"><ele>533.5</ele></trkpt>
   <trkpt lat="35.625421" lon="-120.789017"><ele>534.5</ele></trkpt>
   <trkpt lat="35.625250" lon="-120.788898"><ele>538.25</ele></trkpt>
   <trkpt lat="35.625052" lon="-120.788789"><ele>542.75</ele></trkpt>
   <trkpt lat="35.624861" lon="-120.788656"><ele>547.0</ele></trkpt>
   <trkpt lat="35.624793" lon="-120.788577"><ele>548.25</ele></trkpt>
   <trkpt lat="35.624779" lon="-120.788544"><ele>548.5</ele></trkpt>
   <trkpt lat="35.624773" lon="-120.788497"><ele>548.5</ele></trkpt>
   <trkpt lat="35.624795" lon="-120.788401"><ele>547.5</ele></trkpt>
   <trkpt lat="35.625063" lon="-120.787940"><ele>540.25</ele></trkpt>
   <trkpt lat="35.625110" lon="-120.787803"><ele>539.0</ele></trkpt>
   <trkpt lat="35.625166" lon="-120.787596"><ele>537.75</ele></trkpt>
   <trkpt lat="35.625169" lon="-120.787439"><ele>537.25</ele></trkpt>
   <trkpt lat="35.625157" lon="-120.787251"><ele>536.5</ele></trkpt>
   <trkpt lat="35.625114" lon="-120.787177"><ele>537.25</ele></trkpt>
   <trkpt lat="35.624982" lon="-120.787055"><ele>540.25</ele></trkpt>
   <trkpt lat="35.624640" lon="-120.786855"><ele>545.75</ele></trkpt>
   <trkpt lat="35.624224" lon="-120.786715"><ele>552.5</ele></trkpt>
   <trkpt lat="35.623738" lon="-120.786489"><ele>554.75</ele></trkpt>
   <trkpt lat="35.623445" lon="-120.786320"><ele>556.75</ele></trkpt>
   <trkpt lat="35.623161" lon="-120.786199"><ele>557.0</ele></trkpt>
   <trkpt lat="35.622787" lon="-120.786050"><ele>555.75</ele></trkpt>
   <trkpt lat="35.622437" lon="-120.785964"><ele>555.0</ele></trkpt>
   <trkpt lat="35.622307" lon="-120.785966"><ele>554.5</ele></trkpt>
   <trkpt lat="35.622103" lon="-120.786014"><ele>552.75</ele></trkpt>
   <trkpt lat="35.621738" lon="-120.786063"><ele>550.25</ele></trkpt>
   <trkpt lat="35.621557" lon="-120.786079"><ele>549.25</ele></trkpt>
   <trkpt lat="35.621418" lon="-120.786083"><ele>548.75</ele></trkpt>
   <trkpt lat="35.621319" lon="-120.786178"><ele>546.75</ele></trkpt>
   <trkpt lat="35.621227" lon="-120.786338"><ele>544.0</ele></trkpt>
   <trkpt lat="35.620833" lon="-120.786570"><ele>539.25</ele></trkpt>
   <trkpt lat="35.620686" lon="-120.786600"><ele>537.75</ele></trkpt>
   <trkpt lat="35.620468" lon="-120.786676"><ele>535.75</ele></trkpt>
   <trkpt lat="35.620388" lon="-120.786688"><ele>535.25</ele></trkpt>
   <trkpt lat="35.620291" lon="-120.786670"><ele>534.5</ele></trkpt>
   <trkpt lat="35.620184" lon="-120.786634"><ele>534.25</ele></trkpt>
   <trkpt lat="35.620080" lon="-120.786570"><ele>533.75</ele></trkpt>
   <trkpt lat="35.619930" lon="-120.786439"><ele>532.75</ele></trkpt>
   <trkpt lat="35.619878" lon="-120.786325"><ele>532.5</ele></trkpt>
   <trkpt lat="35.619812" lon="-120.786092"><ele>532.0</ele></trkpt>
   <trkpt lat="35.619856" lon="-120.785890"><ele>532.75</ele></trkpt>
   <trkpt lat="35.619935" lon="-120.785700"><ele>535.25</ele></trkpt>
   <trkpt lat="35.619992" lon="-120.785609"><ele>537.0</ele></trkpt>
   <trkpt lat="35.619979" lon="-120.785488"><ele>538.0</ele></trkpt>
   <trkpt lat="35.619924" lon="-120.785423"><ele>538.0</ele></trkpt>
   <trkpt lat="35.619849" lon="-120.785425"><ele>537.0</ele></trkpt>
   <trkpt lat="35.619638" lon="-120.785457"><ele>534.0</ele></trkpt>
   <trkpt lat="35.619438" lon="-120.785527"><ele>530.75</ele></trkpt>
   <trkpt lat="35.619171" lon="-120.785479"><ele>528.0</ele></trkpt>
   <trkpt lat="35.619031" lon="-120.785499"><ele>528.0</ele></trkpt>
   <trkpt lat="35.618903" lon="-120.785572"><ele>527.0</ele></trkpt>
   <trkpt lat="35.618595" lon="-120.785657"><ele>525.25</ele></trkpt>
   <trkpt lat="35.618186" lon="-120.785786"><ele>524.25</ele></trkpt>
   <trkpt lat="35.617910" lon="-120.786002"><ele>525.25</ele></trkpt>
   <trkpt lat="35.617571" lon="-120.786455"><ele>519.0</ele></trkpt>
   <trkpt lat="35.617389" lon="-120.786800"><ele>515.75</ele></trkpt>
   <trkpt lat="35.617061" lon="-120.787445"><ele>515.25</ele></trkpt>
   <trkpt lat="35.616895" lon="-120.787867"><ele>513.25</ele></trkpt>
   <trkpt lat="35.616795" lon="-120.788162"><ele>510.25</ele></trkpt>
   <trkpt lat="35.616761" lon="-120.788844"><ele>506.25</ele></trkpt>
   <trkpt lat="35.616619" lon="-120.789373"><ele>502.5</ele></trkpt>
   <trkpt lat="35.616432" lon="-120.789876"><ele>502.5</ele></trkpt>
   <trkpt lat="35.616400" lon="-120.790153"><ele>501.75</ele></trkpt>
   <trkpt lat="35.616410" lon="-120.790354"><ele>501.0</ele></trkpt>
   <trkpt lat="35.616381" lon="-120.790591"><ele>500.5</ele></trkpt>
   <trkpt lat="35.616331" lon="-120.790799"><ele>500.25</ele></trkpt>
   <trkpt lat="35.616012" lon="-120.791578"><ele>492.25</ele></trkpt>
   <trkpt lat="35.615847" lon="-120.792130"><ele>486.5</ele></trkpt>
   <trkpt lat="35.615618" lon="-120.792544"><ele>486.75</ele></trkpt>
   <trkpt lat="35.615597" lon="-120.792641"><ele>486.75</ele></trkpt>
   <trkpt lat="35.615592" lon="-120.792735"><ele>486.75</ele></trkpt>
   <trkpt lat="35.615653" lon="-120.792991"><ele>485.75</ele></trkpt>
   <trkpt lat="35.615636" lon="-120.793258"><ele>485.5</ele></trkpt>
   <trkpt lat="35.615625" lon="-120.793363"><ele>485.25</ele></trkpt>
   <trkpt lat="35.615608" lon="-120.793448"><ele>484.75</ele></trkpt>
   <trkpt lat="35.615487" lon="-120.793671"><ele>483.0</ele></trkpt>
   <trkpt lat="35.615358" lon="-120.793806"><ele>481.75</ele></trkpt>
   <trkpt lat="35.615149" lon="-120.794058"><ele>478.75</ele></trkpt>
   <trkpt lat="35.614930" lon="-120.794425"><ele>476.25</ele></trkpt>
   <trkpt lat="35.614691" lon="-120.794929"><ele>476.0</ele></trkpt>
   <trkpt lat="35.614633" lon="-120.795222"><ele>475.25</ele></trkpt>
   <trkpt lat="35.614551" lon="-120.795530"><ele>475.0</ele></trkpt>
   <trkpt lat="35.614443" lon="-120.795819"><ele>474.25</ele></trkpt>
   <trkpt lat="35.614450" lon="-120.795962"><ele>473.75</ele></trkpt>
   <trkpt lat="35.614492" lon="-120.796103"><ele>473.0</ele></trkpt>
   <trkpt lat="35.614522" lon="-120.796327"><ele>472.25</ele></trkpt>
   <trkpt lat="35.614531" lon="-120.796481"><ele>472.0</ele></trkpt>
   <trkpt lat="35.614463" lon="-120.797092"><ele>470.5</ele></trkpt>
   <trkpt lat="35.614433" lon="-120.797549"><ele>469.25</ele></trkpt>
   <trkpt lat="35.614433" lon="-120.797914"><ele>469.0</ele></trkpt>
   <trkpt lat="35.614419" lon="-120.798226"><ele>468.5</ele></trkpt>
   <trkpt lat="35.614351" lon="-120.798510"><ele>466.5</ele></trkpt>
   <trkpt lat="35.614057" lon="-120.799085"><ele>463.0</ele></trkpt>
   <trkpt lat="35.613752" lon="-120.799671"><ele>463.5</ele></trkpt>
   <trkpt lat="35.613736" lon="-120.799888"><ele>462.0</ele></trkpt>
   <trkpt lat="35.613785" lon="-120.800025"><ele>460.5</ele></trkpt>
   <trkpt lat="35.613864" lon="-120.800142"><ele>459.25</ele></trkpt>
   <trkpt lat="35.613911" lon="-120.800257"><ele>458.5</ele></trkpt>
   <trkpt lat="35.613966" lon="-120.800356"><ele>457.75</ele></trkpt>
   <trkpt lat="35.614001" lon="-120.800477"><ele>457.0</ele></trkpt>
   <trkpt lat="35.613989" lon="-120.800619"><ele>456.75</ele></trkpt>
   <trkpt lat="35.613967" lon="-120.800687"><ele>456.75</ele></trkpt>
   <trkpt lat="35.613875" lon="-120.800856"><ele>456.75</ele></trkpt>
   <trkpt lat="35.613810" lon="-120.801002"><ele>456.25</ele></trkpt>
   <trkpt lat="35.613725" lon="-120.801228"><ele>455.0</ele></trkpt>
   <trkpt lat="35.613672" lon="-120.801427"><ele>453.75</ele></trkpt>
   <trkpt lat="35.613646" lon="-120.801657"><ele>452.0</ele></trkpt>
   <trkpt lat="35.613596" lon="-120.801905"><ele>450.25</ele></trkpt>
   <trkpt lat="35.613467" lon="-120.802233"><ele>448.0</ele></trkpt>
   <trkpt lat="35.613374" lon="-120.802491"><ele>446.0</ele></trkpt>
   <trkpt lat="35.613302" lon="-120.802749"><ele>444.75</ele></trkpt>
   <trkpt lat="35.613245" lon="-120.802902"><ele>444.5</ele></trkpt>
   <trkpt lat="35.613187" lon="-120.802997"><ele>444.25</ele></trkpt>
   <trkpt lat="35.613104" lon="-120.803088"><ele>444.5</ele></trkpt>
   <trkpt lat="35.613054" lon="-120.803157"><ele>444.5</ele></trkpt>
   <trkpt lat="35.612961" lon="-120.803657"><ele>445.5</ele></trkpt>
   <trkpt lat="35.612859" lon="-120.803819"><ele>446.25</ele></trkpt>
   <trkpt lat="35.612797" lon="-120.803976"><ele>446.75</ele></trkpt>
   <trkpt lat="35.612684" lon="-120.804129"><ele>447.0</ele></trkpt>
   <trkpt lat="35.612481" lon="-120.804219"><ele>446.75</ele></trkpt>
   <trkpt lat="35.612323" lon="-120.804305"><ele>446.75</ele></trkpt>
   <trkpt lat="35.612222" lon="-120.804412"><ele>446.5</ele></trkpt>
   <trkpt lat="35.611974" lon="-120.804965"><ele>442.75</ele></trkpt>
   <trkpt lat="35.611604" lon="-120.805862"><ele>438.5</ele></trkpt>
   <trkpt lat="35.611414" lon="-120.806133"><ele>439.5</ele></trkpt>
   <trkpt lat="35.611366" lon="-120.806272"><ele>439.5</ele></trkpt>
   <trkpt lat="35.611337" lon="-120.806377"><ele>439.0</ele></trkpt>
   <trkpt lat="35.611195" lon="-120.806598"><ele>438.25</ele></trkpt>
   <trkpt lat="35.611120" lon="-120.806676"><ele>437.75</ele></trkpt>
   <trkpt lat="35.611073" lon="-120.806754"><ele>437.5</ele></trkpt>
   <trkpt lat="35.611046" lon="-120.806836"><ele>437.0</ele></trkpt>
   <trkpt lat="35.611019" lon="-120.806956"><ele>436.5</ele></trkpt>
   <trkpt lat="35.610966" lon="-120.807385"><ele>434.25</ele></trkpt>
   <trkpt lat="35.610909" lon="-120.807600"><ele>433.5</ele></trkpt>
   <trkpt lat="35.610832" lon="-120.807721"><ele>433.0</ele></trkpt>
   <trkpt lat="35.610607" lon="-120.807913"><ele>432.5</ele></trkpt>
   <trkpt lat="35.610427" lon="-120.808006"><ele>431.75</ele></trkpt>
   <trkpt lat="35.610377" lon="-120.808052"><ele>431.5</ele></trkpt>
   <trkpt lat="35.609470" lon="-120.808327"><ele>427.5</ele></trkpt>
   <trkpt lat="35.609269" lon="-120.808342"><ele>427.75</ele></trkpt>
   <trkpt lat="35.609087" lon="-120.808417"><ele>428.0</ele></trkpt>
   <trkpt lat="35.608957" lon="-120.808520"><ele>428.25</ele></trkpt>
   <trkpt lat="35.608483" lon="-120.809109"><ele>423.25</ele></trkpt>
   <trkpt lat="35.608359" lon="-120.809219"><ele>422.25</ele></trkpt>
   <trkpt lat="35.608185" lon="-120.809337"><ele>422.25</ele></trkpt>
   <trkpt lat="35.608003" lon="-120.809403"><ele>422.0</ele></trkpt>
   <trkpt lat="35.607748" lon="-120.809409"><ele>421.75</ele></trkpt>
   <trkpt lat="35.607464" lon="-120.809474"><ele>421.25</ele></trkpt>
   <trkpt lat="35.607203" lon="-120.809544"><ele>422.5</ele></trkpt>
   <trkpt lat="35.606971" lon="-120.809671"><ele>422.5</ele></trkpt>
   <trkpt lat="35.606640" lon="-120.809980"><ele>420.25</ele></trkpt>
   <trkpt lat="35.606259" lon="-120.810099"><ele>419.5</ele></trkpt>
   <trkpt lat="35.605645" lon="-120.810310"><ele>417.75</ele></trkpt>
   <trkpt lat="35.605060" lon="-120.810554"><ele>415.25</ele></trkpt>
   <trkpt lat="35.604662" lon="-120.810703"><ele>414.25</ele></trkpt>
   <trkpt lat="35.604254" lon="-120.810880"><ele>412.75</ele></trkpt>
   <trkpt lat="35.604156" lon="-120.810934"><ele>412.5</ele></trkpt>
   <trkpt lat="35.603865" lon="-120.811045"><ele>412.0</ele></trkpt>
   <trkpt lat="35.602891" lon="-120.811696"><ele>409.5</ele></trkpt>
   <trkpt lat="35.602524" lon="-120.811891"><ele>410.25</ele></trkpt>
   <trkpt lat="35.601478" lon="-120.812413"><ele>411.25</ele></trkpt>
   <trkpt lat="35.600642" lon="-120.813010"><ele>411.25</ele></trkpt>
   <trkpt lat="35.600336" lon="-120.812987"><ele>410.0</ele></trkpt>
   <trkpt lat="35.599765" lon="-120.812931"><ele>407.5</ele></trkpt>
   <trkpt lat="35.599552" lon="-120.812948"><ele>407.25</ele></trkpt>
   <trkpt lat="35.599126" lon="-120.812982"><ele>406.75</ele></trkpt>
   <trkpt lat="35.598432" lon="-120.813050"><ele>408.5</ele></trkpt>
   <trkpt lat="35.597912" lon="-120.813154"><ele>406.0</ele></trkpt>
   <trkpt lat="35.597752" lon="-120.813221"><ele>405.25</ele></trkpt>
   <trkpt lat="35.597543" lon="-120.813401"><ele>405.5</ele></trkpt>
   <trkpt lat="35.597408" lon="-120.813344"><ele>403.25</ele></trkpt>
   <trkpt lat="35.596400" lon="-120.813430"><ele>400.0</ele></trkpt>
   <trkpt lat="35.595918" lon="-120.813235"><ele>401.75</ele></trkpt>
   <trkpt lat="35.595712" lon="-120.813139"><ele>400.75</ele></trkpt>
   <trkpt lat="35.594726" lon="-120.813044"><ele>395.25</ele></trkpt>
   <trkpt lat="35.593867" lon="-120.813013"><ele>387.25</ele></trkpt>
   <trkpt lat="35.593674" lon="-120.812979"><ele>385.75</ele></trkpt>
   <trkpt lat="35.593453" lon="-120.813017"><ele>384.25</ele></trkpt>
   <trkpt lat="35.593304" lon="-120.813009"><ele>383.5</ele></trkpt>
   <trkpt lat="35.593123" lon="-120.812906"><ele>384.0</ele></trkpt>
   <trkpt lat="35.593002" lon="-120.812761"><ele>385.0</ele></trkpt>
   <trkpt lat="35.593002" lon="-120.812863"><ele>384.25</ele></trkpt>
   <trkpt lat="35.593081" lon="-120.813080"><ele>382.75</ele></trkpt>
   <trkpt lat="35.593217" lon="-120.813232"><ele>382.0</ele></trkpt>
   <trkpt lat="35.593081" lon="-120.813080"><ele>382.75</ele></trkpt>
   <trkpt lat="35.593002" lon="-120.812863"><ele>384.25</ele></trkpt>
   <trkpt lat="35.593002" lon="-120.812761"><ele>385.0</ele></trkpt>
   <trkpt lat="35.593123" lon="-120.812906"><ele>384.0</ele></trkpt>
   <trkpt lat="35.593304" lon="-120.813009"><ele>383.5</ele></trkpt>
   <trkpt lat="35.593453" lon="-120.813017"><ele>384.25</ele></trkpt>
   <trkpt lat="35.593674" lon="-120.812979"><ele>385.75</ele></trkpt>
   <trkpt lat="35.593867" lon="-120.813013"><ele>387.25</ele></trkpt>
   <trkpt lat="35.594726" lon="-120.813044"><ele>395.25</ele></trkpt>
   <trkpt lat="35.595712" lon="-120.813139"><ele>400.75</ele></trkpt>
   <trkpt lat="35.595918" lon="-120.813235"><ele>401.75</ele></trkpt>
   <trkpt lat="35.596400" lon="-120.813430"><ele>400.0</ele></trkpt>
   <trkpt lat="35.597408" lon="-120.813344"><ele>403.25</ele></trkpt>
   <trkpt lat="35.597543" lon="-120.813401"><ele>405.5</ele></trkpt>
   <trkpt lat="35.597851" lon="-120.812872"><ele>403.25</ele></trkpt>
   <trkpt lat="35.598012" lon="-120.812709"><ele>403.25</ele></trkpt>
   <trkpt lat="35.598149" lon="-120.812650"><ele>403.75</ele></trkpt>
   <trkpt lat="35.598651" lon="-120.812460"><ele>402.5</ele></trkpt>
   <trkpt lat="35.598998" lon="-120.812113"><ele>401.0</ele></trkpt>
   <trkpt lat="35.599046" lon="-120.812020"><ele>400.75</ele></trkpt>
   <trkpt lat="35.599070" lon="-120.811935"><ele>400.75</ele></trkpt>
   <trkpt lat="35.599108" lon="-120.811854"><ele>400.75</ele></trkpt>
   <trkpt lat="35.599162" lon="-120.811690"><ele>400.75</ele></trkpt>
   <trkpt lat="35.599257" lon="-120.811466"><ele>402.75</ele></trkpt>
   <trkpt lat="35.599278" lon="-120.811406"><ele>403.25</ele></trkpt>
   <trkpt lat="35.599312" lon="-120.811227"><ele>405.0</ele></trkpt>
   <trkpt lat="35.599332" lon="-120.811031"><ele>407.0</ele></trkpt>
   <trkpt lat="35.599296" lon="-120.810785"><ele>409.5</ele></trkpt>
   <trkpt lat="35.599169" lon="-120.810449"><ele>411.25</ele></trkpt>
   <trkpt lat="35.598942" lon="-120.809876"><ele>415.5</ele></trkpt>
   <trkpt lat="35.598935" lon="-120.809667"><ele>418.5</ele></trkpt>
   <trkpt lat="35.599148" lon="-120.808773"><ele>426.25</ele></trkpt>
   <trkpt lat="35.599224" lon="-120.808334"><ele>430.25</ele></trkpt>
   <trkpt lat="35.599235" lon="-120.807938"><ele>429.0</ele></trkpt>
   <trkpt lat="35.599204" lon="-120.807624"><ele>427.75</ele></trkpt>
   <trkpt lat="35.598992" lon="-120.806381"><ele>425.0</ele></trkpt>
   <trkpt lat="35.598961" lon="-120.806202"><ele>424.75</ele></trkpt>
   <trkpt lat="35.598527" lon="-120.803985"><ele>429.5</ele></trkpt>
   <trkpt lat="35.598482" lon="-120.803801"><ele>429.25</ele></trkpt>
   <trkpt lat="35.598456" lon="-120.803697"><ele>429.25</ele></trkpt>
   <trkpt lat="35.598337" lon="-120.803297"><ele>429.75</ele></trkpt>
   <trkpt lat="35.597659" lon="-120.801960"><ele>426.75</ele></trkpt>
   <trkpt lat="35.597518" lon="-120.801727"><ele>425.25</ele></trkpt>
   <trkpt lat="35.597380" lon="-120.801527"><ele>425.5</ele></trkpt>
   <trkpt lat="35.597350" lon="-120.801492"><ele>425.5</ele></trkpt>
   <trkpt lat="35.597207" lon="-120.801273"><ele>425.0</ele></trkpt>
   <trkpt lat="35.596781" lon="-120.800767"><ele>421.75</ele></trkpt>
   <trkpt lat="35.596163" lon="-120.800153"><ele>421.0</ele></trkpt>
   <trkpt lat="35.595441" lon="-120.799423"><ele>419.25</ele></trkpt>
   <trkpt lat="35.595165" lon="-120.799124"><ele>416.5</ele></trkpt>
   <trkpt lat="35.595092" lon="-120.799046"><ele>415.75</ele></trkpt>
   <trkpt lat="35.594986" lon="-120.798876"><ele>414.5</ele></trkpt>
   <trkpt lat="35.594811" lon="-120.798535"><ele>413.25</ele></trkpt>
   <trkpt lat="35.594555" lon="-120.797899"><ele>411.75</ele></trkpt>
   <trkpt lat="35.594297" lon="-120.797224"><ele>411.25</ele></trkpt>
   <trkpt lat="35.594244" lon="-120.797101"><ele>411.0</ele></trkpt>
   <trkpt lat="35.594149" lon="-120.796841"><ele>410.75</ele></trkpt>
   <trkpt lat="35.593988" lon="-120.796632"><ele>411.0</ele></trkpt>
   <trkpt lat="35.593816" lon="-120.796550"><ele>411.25</ele></trkpt>
   <trkpt lat="35.593441" lon="-120.796351"><ele>411.75</ele></trkpt>
   <trkpt lat="35.592338" lon="-120.795760"><ele>414.25</ele></trkpt>
   <trkpt lat="35.591105" lon="-120.795092"><ele>419.25</ele></trkpt>
   <trkpt lat="35.590360" lon="-120.794695"><ele>418.75</ele></trkpt>
   <trkpt lat="35.589890" lon="-120.794449"><ele>416.25</ele></trkpt>
   <trkpt lat="35.589748" lon="-120.794366"><ele>416.0</ele></trkpt>
   <trkpt lat="35.589670" lon="-120.794215"><ele>416.0</ele></trkpt>
   <trkpt lat="35.589446" lon="-120.792973"><ele>412.5</ele></trkpt>
   <trkpt lat="35.589234" lon="-120.792082"><ele>410.5</ele></trkpt>
   <trkpt lat="35.589096" lon="-120.791572"><ele>410.75</ele></trkpt>
   <trkpt lat="35.589051" lon="-120.791424"><ele>411.0</ele></trkpt>
   <trkpt lat="35.588872" lon="-120.790993"><ele>411.0</ele></trkpt>
   <trkpt lat="35.588399" lon="-120.789925"><ele>406.5</ele></trkpt>
   <trkpt lat="35.587941" lon="-120.789440"><ele>408.25</ele></trkpt>
   <trkpt lat="35.587631" lon="-120.789062"><ele>407.0</ele></trkpt>
   <trkpt lat="35.587235" lon="-120.788537"><ele>404.5</ele></trkpt>
   <trkpt lat="35.586797" lon="-120.788028"><ele>404.0</ele></trkpt>
   <trkpt lat="35.586333" lon="-120.787535"><ele>402.25</ele></trkpt>
   <trkpt lat="35.586265" lon="-120.787458"><ele>401.75</ele></trkpt>
   <trkpt lat="35.586161" lon="-120.787323"><ele>400.75</ele></trkpt>
   <trkpt lat="35.586023" lon="-120.787186"><ele>399.5</ele></trkpt>
   <trkpt lat="35.585748" lon="-120.786996"><ele>396.5</ele></trkpt>
   <trkpt lat="35.584698" lon="-120.786565"><ele>394.25</ele></trkpt>
   <trkpt lat="35.583464" lon="-120.785945"><ele>388.5</ele></trkpt>
   <trkpt lat="35.583257" lon="-120.785840"><ele>386.5</ele></trkpt>
   <trkpt lat="35.582735" lon="-120.785558"><ele>383.75</ele></trkpt>
   <trkpt lat="35.582523" lon="-120.785460"><ele>382.25</ele></trkpt>
   <trkpt lat="35.581887" lon="-120.785173"><ele>383.75</ele></trkpt>
   <trkpt lat="35.581467" lon="-120.784978"><ele>384.75</ele></trkpt>
   <trkpt lat="35.581257" lon="-120.784856"><ele>383.5</ele></trkpt>
   <trkpt lat="35.581152" lon="-120.784732"><ele>383.0</ele></trkpt>
   <trkpt lat="35.580759" lon="-120.784151"><ele>379.75</ele></trkpt>
   <trkpt lat="35.579605" lon="-120.782463"><ele>366.5</ele></trkpt>
   <trkpt lat="35.578963" lon="-120.781590"><ele>361.75</ele></trkpt>
   <trkpt lat="35.577927" lon="-120.780171"><ele>358.0</ele></trkpt>
   <trkpt lat="35.577274" lon="-120.779539"><ele>354.75</ele></trkpt>
   <trkpt lat="35.576623" lon="-120.779054"><ele>354.75</ele></trkpt>
   <trkpt lat="35.576324" lon="-120.778837"><ele>356.25</ele></trkpt>
   <trkpt lat="35.576214" lon="-120.778757"><ele>356.5</ele></trkpt>
   <trkpt lat="35.575852" lon="-120.778496"><ele>356.5</ele></trkpt>
   <trkpt lat="35.575475" lon="-120.778236"><ele>355.75</ele></trkpt>
   <trkpt lat="35.575291" lon="-120.778093"><ele>355.0</ele></trkpt>
   <trkpt lat="35.575555" lon="-120.775682"><ele>358.25</ele></trkpt>
   <trkpt lat="35.575668" lon="-120.775042"><ele>351.75</ele></trkpt>
   <trkpt lat="35.575740" lon="-120.774428"><ele>346.5</ele></trkpt>
   <trkpt lat="35.575741" lon="-120.774107"><ele>344.25</ele></trkpt>
   <trkpt lat="35.575730" lon="-120.773993"><ele>343.0</ele></trkpt>
   <trkpt lat="35.575697" lon="-120.773806"><ele>341.25</ele></trkpt>
   <trkpt lat="35.575675" lon="-120.773677"><ele>340.0</ele></trkpt>
   <trkpt lat="35.575102" lon="-120.771881"><ele>324.25</ele></trkpt>
   <trkpt lat="35.574640" lon="-120.770465"><ele>315.0</ele></trkpt>
   <trkpt lat="35.574519" lon="-120.770103"><ele>312.75</ele></trkpt>
   <trkpt lat="35.574387" lon="-120.769685"><ele>314.0</ele></trkpt>
   <trkpt lat="35.574318" lon="-120.769564"><ele>314.75</ele></trkpt>
   <trkpt lat="35.574271" lon="-120.769517"><ele>315.0</ele></trkpt>
   <trkpt lat="35.574137" lon="-120.769335"><ele>316.25</ele></trkpt>
   <trkpt lat="35.574006" lon="-120.769173"><ele>317.0</ele></trkpt>
   <trkpt lat="35.573869" lon="-120.768944"><ele>319.0</ele></trkpt>
   <trkpt lat="35.573832" lon="-120.768757"><ele>321.0</ele></trkpt>
   <trkpt lat="35.573906" lon="-120.768418"><ele>325.25</ele></trkpt>
   <trkpt lat="35.573977" lon="-120.767962"><ele>328.75</ele></trkpt>
   <trkpt lat="35.574041" lon="-120.767683"><ele>330.25</ele></trkpt>
   <trkpt lat="35.574096" lon="-120.767372"><ele>332.0</ele></trkpt>
   <trkpt lat="35.574098" lon="-120.767106"><ele>334.25</ele></trkpt>
   <trkpt lat="35.573966" lon="-120.766580"><ele>339.5</ele></trkpt>
   <trkpt lat="35.573879" lon="-120.766182"><ele>343.5</ele></trkpt>
   <trkpt lat="35.573784" lon="-120.765839"><ele>346.75</ele></trkpt>
   <trkpt lat="35.573730" lon="-120.765644"><ele>346.5</ele></trkpt>
   <trkpt lat="35.573657" lon="-120.765461"><ele>346.0</ele></trkpt>
   <trkpt lat="35.573017" lon="-120.764520"><ele>339.75</ele></trkpt>
   <trkpt lat="35.572495" lon="-120.763875"><ele>335.5</ele></trkpt>
   <trkpt lat="35.572287" lon="-120.763595"><ele>335.5</ele></trkpt>
   <trkpt lat="35.572136" lon="-120.763408"><ele>335.0</ele></trkpt>
   <trkpt lat="35.571695" lon="-120.762743"><ele>328.0</ele></trkpt>
   <trkpt lat="35.570901" lon="-120.761692"><ele>321.5</ele></trkpt>
   <trkpt lat="35.570645" lon="-120.761323"><ele>324.25</ele></trkpt>
   <trkpt lat="35.570585" lon="-120.761131"><ele>324.75</ele></trkpt>
   <trkpt lat="35.570415" lon="-120.760460"><ele>323.25</ele></trkpt>
   <trkpt lat="35.570197" lon="-120.759759"><ele>320.25</ele></trkpt>
   <trkpt lat="35.570156" lon="-120.759651"><ele>319.75</ele></trkpt>
   <trkpt lat="35.569984" lon="-120.759271"><ele>317.75</ele></trkpt>
   <trkpt lat="35.569815" lon="-120.758859"><ele>318.25</ele></trkpt>
   <trkpt lat="35.569698" lon="-120.758478"><ele>316.0</ele></trkpt>
   <trkpt lat="35.569558" lon="-120.758034"><ele>314.75</ele></trkpt>
   <trkpt lat="35.569364" lon="-120.757577"><ele>313.25</ele></trkpt>
   <trkpt lat="35.568884" lon="-120.756554"><ele>310.0</ele></trkpt>
   <trkpt lat="35.568204" lon="-120.755062"><ele>306.75</ele></trkpt>
   <trkpt lat="35.568126" lon="-120.754923"><ele>306.25</ele></trkpt>
   <trkpt lat="35.568015" lon="-120.754750"><ele>305.5</ele></trkpt>
   <trkpt lat="35.567907" lon="-120.754631"><ele>304.5</ele></trkpt>
   <trkpt lat="35.566760" lon="-120.753730"><ele>296.75</ele></trkpt>
   <trkpt lat="35.565942" lon="-120.753044"><ele>294.5</ele></trkpt>
   <trkpt lat="35.565967" lon="-120.752920"><ele>294.25</ele></trkpt>
   <trkpt lat="35.566113" lon="-120.751698"><ele>292.25</ele></trkpt>
   <trkpt lat="35.566284" lon="-120.750010"><ele>292.0</ele></trkpt>
   <trkpt lat="35.566368" lon="-120.749204"><ele>292.25</ele></trkpt>
   <trkpt lat="35.566599" lon="-120.746936"><ele>286.25</ele></trkpt>
   <trkpt lat="35.566662" lon="-120.746333"><ele>285.5</ele></trkpt>
   <trkpt lat="35.566689" lon="-120.746020"><ele>285.5</ele></trkpt>
   <trkpt lat="35.566809" lon="-120.744869"><ele>284.25</ele></trkpt>
   <trkpt lat="35.566800" lon="-120.744787"><ele>283.75</ele></trkpt>
   <trkpt lat="35.566764" lon="-120.744733"><ele>283.0</ele></trkpt>
   <trkpt lat="35.566628" lon="-120.744606"><ele>281.5</ele></trkpt>
   <trkpt lat="35.567435" lon="-120.743360"><ele>278.25</ele></trkpt>
   <trkpt lat="35.567731" lon="-120.742878"><ele>276.75</ele></trkpt>
   <trkpt lat="35.568606" lon="-120.741557"><ele>277.25</ele></trkpt>
   <trkpt lat="35.569390" lon="-120.740354"><ele>276.75</ele></trkpt>
   <trkpt lat="35.570356" lon="-120.738872"><ele>276.0</ele></trkpt>
   <trkpt lat="35.570393" lon="-120.738815"><ele>275.75</ele></trkpt>
   <trkpt lat="35.571276" lon="-120.737277"><ele>278.0</ele></trkpt>
   <trkpt lat="35.571804" lon="-120.736157"><ele>280.75</ele></trkpt>
   <trkpt lat="35.572500" lon="-120.734782"><ele>277.25</ele></trkpt>
   <trkpt lat="35.573539" lon="-120.732713"><ele>278.25</ele></trkpt>
   <trkpt lat="35.574360" lon="-120.731094"><ele>284.25</ele></trkpt>
   <trkpt lat="35.575744" lon="-120.728324"><ele>283.25</ele></trkpt>
   <trkpt lat="35.576650" lon="-120.726462"><ele>281.25</ele></trkpt>
   <trkpt lat="35.577126" lon="-120.725534"><ele>284.25</ele></trkpt>
   <trkpt lat="35.577654" lon="-120.724506"><ele>283.5</ele></trkpt>
   <trkpt lat="35.579383" lon="-120.721041"><ele>269.75</ele></trkpt>
   <trkpt lat="35.580185" lon="-120.719774"><ele>268.25</ele></trkpt>
   <trkpt lat="35.580921" lon="-120.718869"><ele>264.0</ele></trkpt>
   <trkpt lat="35.580979" lon="-120.718797"><ele>264.25</ele></trkpt>
   <trkpt lat="35.581092" lon="-120.718658"><ele>264.5</ele></trkpt>
   <trkpt lat="35.582050" lon="-120.717474"><ele>265.25</ele></trkpt>
   <trkpt lat="35.582154" lon="-120.717338"><ele>265.0</ele></trkpt>
   <trkpt lat="35.582209" lon="-120.717265"><ele>264.75</ele></trkpt>
   <trkpt lat="35.582562" lon="-120.716804"><ele>264.25</ele></trkpt>
   <trkpt lat="35.583300" lon="-120.715510"><ele>267.75</ele></trkpt>
   <trkpt lat="35.583625" lon="-120.714674"><ele>267.0</ele></trkpt>
   <trkpt lat="35.583646" lon="-120.714619"><ele>267.0</ele></trkpt>
   <trkpt lat="35.584182" lon="-120.714619"><ele>267.75</ele></trkpt>
   <trkpt lat="35.584676" lon="-120.714619"><ele>267.5</ele></trkpt>
   <trkpt lat="35.585569" lon="-120.714620"><ele>267.5</ele></trkpt>
   <trkpt lat="35.588701" lon="-120.714607"><ele>277.25</ele></trkpt>
   <trkpt lat="35.589038" lon="-120.714607"><ele>279.25</ele></trkpt>
   <trkpt lat="35.589218" lon="-120.714458"><ele>279.0</ele></trkpt>
   <trkpt lat="35.589542" lon="-120.714021"><ele>274.75</ele></trkpt>
   <trkpt lat="35.589880" lon="-120.713791"><ele>272.25</ele></trkpt>
   <trkpt lat="35.589962" lon="-120.713619"><ele>271.5</ele></trkpt>
   <trkpt lat="35.590028" lon="-120.713023"><ele>271.25</ele></trkpt>
   <trkpt lat="35.590121" lon="-120.712866"><ele>271.0</ele></trkpt>
   <trkpt lat="35.590154" lon="-120.712852"><ele>271.0</ele></trkpt>
   <trkpt lat="35.590235" lon="-120.712821"><ele>270.75</ele></trkpt>
   <trkpt lat="35.590626" lon="-120.712808"><ele>269.5</ele></trkpt>
   <trkpt lat="35.590738" lon="-120.712804"><ele>269.0</ele></trkpt>
   <trkpt lat="35.591577" lon="-120.712527"><ele>267.5</ele></trkpt>
   <trkpt lat="35.591817" lon="-120.712498"><ele>267.0</ele></trkpt>
   <trkpt lat="35.592016" lon="-120.712519"><ele>267.5</ele></trkpt>
   <trkpt lat="35.592061" lon="-120.712529"><ele>267.5</ele></trkpt>
   <trkpt lat="35.593041" lon="-120.712921"><ele>268.25</ele></trkpt>
   <trkpt lat="35.593791" lon="-120.713217"><ele>266.25</ele></trkpt>
   <trkpt lat="35.593796" lon="-120.713218"><ele>266.25</ele></trkpt>
   <trkpt lat="35.593867" lon="-120.713247"><ele>266.25</ele></trkpt>
   <trkpt lat="35.595179" lon="-120.713781"><ele>266.0</ele></trkpt>
   <trkpt lat="35.595172" lon="-120.713556"><ele>265.75</ele></trkpt>
   <trkpt lat="35.595209" lon="-120.712183"><ele>261.25</ele></trkpt>
   <trkpt lat="35.595221" lon="-120.712018"><ele>261.5</ele></trkpt>
   <trkpt lat="35.595247" lon="-120.711928"><ele>261.5</ele></trkpt>
   <trkpt lat="35.595260" lon="-120.711881"><ele>261.75</ele></trkpt>
   <trkpt lat="35.595481" lon="-120.711618"><ele>263.0</ele></trkpt>
   <trkpt lat="35.595508" lon="-120.711561"><ele>263.5</ele></trkpt>
   <trkpt lat="35.595607" lon="-120.711544"><ele>264.0</ele></trkpt>
   <trkpt lat="35.595779" lon="-120.711484"><ele>265.25</ele></trkpt>
   <trkpt lat="35.595854" lon="-120.711437"><ele>266.5</ele></trkpt>
   <trkpt lat="35.595779" lon="-120.711484"><ele>265.25</ele></trkpt>
   <trkpt lat="35.595607" lon="-120.711544"><ele>264.0</ele></trkpt>
   <trkpt lat="35.595508" lon="-120.711561"><ele>263.5</ele></trkpt>
   <trkpt lat="35.595481" lon="-120.711618"><ele>263.0</ele></trkpt>
   <trkpt lat="35.595260" lon="-120.711881"><ele>261.75</ele></trkpt>
   <trkpt lat="35.595247" lon="-120.711928"><ele>261.5</ele></trkpt>
   <trkpt lat="35.595221" lon="-120.712018"><ele>261.5</ele></trkpt>
   <trkpt lat="35.595209" lon="-120.712183"><ele>261.25</ele></trkpt>
   <trkpt lat="35.595172" lon="-120.713556"><ele>265.75</ele></trkpt>
   <trkpt lat="35.595179" lon="-120.713781"><ele>266.0</ele></trkpt>
   <trkpt lat="35.593867" lon="-120.713247"><ele>266.25</ele></trkpt>
   <trkpt lat="35.593796" lon="-120.713218"><ele>266.25</ele></trkpt>
   <trkpt lat="35.593791" lon="-120.713217"><ele>266.25</ele></trkpt>
   <trkpt lat="35.593041" lon="-120.712921"><ele>268.25</ele></trkpt>
   <trkpt lat="35.592061" lon="-120.712529"><ele>267.5</ele></trkpt>
   <trkpt lat="35.592016" lon="-120.712519"><ele>267.5</ele></trkpt>
   <trkpt lat="35.591817" lon="-120.712498"><ele>267.0</ele></trkpt>
   <trkpt lat="35.591577" lon="-120.712527"><ele>267.5</ele></trkpt>
   <trkpt lat="35.590738" lon="-120.712804"><ele>269.0</ele></trkpt>
   <trkpt lat="35.590626" lon="-120.712808"><ele>269.5</ele></trkpt>
   <trkpt lat="35.590235" lon="-120.712821"><ele>270.75</ele></trkpt>
   <trkpt lat="35.590154" lon="-120.712852"><ele>271.0</ele></trkpt>
   <trkpt lat="35.590121" lon="-120.712866"><ele>271.0</ele></trkpt>
   <trkpt lat="35.590028" lon="-120.713023"><ele>271.25</ele></trkpt>
   <trkpt lat="35.589962" lon="-120.713619"><ele>271.5</ele></trkpt>
   <trkpt lat="35.589880" lon="-120.713791"><ele>272.25</ele></trkpt>
   <trkpt lat="35.589542" lon="-120.714021"><ele>274.75</ele></trkpt>
   <trkpt lat="35.589218" lon="-120.714458"><ele>279.0</ele></trkpt>
   <trkpt lat="35.589038" lon="-120.714607"><ele>279.25</ele></trkpt>
   <trkpt lat="35.588701" lon="-120.714607"><ele>277.25</ele></trkpt>
   <trkpt lat="35.585569" lon="-120.714620"><ele>267.5</ele></trkpt>
   <trkpt lat="35.584676" lon="-120.714619"><ele>267.5</ele></trkpt>
   <trkpt lat="35.584182" lon="-120.714619"><ele>267.75</ele></trkpt>
   <trkpt lat="35.583646" lon="-120.714619"><ele>267.0</ele></trkpt>
   <trkpt lat="35.584214" lon="-120.712890"><ele>264.5</ele></trkpt>
   <trkpt lat="35.584627" lon="-120.711572"><ele>261.5</ele></trkpt>
   <trkpt lat="35.585577" lon="-120.708588"><ele>271.5</ele></trkpt>
   <trkpt lat="35.585915" lon="-120.707502"><ele>267.75</ele></trkpt>
   <trkpt lat="35.586513" lon="-120.705638"><ele>261.75</ele></trkpt>
   <trkpt lat="35.586985" lon="-120.704179"><ele>264.5</ele></trkpt>
   <trkpt lat="35.587345" lon="-120.703197"><ele>261.25</ele></trkpt>
   <trkpt lat="35.587140" lon="-120.702880"><ele>261.0</ele></trkpt>
   <trkpt lat="35.587136" lon="-120.701831"><ele>256.0</ele></trkpt>
   <trkpt lat="35.587132" lon="-120.700781"><ele>252.0</ele></trkpt>
   <trkpt lat="35.587132" lon="-120.700703"><ele>251.75</ele></trkpt>
   <trkpt lat="35.587128" lon="-120.699412"><ele>245.75</ele></trkpt>
   <trkpt lat="35.587130" lon="-120.699313"><ele>245.0</ele></trkpt>
   <trkpt lat="35.587161" lon="-120.699238"><ele>244.75</ele></trkpt>
   <trkpt lat="35.587175" lon="-120.699204"><ele>244.5</ele></trkpt>
   <trkpt lat="35.587348" lon="-120.699178"><ele>244.0</ele></trkpt>
   <trkpt lat="35.587404" lon="-120.699114"><ele>244.0</ele></trkpt>
   <trkpt lat="35.587333" lon="-120.699014"><ele>244.0</ele></trkpt>
   <trkpt lat="35.587246" lon="-120.698855"><ele>244.0</ele></trkpt>
   <trkpt lat="35.587160" lon="-120.698566"><ele>244.0</ele></trkpt>
   <trkpt lat="35.587143" lon="-120.698399"><ele>244.0</ele></trkpt>
   <trkpt lat="35.587134" lon="-120.698141"><ele>243.5</ele></trkpt>
   <trkpt lat="35.587135" lon="-120.697639"><ele>243.0</ele></trkpt>
   <trkpt lat="35.587150" lon="-120.697481"><ele>242.75</ele></trkpt>
   <trkpt lat="35.587149" lon="-120.697266"><ele>242.5</ele></trkpt>
   <trkpt lat="35.587147" lon="-120.697076"><ele>242.5</ele></trkpt>
   <trkpt lat="35.587143" lon="-120.696698"><ele>242.25</ele></trkpt>
   <trkpt lat="35.587139" lon="-120.696369"><ele>240.75</ele></trkpt>
   <trkpt lat="35.587306" lon="-120.696315"><ele>240.25</ele></trkpt>
   <trkpt lat="35.587658" lon="-120.696286"><ele>239.5</ele></trkpt>
   <trkpt lat="35.587935" lon="-120.696292"><ele>239.0</ele></trkpt>
   <trkpt lat="35.588169" lon="-120.696316"><ele>238.5</ele></trkpt>
   <trkpt lat="35.588489" lon="-120.696363"><ele>237.5</ele></trkpt>
   <trkpt lat="35.588572" lon="-120.696400"><ele>237.25</ele></trkpt>
   <trkpt lat="35.588601" lon="-120.696490"><ele>237.25</ele></trkpt>
   <trkpt lat="35.589022" lon="-120.696556"><ele>235.5</ele></trkpt>
   <trkpt lat="35.589084" lon="-120.696538"><ele>235.0</ele></trkpt>
   <trkpt lat="35.589326" lon="-120.696533"><ele>234.75</ele></trkpt>
   <trkpt lat="35.589367" lon="-120.696558"><ele>234.75</ele></trkpt>
   <trkpt lat="35.589464" lon="-120.696543"><ele>234.75</ele></trkpt>
   <trkpt lat="35.589453" lon="-120.696411"><ele>234.5</ele></trkpt>
   <trkpt lat="35.589417" lon="-120.696080"><ele>233.75</ele></trkpt>
   <trkpt lat="35.589370" lon="-120.695576"><ele>232.25</ele></trkpt>
   <trkpt lat="35.589320" lon="-120.695042"><ele>230.0</ele></trkpt>
   <trkpt lat="35.589254" lon="-120.694747"><ele>229.75</ele></trkpt>
   <trkpt lat="35.589591" lon="-120.694648"><ele>229.75</ele></trkpt>
   <trkpt lat="35.589949" lon="-120.694559"><ele>229.5</ele></trkpt>
   <trkpt lat="35.590181" lon="-120.694503"><ele>229.0</ele></trkpt>
   <trkpt lat="35.590459" lon="-120.694441"><ele>228.75</ele></trkpt>
   <trkpt lat="35.590626" lon="-120.694414"><ele>228.5</ele></trkpt>
   <trkpt lat="35.590776" lon="-120.694400"><ele>228.25</ele></trkpt>
   <trkpt lat="35.590982" lon="-120.694394"><ele>228.25</ele></trkpt>
   <trkpt lat="35.591221" lon="-120.694403"><ele>228.25</ele></trkpt>
   <trkpt lat="35.591327" lon="-120.694414"><ele>228.25</ele></trkpt>
   <trkpt lat="35.591719" lon="-120.694471"><ele>228.25</ele></trkpt>
   <trkpt lat="35.592201" lon="-120.694586"><ele>228.75</ele></trkpt>
   <trkpt lat="35.592671" lon="-120.694694"><ele>229.0</ele></trkpt>
   <trkpt lat="35.593007" lon="-120.694771"><ele>229.0</ele></trkpt>
   <trkpt lat="35.593086" lon="-120.694790"><ele>228.75</ele></trkpt>
   <trkpt lat="35.593513" lon="-120.694892"><ele>228.25</ele></trkpt>
   <trkpt lat="35.594209" lon="-120.695023"><ele>226.75</ele></trkpt>
   <trkpt lat="35.595397" lon="-120.694981"><ele>226.75</ele></trkpt>
   <trkpt lat="35.595731" lon="-120.694970"><ele>227.5</ele></trkpt>
   <trkpt lat="35.596191" lon="-120.694870"><ele>227.75</ele></trkpt>
   <trkpt lat="35.596170" lon="-120.694090"><ele>226.0</ele></trkpt>
   <trkpt lat="35.596191" lon="-120.694870"><ele>227.75</ele></trkpt>
   <trkpt lat="35.595731" lon="-120.694970"><ele>227.5</ele></trkpt>
   <trkpt lat="35.595397" lon="-120.694981"><ele>226.75</ele></trkpt>
   <trkpt lat="35.594209" lon="-120.695023"><ele>226.75</ele></trkpt>
   <trkpt lat="35.593513" lon="-120.694892"><ele>228.25</ele></trkpt>
   <trkpt lat="35.593086" lon="-120.694790"><ele>228.75</ele></trkpt>
   <trkpt lat="35.593007" lon="-120.694771"><ele>229.0</ele></trkpt>
   <trkpt lat="35.592671" lon="-120.694694"><ele>229.0</ele></trkpt>
   <trkpt lat="35.592201" lon="-120.694586"><ele>228.75</ele></trkpt>
   <trkpt lat="35.591719" lon="-120.694471"><ele>228.25</ele></trkpt>
   <trkpt lat="35.591327" lon="-120.694414"><ele>228.25</ele></trkpt>
   <trkpt lat="35.591221" lon="-120.694403"><ele>228.25</ele></trkpt>
   <trkpt lat="35.590982" lon="-120.694394"><ele>228.25</ele></trkpt>
   <trkpt lat="35.590776" lon="-120.694400"><ele>228.25</ele></trkpt>
   <trkpt lat="35.590626" lon="-120.694414"><ele>228.5</ele></trkpt>
   <trkpt lat="35.590459" lon="-120.694441"><ele>228.75</ele></trkpt>
   <trkpt lat="35.590181" lon="-120.694503"><ele>229.0</ele></trkpt>
   <trkpt lat="35.589949" lon="-120.694559"><ele>229.5</ele></trkpt>
   <trkpt lat="35.589591" lon="-120.694648"><ele>229.75</ele></trkpt>
   <trkpt lat="35.589254" lon="-120.694747"><ele>229.75</ele></trkpt>
   <trkpt lat="35.589320" lon="-120.695042"><ele>230.0</ele></trkpt>
   <trkpt lat="35.589370" lon="-120.695576"><ele>232.25</ele></trkpt>
   <trkpt lat="35.589417" lon="-120.696080"><ele>233.75</ele></trkpt>
   <trkpt lat="35.589453" lon="-120.696411"><ele>234.5</ele></trkpt>
   <trkpt lat="35.589613" lon="-120.696375"><ele>234.25</ele></trkpt>
   <trkpt lat="35.589767" lon="-120.696330"><ele>234.0</ele></trkpt>
   <trkpt lat="35.590496" lon="-120.696072"><ele>233.75</ele></trkpt>
   <trkpt lat="35.590696" lon="-120.696013"><ele>234.0</ele></trkpt>
   <trkpt lat="35.590929" lon="-120.695961"><ele>234.25</ele></trkpt>
   <trkpt lat="35.591146" lon="-120.695923"><ele>234.5</ele></trkpt>
   <trkpt lat="35.591360" lon="-120.695899"><ele>234.75</ele></trkpt>
   <trkpt lat="35.592758" lon="-120.695772"><ele>231.25</ele></trkpt>
   <trkpt lat="35.593134" lon="-120.695745"><ele>229.0</ele></trkpt>
   <trkpt lat="35.593479" lon="-120.695735"><ele>227.75</ele></trkpt>
   <trkpt lat="35.595148" lon="-120.695713"><ele>228.0</ele></trkpt>
   <trkpt lat="35.595548" lon="-120.695707"><ele>229.5</ele></trkpt>
   <trkpt lat="35.595940" lon="-120.695636"><ele>230.0</ele></trkpt>
   <trkpt lat="35.596338" lon="-120.695554"><ele>229.5</ele></trkpt>
   <trkpt lat="35.596719" lon="-120.695418"><ele>229.25</ele></trkpt>
   <trkpt lat="35.598359" lon="-120.694598"><ele>233.0</ele></trkpt>
   <trkpt lat="35.601320" lon="-120.693130"><ele>235.0</ele></trkpt>
   <trkpt lat="35.601852" lon="-120.692959"><ele>235.0</ele></trkpt>
   <trkpt lat="35.602376" lon="-120.692860"><ele>235.0</ele></trkpt>
   <trkpt lat="35.602772" lon="-120.692832"><ele>233.75</ele></trkpt>
   <trkpt lat="35.603157" lon="-120.692825"><ele>232.5</ele></trkpt>
   <trkpt lat="35.603377" lon="-120.692831"><ele>232.5</ele></trkpt>
   <trkpt lat="35.603425" lon="-120.692832"><ele>232.5</ele></trkpt>
   <trkpt lat="35.603473" lon="-120.692834"><ele>232.75</ele></trkpt>
   <trkpt lat="35.604416" lon="-120.692861"><ele>236.0</ele></trkpt>
   <trkpt lat="35.605000" lon="-120.692869"><ele>236.75</ele></trkpt>
   <trkpt lat="35.605070" lon="-120.692869"><ele>237.0</ele></trkpt>
   <trkpt lat="35.605574" lon="-120.692847"><ele>237.25</ele></trkpt>
   <trkpt lat="35.606024" lon="-120.692801"><ele>239.5</ele></trkpt>
   <trkpt lat="35.606361" lon="-120.692749"><ele>242.75</ele></trkpt>
   <trkpt lat="35.607871" lon="-120.692422"><ele>248.75</ele></trkpt>
   <trkpt lat="35.608906" lon="-120.692208"><ele>246.0</ele></trkpt>
   <trkpt lat="35.609200" lon="-120.692167"><ele>245.25</ele></trkpt>
   <trkpt lat="35.609371" lon="-120.692159"><ele>245.5</ele></trkpt>
   <trkpt lat="35.609554" lon="-120.692186"><ele>246.0</ele></trkpt>
   <trkpt lat="35.609641" lon="-120.692205"><ele>246.25</ele></trkpt>
   <trkpt lat="35.609756" lon="-120.692246"><ele>246.75</ele></trkpt>
   <trkpt lat="35.609925" lon="-120.692306"><ele>247.5</ele></trkpt>
   <trkpt lat="35.610478" lon="-120.692657"><ele>249.25</ele></trkpt>
   <trkpt lat="35.610643" lon="-120.692748"><ele>249.5</ele></trkpt>
   <trkpt lat="35.610692" lon="-120.692763"><ele>249.5</ele></trkpt>
   <trkpt lat="35.610742" lon="-120.692779"><ele>249.25</ele></trkpt>
   <trkpt lat="35.610832" lon="-120.692806"><ele>249.0</ele></trkpt>
   <trkpt lat="35.610941" lon="-120.692825"><ele>249.0</ele></trkpt>
   <trkpt lat="35.611093" lon="-120.692838"><ele>248.5</ele></trkpt>
   <trkpt lat="35.611327" lon="-120.692830"><ele>247.75</ele></trkpt>
   <trkpt lat="35.611478" lon="-120.692809"><ele>247.25</ele></trkpt>
   <trkpt lat="35.611991" lon="-120.692738"><ele>245.75</ele></trkpt>
   <trkpt lat="35.612221" lon="-120.692721"><ele>245.5</ele></trkpt>
   <trkpt lat="35.612557" lon="-120.692749"><ele>245.0</ele></trkpt>
   <trkpt lat="35.612864" lon="-120.692773"><ele>243.5</ele></trkpt>
   <trkpt lat="35.613854" lon="-120.692849"><ele>241.75</ele></trkpt>
   <trkpt lat="35.614091" lon="-120.692875"><ele>242.0</ele></trkpt>
   <trkpt lat="35.614658" lon="-120.692936"><ele>240.5</ele></trkpt>
   <trkpt lat="35.615029" lon="-120.692970"><ele>239.25</ele></trkpt>
   <trkpt lat="35.615112" lon="-120.692978"><ele>239.75</ele></trkpt>
   <trkpt lat="35.615238" lon="-120.692990"><ele>240.25</ele></trkpt>
   <trkpt lat="35.615802" lon="-120.693041"><ele>243.0</ele></trkpt>
   <trkpt lat="35.615849" lon="-120.693046"><ele>243.25</ele></trkpt>
   <trkpt lat="35.616244" lon="-120.693081"><ele>244.5</ele></trkpt>
   <trkpt lat="35.617233" lon="-120.693171"><ele>244.25</ele></trkpt>
   <trkpt lat="35.617451" lon="-120.693191"><ele>243.5</ele></trkpt>
   <trkpt lat="35.617532" lon="-120.693198"><ele>243.5</ele></trkpt>
   <trkpt lat="35.617835" lon="-120.693225"><ele>244.25</ele></trkpt>
   <trkpt lat="35.618220" lon="-120.693260"><ele>245.25</ele></trkpt>
   <trkpt lat="35.619240" lon="-120.693327"><ele>242.75</ele></trkpt>
   <trkpt lat="35.619721" lon="-120.693365"><ele>242.25</ele></trkpt>
   <trkpt lat="35.620278" lon="-120.693408"><ele>241.0</ele></trkpt>
   <trkpt lat="35.621328" lon="-120.693504"><ele>240.0</ele></trkpt>
   <trkpt lat="35.621656" lon="-120.693526"><ele>240.0</ele></trkpt>
   <trkpt lat="35.622355" lon="-120.693587"><ele>238.0</ele></trkpt>
   <trkpt lat="35.623402" lon="-120.693673"><ele>237.25</ele></trkpt>
   <trkpt lat="35.624444" lon="-120.693758"><ele>237.25</ele></trkpt>
   <trkpt lat="35.625479" lon="-120.693848"><ele>233.5</ele></trkpt>
   <trkpt lat="35.626532" lon="-120.693935"><ele>233.5</ele></trkpt>
   <trkpt lat="35.626576" lon="-120.693370"><ele>232.75</ele></trkpt>
   <trkpt lat="35.626621" lon="-120.692575"><ele>231.0</ele></trkpt>
   <trkpt lat="35.626634" lon="-120.692353"><ele>231.0</ele></trkpt>
   <trkpt lat="35.626656" lon="-120.691959"><ele>231.0</ele></trkpt>
   <trkpt lat="35.626658" lon="-120.691926"><ele>231.0</ele></trkpt>
   <trkpt lat="35.626662" lon="-120.691645"><ele>231.0</ele></trkpt>
   <trkpt lat="35.626663" lon="-120.691531"><ele>231.0</ele></trkpt>
   <trkpt lat="35.626665" lon="-120.691390"><ele>231.0</ele></trkpt>
   <trkpt lat="35.626672" lon="-120.691278"><ele>230.75</ele></trkpt>
   <trkpt lat="35.626686" lon="-120.691018"><ele>230.75</ele></trkpt>
   <trkpt lat="35.626715" lon="-120.690497"><ele>230.75</ele></trkpt>
   <trkpt lat="35.626726" lon="-120.690221"><ele>230.75</ele></trkpt>
   <trkpt lat="35.626730" lon="-120.690128"><ele>230.75</ele></trkpt>
   <trkpt lat="35.626734" lon="-120.690037"><ele>230.75</ele></trkpt>
   <trkpt lat="35.626788" lon="-120.688968"><ele>226.25</ele></trkpt>
   <trkpt lat="35.626796" lon="-120.688854"><ele>226.0</ele></trkpt>
   <trkpt lat="35.626802" lon="-120.688737"><ele>225.75</ele></trkpt>
   <trkpt lat="35.626842" lon="-120.688188"><ele>224.25</ele></trkpt>
   <trkpt lat="35.626871" lon="-120.687634"><ele>222.0</ele></trkpt>
   <trkpt lat="35.626891" lon="-120.687447"><ele>221.25</ele></trkpt>
   <trkpt lat="35.626971" lon="-120.687410"><ele>220.75</ele></trkpt>
   <trkpt lat="35.627529" lon="-120.687430"><ele>219.5</ele></trkpt>
   <trkpt lat="35.627708" lon="-120.687407"><ele>219.0</ele></trkpt>
   <trkpt lat="35.627888" lon="-120.687420"><ele>218.75</ele></trkpt>
   <trkpt lat="35.627908" lon="-120.686997"><ele>217.0</ele></trkpt>
   <trkpt lat="35.627921" lon="-120.686799"><ele>216.25</ele></trkpt>
   <trkpt lat="35.627948" lon="-120.686252"><ele>215.5</ele></trkpt>
   <trkpt lat="35.628000" lon="-120.685680"><ele>214.75</ele></trkpt>
   <trkpt lat="35.628125" lon="-120.685243"><ele>214.25</ele></trkpt>
   <trkpt lat="35.628268" lon="-120.684935"><ele>214.0</ele></trkpt>
   <trkpt lat="35.628429" lon="-120.684581"><ele>213.75</ele></trkpt>
   <trkpt lat="35.628827" lon="-120.683710"><ele>213.0</ele></trkpt>
   <trkpt lat="35.628833" lon="-120.683696"><ele>213.0</ele></trkpt>
   <trkpt lat="35.628983" lon="-120.683347"><ele>214.5</ele></trkpt>
   <trkpt lat="35.629031" lon="-120.683168"><ele>216.0</ele></trkpt>
   <trkpt lat="35.629166" lon="-120.683098"><ele>216.75</ele></trkpt>
   <trkpt lat="35.629260" lon="-120.683095"><ele>216.75</ele></trkpt>
   <trkpt lat="35.629363" lon="-120.683093"><ele>216.75</ele></trkpt>
   <trkpt lat="35.629537" lon="-120.683067"><ele>217.0</ele></trkpt>
   <trkpt lat="35.629688" lon="-120.683011"><ele>217.25</ele></trkpt>
   <trkpt lat="35.629841" lon="-120.682926"><ele>217.5</ele></trkpt>
   <trkpt lat="35.629987" lon="-120.682805"><ele>217.75</ele></trkpt>
   <trkpt lat="35.630097" lon="-120.682684"><ele>218.0</ele></trkpt>
   <trkpt lat="35.630226" lon="-120.682490"><ele>219.0</ele></trkpt>
   <trkpt lat="35.630340" lon="-120.682290"><ele>220.75</ele></trkpt>
   <trkpt lat="35.630420" lon="-120.682038"><ele>223.0</ele></trkpt>
   <trkpt lat="35.630450" lon="-120.681858"><ele>224.75</ele></trkpt>
   <trkpt lat="35.630468" lon="-120.681681"><ele>226.5</ele></trkpt>
   <trkpt lat="35.630500" lon="-120.681075"><ele>229.0</ele></trkpt>
   <trkpt lat="35.630550" lon="-120.680750"><ele>230.0</ele></trkpt>
   <trkpt lat="35.630620" lon="-120.680430"><ele>230.5</ele></trkpt>
   <trkpt lat="35.630739" lon="-120.680086"><ele>230.5</ele></trkpt>
   <trkpt lat="35.630849" lon="-120.679869"><ele>230.5</ele></trkpt>
   <trkpt lat="35.630940" lon="-120.679714"><ele>231.75</ele></trkpt>
   <trkpt lat="35.631078" lon="-120.679524"><ele>233.25</ele></trkpt>
   <trkpt lat="35.631124" lon="-120.679453"><ele>233.75</ele></trkpt>
   <trkpt lat="35.631217" lon="-120.679306"><ele>234.75</ele></trkpt>
   <trkpt lat="35.631325" lon="-120.679076"><ele>236.0</ele></trkpt>
   <trkpt lat="35.631435" lon="-120.678725"><ele>237.25</ele></trkpt>
   <trkpt lat="35.631500" lon="-120.678372"><ele>238.25</ele></trkpt>
   <trkpt lat="35.631516" lon="-120.678009"><ele>238.75</ele></trkpt>
   <trkpt lat="35.631577" lon="-120.677534"><ele>238.75</ele></trkpt>
   <trkpt lat="35.631635" lon="-120.677316"><ele>239.25</ele></trkpt>
   <trkpt lat="35.631766" lon="-120.676994"><ele>241.5</ele></trkpt>
   <trkpt lat="35.631997" lon="-120.676545"><ele>244.75</ele></trkpt>
   <trkpt lat="35.632165" lon="-120.676187"><ele>246.75</ele></trkpt>
   <trkpt lat="35.632305" lon="-120.675830"><ele>247.25</ele></trkpt>
   <trkpt lat="35.632536" lon="-120.675172"><ele>247.25</ele></trkpt>
   <trkpt lat="35.632663" lon="-120.674885"><ele>248.25</ele></trkpt>
   <trkpt lat="35.632725" lon="-120.674762"><ele>248.5</ele></trkpt>
   <trkpt lat="35.633063" lon="-120.674146"><ele>248.0</ele></trkpt>
   <trkpt lat="35.633777" lon="-120.672886"><ele>252.5</ele></trkpt>
   <trkpt lat="35.634091" lon="-120.672316"><ele>251.25</ele></trkpt>
   <trkpt lat="35.635109" lon="-120.670500"><ele>258.0</ele></trkpt>
   <trkpt lat="35.635243" lon="-120.670247"><ele>259.5</ele></trkpt>
   <trkpt lat="35.635402" lon="-120.669844"><ele>260.75</ele></trkpt>
   <trkpt lat="35.635504" lon="-120.669561"><ele>261.25</ele></trkpt>
   <trkpt lat="35.635563" lon="-120.669304"><ele>261.75</ele></trkpt>
   <trkpt lat="35.635594" lon="-120.669060"><ele>262.5</ele></trkpt>
   <trkpt lat="35.635600" lon="-120.668934"><ele>262.75</ele></trkpt>
   <trkpt lat="35.635587" lon="-120.668660"><ele>263.5</ele></trkpt>
   <trkpt lat="35.635567" lon="-120.668391"><ele>264.25</ele></trkpt>
   <trkpt lat="35.635496" lon="-120.667891"><ele>266.5</ele></trkpt>
   <trkpt lat="35.635485" lon="-120.667735"><ele>267.0</ele></trkpt>
   <trkpt lat="35.635446" lon="-120.667561"><ele>267.25</ele></trkpt>
   <trkpt lat="35.635261" lon="-120.666919"><ele>269.75</ele></trkpt>
   <trkpt lat="35.635235" lon="-120.666807"><ele>270.25</ele></trkpt>
   <trkpt lat="35.635209" lon="-120.666581"><ele>271.25</ele></trkpt>
   <trkpt lat="35.635213" lon="-120.666085"><ele>274.5</ele></trkpt>
   <trkpt lat="35.635277" lon="-120.665774"><ele>276.5</ele></trkpt>
   <trkpt lat="35.635337" lon="-120.665578"><ele>276.75</ele></trkpt>
   <trkpt lat="35.635423" lon="-120.665336"><ele>276.5</ele></trkpt>
   <trkpt lat="35.635659" lon="-120.664801"><ele>272.0</ele></trkpt>
   <trkpt lat="35.635987" lon="-120.663965"><ele>265.0</ele></trkpt>
   <trkpt lat="35.636090" lon="-120.663771"><ele>263.25</ele></trkpt>
   <trkpt lat="35.636158" lon="-120.663670"><ele>262.25</ele></trkpt>
   <trkpt lat="35.636269" lon="-120.663510"><ele>260.75</ele></trkpt>
   <trkpt lat="35.636520" lon="-120.663314"><ele>258.0</ele></trkpt>
   <trkpt lat="35.636722" lon="-120.663197"><ele>256.75</ele></trkpt>
   <trkpt lat="35.636891" lon="-120.663149"><ele>256.25</ele></trkpt>
   <trkpt lat="35.637130" lon="-120.663077"><ele>255.5</ele></trkpt>
   <trkpt lat="35.637264" lon="-120.663036"><ele>255.0</ele></trkpt>
   <trkpt lat="35.637416" lon="-120.662971"><ele>254.5</ele></trkpt>
   <trkpt lat="35.637493" lon="-120.662918"><ele>254.5</ele></trkpt>
   <trkpt lat="35.637658" lon="-120.662804"><ele>253.5</ele></trkpt>
   <trkpt lat="35.637782" lon="-120.662695"><ele>252.75</ele></trkpt>
   <trkpt lat="35.637949" lon="-120.662495"><ele>251.75</ele></trkpt>
   <trkpt lat="35.638114" lon="-120.662246"><ele>250.0</ele></trkpt>
   <trkpt lat="35.638230" lon="-120.662023"><ele>249.0</ele></trkpt>
   <trkpt lat="35.638431" lon="-120.661414"><ele>248.75</ele></trkpt>
   <trkpt lat="35.638531" lon="-120.661138"><ele>249.75</ele></trkpt>
   <trkpt lat="35.638596" lon="-120.660915"><ele>250.5</ele></trkpt>
   <trkpt lat="35.638730" lon="-120.660606"><ele>251.5</ele></trkpt>
   <trkpt lat="35.639085" lon="-120.659886"><ele>253.5</ele></trkpt>
   <trkpt lat="35.639311" lon="-120.659430"><ele>254.0</ele></trkpt>
   <trkpt lat="35.639478" lon="-120.659127"><ele>254.25</ele></trkpt>
   <trkpt lat="35.639659" lon="-120.658874"><ele>254.5</ele></trkpt>
   <trkpt lat="35.639679" lon="-120.658796"><ele>254.5</ele></trkpt>
   <trkpt lat="35.639841" lon="-120.658587"><ele>255.0</ele></trkpt>
   <trkpt lat="35.639885" lon="-120.658477"><ele>255.25</ele></trkpt>
   <trkpt lat="35.639894" lon="-120.658418"><ele>255.5</ele></trkpt>
   <trkpt lat="35.639901" lon="-120.658352"><ele>255.5</ele></trkpt>
   <trkpt lat="35.639867" lon="-120.658301"><ele>255.5</ele></trkpt>
   <trkpt lat="35.639858" lon="-120.658245"><ele>255.5</ele></trkpt>
   <trkpt lat="35.639858" lon="-120.658190"><ele>255.5</ele></trkpt>
   <trkpt lat="35.639872" lon="-120.658142"><ele>255.5</ele></trkpt>
   <trkpt lat="35.639911" lon="-120.658080"><ele>255.75</ele></trkpt>
   <trkpt lat="35.639966" lon="-120.658050"><ele>255.75</ele></trkpt>
   <trkpt lat="35.640020" lon="-120.658046"><ele>255.75</ele></trkpt>
   <trkpt lat="35.640115" lon="-120.658067"><ele>255.75</ele></trkpt>
   <trkpt lat="35.640166" lon="-120.658065"><ele>255.75</ele></trkpt>
   <trkpt lat="35.640246" lon="-120.658036"><ele>255.5</ele></trkpt>
   <trkpt lat="35.640281" lon="-120.658011"><ele>255.5</ele></trkpt>
   <trkpt lat="35.640314" lon="-120.657974"><ele>255.5</ele></trkpt>
   <trkpt lat="35.640347" lon="-120.657910"><ele>255.5</ele></trkpt>
   <trkpt lat="35.640387" lon="-120.657855"><ele>255.5</ele></trkpt>
   <trkpt lat="35.640490" lon="-120.657719"><ele>255.25</ele></trkpt>
   <trkpt lat="35.640674" lon="-120.657492"><ele>255.0</ele></trkpt>
   <trkpt lat="35.640748" lon="-120.657447"><ele>255.0</ele></trkpt>
   <trkpt lat="35.640780" lon="-120.657408"><ele>254.75</ele></trkpt>
   <trkpt lat="35.640864" lon="-120.657303"><ele>254.5</ele></trkpt>
   <trkpt lat="35.641100" lon="-120.657008"><ele>253.75</ele></trkpt>
   <trkpt lat="35.641315" lon="-120.656715"><ele>252.75</ele></trkpt>
   <trkpt lat="35.641460" lon="-120.656505"><ele>252.5</ele></trkpt>
   <trkpt lat="35.641752" lon="-120.656032"><ele>251.5</ele></trkpt>
   <trkpt lat="35.641901" lon="-120.655752"><ele>250.75</ele></trkpt>
   <trkpt lat="35.641978" lon="-120.655607"><ele>250.0</ele></trkpt>
   <trkpt lat="35.642034" lon="-120.655477"><ele>249.75</ele></trkpt>
   <trkpt lat="35.642102" lon="-120.655320"><ele>249.25</ele></trkpt>
   <trkpt lat="35.642326" lon="-120.654800"><ele>247.5</ele></trkpt>
   <trkpt lat="35.642475" lon="-120.654414"><ele>247.0</ele></trkpt>
   <trkpt lat="35.643068" lon="-120.652897"><ele>247.75</ele></trkpt>
   <trkpt lat="35.643558" lon="-120.651562"><ele>245.5</ele></trkpt>
   <trkpt lat="35.643649" lon="-120.651286"><ele>245.25</ele></trkpt>
   <trkpt lat="35.643766" lon="-120.650810"><ele>244.75</ele></trkpt>
   <trkpt lat="35.643879" lon="-120.650159"><ele>241.25</ele></trkpt>
   <trkpt lat="35.643738" lon="-120.650015"><ele>240.5</ele></trkpt>
   <trkpt lat="35.643481" lon="-120.649877"><ele>239.5</ele></trkpt>
   <trkpt lat="35.642218" lon="-120.648362"><ele>237.0</ele></trkpt>
   <trkpt lat="35.642161" lon="-120.648287"><ele>236.75</ele></trkpt>
   <trkpt lat="35.642072" lon="-120.648168"><ele>236.25</ele></trkpt>
   <trkpt lat="35.641737" lon="-120.647663"><ele>234.5</ele></trkpt>
   <trkpt lat="35.641460" lon="-120.647203"><ele>232.75</ele></trkpt>
   <trkpt lat="35.641418" lon="-120.647123"><ele>232.5</ele></trkpt>
   <trkpt lat="35.641299" lon="-120.646894"><ele>231.75</ele></trkpt>
   <trkpt lat="35.641261" lon="-120.646822"><ele>231.5</ele></trkpt>
   <trkpt lat="35.641101" lon="-120.646456"><ele>230.25</ele></trkpt>
   <trkpt lat="35.641045" lon="-120.646325"><ele>230.0</ele></trkpt>
   <trkpt lat="35.640958" lon="-120.646120"><ele>229.5</ele></trkpt>
   <trkpt lat="35.640769" lon="-120.645597"><ele>229.0</ele></trkpt>
   <trkpt lat="35.640497" lon="-120.644854"><ele>230.0</ele></trkpt>
   <trkpt lat="35.640469" lon="-120.644780"><ele>230.0</ele></trkpt>
   <trkpt lat="35.640440" lon="-120.644705"><ele>229.75</ele></trkpt>
   <trkpt lat="35.640101" lon="-120.643807"><ele>228.5</ele></trkpt>
   <trkpt lat="35.639867" lon="-120.643182"><ele>230.25</ele></trkpt>
   <trkpt lat="35.639654" lon="-120.642591"><ele>230.75</ele></trkpt>
   <trkpt lat="35.639580" lon="-120.642404"><ele>230.75</ele></trkpt>
   <trkpt lat="35.639531" lon="-120.642265"><ele>230.5</ele></trkpt>
   <trkpt lat="35.639432" lon="-120.641951"><ele>230.25</ele></trkpt>
   <trkpt lat="35.639381" lon="-120.641814"><ele>230.0</ele></trkpt>
   <trkpt lat="35.639263" lon="-120.641544"><ele>230.0</ele></trkpt>
   <trkpt lat="35.638940" lon="-120.640896"><ele>230.75</ele></trkpt>
   <trkpt lat="35.638839" lon="-120.640701"><ele>231.25</ele></trkpt>
   <trkpt lat="35.638634" lon="-120.640277"><ele>232.0</ele></trkpt>
   <trkpt lat="35.637875" lon="-120.638756"><ele>235.25</ele></trkpt>
   <trkpt lat="35.637763" lon="-120.638505"><ele>235.5</ele></trkpt>
   <trkpt lat="35.637690" lon="-120.638283"><ele>235.5</ele></trkpt>
   <trkpt lat="35.637650" lon="-120.638084"><ele>235.25</ele></trkpt>
   <trkpt lat="35.637617" lon="-120.637803"><ele>234.5</ele></trkpt>
   <trkpt lat="35.637320" lon="-120.634727"><ele>234.0</ele></trkpt>
   <trkpt lat="35.637250" lon="-120.634017"><ele>232.0</ele></trkpt>
   <trkpt lat="35.637086" lon="-120.632297"><ele>238.25</ele></trkpt>
   <trkpt lat="35.636990" lon="-120.631276"><ele>238.25</ele></trkpt>
   <trkpt lat="35.636898" lon="-120.630218"><ele>237.5</ele></trkpt>
   <trkpt lat="35.636842" lon="-120.629894"><ele>237.0</ele></trkpt>
   <trkpt lat="35.636711" lon="-120.629552"><ele>235.25</ele></trkpt>
   <trkpt lat="35.636634" lon="-120.629412"><ele>234.5</ele></trkpt>
   <trkpt lat="35.636498" lon="-120.629220"><ele>233.5</ele></trkpt>
   <trkpt lat="35.636317" lon="-120.629028"><ele>234.25</ele></trkpt>
   <trkpt lat="35.636156" lon="-120.628882"><ele>235.0</ele></trkpt>
   <trkpt lat="35.636049" lon="-120.628813"><ele>235.25</ele></trkpt>
   <trkpt lat="35.635845" lon="-120.628727"><ele>235.75</ele></trkpt>
   <trkpt lat="35.635713" lon="-120.628687"><ele>236.0</ele></trkpt>
   <trkpt lat="35.635551" lon="-120.628646"><ele>236.25</ele></trkpt>
   <trkpt lat="35.635387" lon="-120.628646"><ele>236.5</ele></trkpt>
   <trkpt lat="35.635119" lon="-120.628671"><ele>237.25</ele></trkpt>
   <trkpt lat="35.634052" lon="-120.628777"><ele>237.25</ele></trkpt>
   <trkpt lat="35.633663" lon="-120.628768"><ele>237.5</ele></trkpt>
   <trkpt lat="35.633296" lon="-120.628735"><ele>238.0</ele></trkpt>
   <trkpt lat="35.633095" lon="-120.628683"><ele>238.0</ele></trkpt>
   <trkpt lat="35.632905" lon="-120.628597"><ele>238.25</ele></trkpt>
   <trkpt lat="35.632673" lon="-120.628404"><ele>239.0</ele></trkpt>
   <trkpt lat="35.632521" lon="-120.628196"><ele>239.5</ele></trkpt>
   <trkpt lat="35.632403" lon="-120.627918"><ele>239.75</ele></trkpt>
   <trkpt lat="35.632326" lon="-120.627592"><ele>240.25</ele></trkpt>
   <trkpt lat="35.632198" lon="-120.627016"><ele>240.0</ele></trkpt>
   <trkpt lat="35.632041" lon="-120.626597"><ele>240.0</ele></trkpt>
   <trkpt lat="35.631088" lon="-120.624613"><ele>243.0</ele></trkpt>
   <trkpt lat="35.630489" lon="-120.623365"><ele>246.0</ele></trkpt>
   <trkpt lat="35.630388" lon="-120.622930"><ele>245.75</ele></trkpt>
   <trkpt lat="35.630383" lon="-120.622528"><ele>246.5</ele></trkpt>
   <trkpt lat="35.630516" lon="-120.621555"><ele>249.75</ele></trkpt>
   <trkpt lat="35.630564" lon="-120.620988"><ele>251.75</ele></trkpt>
   <trkpt lat="35.630535" lon="-120.620518"><ele>253.75</ele></trkpt>
   <trkpt lat="35.630288" lon="-120.619684"><ele>256.5</ele></trkpt>
   <trkpt lat="35.630198" lon="-120.619400"><ele>257.0</ele></trkpt>
   <trkpt lat="35.630145" lon="-120.619132"><ele>257.5</ele></trkpt>
   <trkpt lat="35.630078" lon="-120.618643"><ele>259.75</ele></trkpt>
   <trkpt lat="35.630073" lon="-120.618189"><ele>262.0</ele></trkpt>
   <trkpt lat="35.630080" lon="-120.617835"><ele>264.0</ele></trkpt>
   <trkpt lat="35.630100" lon="-120.616346"><ele>273.5</ele></trkpt>
   <trkpt lat="35.630126" lon="-120.614363"><ele>282.25</ele></trkpt>
   <trkpt lat="35.630126" lon="-120.614302"><ele>282.25</ele></trkpt>
  </trkseg>
 </trk>
</gpx>
