<?xml version="1.0" encoding="UTF-8"?>
<gpx version="1.1" creator="BRouter" xmlns="http://www.topografix.com/GPX/1/1">
 <metadata><name>Day 3 - Morro Bay &gt; Absolution Cellars &gt; LOVR &gt; There Does Not Exist &gt; Claiborne &amp; Churchill &gt; Kulturhaus &gt; Pismo State Beach</name></metadata>
  <wpt lat="35.36618" lon="-120.85354"><name>Absolution Cellars (845 Embarcadero)</name></wpt>
  <wpt lat="35.24316" lon="-120.67051"><name>There Does Not Exist (brewery)</name></wpt>
  <wpt lat="35.19810" lon="-120.60519"><name>Claiborne &amp; Churchill Winery</name></wpt>
  <wpt lat="35.14196" lon="-120.64057"><name>Kulturhaus Brewery</name></wpt>
  <wpt lat="35.13110" lon="-120.63510"><name>Pismo State Beach - North Beach Campground</name></wpt>
 <trk>
  <name>Day 3 - Morro Bay &gt; Absolution Cellars &gt; LOVR &gt; There Does Not Exist &gt; Claiborne &amp; Churchill &gt; Kulturhaus &gt; Pismo State Beach</name>
  <type>cycling</type>
  <trkseg>
   <trkpt lat="35.348350" lon="-120.840866"><ele>14.0</ele></trkpt>
   <trkpt lat="35.347608" lon="-120.842082"><ele>6.0</ele></trkpt>
   <trkpt lat="35.347553" lon="-120.842149"><ele>5.5</ele></trkpt>
   <trkpt lat="35.347443" lon="-120.842281"><ele>6.0</ele></trkpt>
   <trkpt lat="35.347349" lon="-120.842440"><ele>7.25</ele></trkpt>
   <trkpt lat="35.347342" lon="-120.842516"><ele>7.5</ele></trkpt>
   <trkpt lat="35.347357" lon="-120.842545"><ele>7.5</ele></trkpt>
   <trkpt lat="35.347394" lon="-120.842555"><ele>7.25</ele></trkpt>
   <trkpt lat="35.347697" lon="-120.842611"><ele>6.75</ele></trkpt>
   <trkpt lat="35.347895" lon="-120.842558"><ele>6.75</ele></trkpt>
   <trkpt lat="35.348068" lon="-120.842489"><ele>7.0</ele></trkpt>
   <trkpt lat="35.348214" lon="-120.842414"><ele>7.75</ele></trkpt>
   <trkpt lat="35.348356" lon="-120.842309"><ele>8.75</ele></trkpt>
   <trkpt lat="35.349511" lon="-120.841860"><ele>18.5</ele></trkpt>
   <trkpt lat="35.349585" lon="-120.841841"><ele>18.5</ele></trkpt>
   <trkpt lat="35.349691" lon="-120.841843"><ele>18.0</ele></trkpt>
   <trkpt lat="35.349870" lon="-120.841879"><ele>17.25</ele></trkpt>
   <trkpt lat="35.350054" lon="-120.841847"><ele>17.5</ele></trkpt>
   <trkpt lat="35.350166" lon="-120.841837"><ele>18.5</ele></trkpt>
   <trkpt lat="35.350374" lon="-120.841865"><ele>20.25</ele></trkpt>
   <trkpt lat="35.350550" lon="-120.841871"><ele>21.75</ele></trkpt>
   <trkpt lat="35.350676" lon="-120.841865"><ele>23.0</ele></trkpt>
   <trkpt lat="35.350788" lon="-120.841861"><ele>24.0</ele></trkpt>
   <trkpt lat="35.350892" lon="-120.841844"><ele>25.25</ele></trkpt>
   <trkpt lat="35.351025" lon="-120.841841"><ele>26.75</ele></trkpt>
   <trkpt lat="35.351149" lon="-120.841813"><ele>28.25</ele></trkpt>
   <trkpt lat="35.351232" lon="-120.841770"><ele>29.5</ele></trkpt>
   <trkpt lat="35.351285" lon="-120.841675"><ele>30.75</ele></trkpt>
   <trkpt lat="35.351300" lon="-120.841545"><ele>31.25</ele></trkpt>
   <trkpt lat="35.351280" lon="-120.841441"><ele>31.5</ele></trkpt>
   <trkpt lat="35.351312" lon="-120.841402"><ele>32.0</ele></trkpt>
   <trkpt lat="35.351619" lon="-120.841227"><ele>36.0</ele></trkpt>
   <trkpt lat="35.351689" lon="-120.841161"><ele>36.75</ele></trkpt>
   <trkpt lat="35.351708" lon="-120.841091"><ele>37.25</ele></trkpt>
   <trkpt lat="35.351746" lon="-120.840987"><ele>38.0</ele></trkpt>
   <trkpt lat="35.352544" lon="-120.840823"><ele>45.0</ele></trkpt>
   <trkpt lat="35.352756" lon="-120.840831"><ele>45.5</ele></trkpt>
   <trkpt lat="35.352953" lon="-120.840866"><ele>45.75</ele></trkpt>
   <trkpt lat="35.353105" lon="-120.840878"><ele>46.25</ele></trkpt>
   <trkpt lat="35.353273" lon="-120.840843"><ele>46.75</ele></trkpt>
   <trkpt lat="35.353692" lon="-120.840639"><ele>52.0</ele></trkpt>
   <trkpt lat="35.353727" lon="-120.840756"><ele>52.25</ele></trkpt>
   <trkpt lat="35.353790" lon="-120.841033"><ele>51.75</ele></trkpt>
   <trkpt lat="35.353797" lon="-120.841146"><ele>51.25</ele></trkpt>
   <trkpt lat="35.353565" lon="-120.841143"><ele>48.5</ele></trkpt>
   <trkpt lat="35.353534" lon="-120.841370"><ele>47.0</ele></trkpt>
   <trkpt lat="35.353515" lon="-120.841548"><ele>46.25</ele></trkpt>
   <trkpt lat="35.353548" lon="-120.841695"><ele>45.75</ele></trkpt>
   <trkpt lat="35.353392" lon="-120.841741"><ele>44.25</ele></trkpt>
   <trkpt lat="35.353399" lon="-120.841785"><ele>44.0</ele></trkpt>
   <trkpt lat="35.353448" lon="-120.841926"><ele>43.75</ele></trkpt>
   <trkpt lat="35.353693" lon="-120.842482"><ele>42.75</ele></trkpt>
   <trkpt lat="35.353763" lon="-120.842687"><ele>41.25</ele></trkpt>
   <trkpt lat="35.353852" lon="-120.843197"><ele>37.25</ele></trkpt>
   <trkpt lat="35.353919" lon="-120.843726"><ele>31.25</ele></trkpt>
   <trkpt lat="35.354002" lon="-120.843738"><ele>31.25</ele></trkpt>
   <trkpt lat="35.354131" lon="-120.843751"><ele>31.25</ele></trkpt>
   <trkpt lat="35.354464" lon="-120.843813"><ele>29.5</ele></trkpt>
   <trkpt lat="35.354685" lon="-120.843894"><ele>27.75</ele></trkpt>
   <trkpt lat="35.355526" lon="-120.844345"><ele>26.25</ele></trkpt>
   <trkpt lat="35.355704" lon="-120.844459"><ele>26.5</ele></trkpt>
   <trkpt lat="35.355864" lon="-120.844650"><ele>26.25</ele></trkpt>
   <trkpt lat="35.355888" lon="-120.844685"><ele>26.0</ele></trkpt>
   <trkpt lat="35.355923" lon="-120.844766"><ele>25.75</ele></trkpt>
   <trkpt lat="35.355964" lon="-120.844892"><ele>25.25</ele></trkpt>
   <trkpt lat="35.356001" lon="-120.845078"><ele>24.25</ele></trkpt>
   <trkpt lat="35.356018" lon="-120.845353"><ele>23.0</ele></trkpt>
   <trkpt lat="35.356016" lon="-120.845526"><ele>22.25</ele></trkpt>
   <trkpt lat="35.356016" lon="-120.845934"><ele>20.0</ele></trkpt>
   <trkpt lat="35.356023" lon="-120.846130"><ele>18.75</ele></trkpt>
   <trkpt lat="35.356048" lon="-120.846307"><ele>17.75</ele></trkpt>
   <trkpt lat="35.356084" lon="-120.846435"><ele>17.25</ele></trkpt>
   <trkpt lat="35.356106" lon="-120.846499"><ele>17.0</ele></trkpt>
   <trkpt lat="35.356157" lon="-120.846592"><ele>16.75</ele></trkpt>
   <trkpt lat="35.356472" lon="-120.846994"><ele>15.0</ele></trkpt>
   <trkpt lat="35.357184" lon="-120.847925"><ele>15.75</ele></trkpt>
   <trkpt lat="35.357274" lon="-120.848062"><ele>16.25</ele></trkpt>
   <trkpt lat="35.357562" lon="-120.848435"><ele>18.25</ele></trkpt>
   <trkpt lat="35.357731" lon="-120.848588"><ele>20.0</ele></trkpt>
   <trkpt lat="35.358081" lon="-120.848848"><ele>23.75</ele></trkpt>
   <trkpt lat="35.358559" lon="-120.849242"><ele>26.25</ele></trkpt>
   <trkpt lat="35.358876" lon="-120.849467"><ele>28.0</ele></trkpt>
   <trkpt lat="35.359001" lon="-120.849530"><ele>29.0</ele></trkpt>
   <trkpt lat="35.359822" lon="-120.849875"><ele>24.25</ele></trkpt>
   <trkpt lat="35.360017" lon="-120.849948"><ele>23.25</ele></trkpt>
   <trkpt lat="35.360214" lon="-120.849968"><ele>23.0</ele></trkpt>
   <trkpt lat="35.360447" lon="-120.849979"><ele>23.0</ele></trkpt>
   <trkpt lat="35.361568" lon="-120.849969"><ele>23.0</ele></trkpt>
   <trkpt lat="35.362134" lon="-120.849974"><ele>22.5</ele></trkpt>
   <trkpt lat="35.362646" lon="-120.849980"><ele>21.75</ele></trkpt>
   <trkpt lat="35.362764" lon="-120.849981"><ele>21.75</ele></trkpt>
   <trkpt lat="35.363087" lon="-120.849985"><ele>21.25</ele></trkpt>
   <trkpt lat="35.364027" lon="-120.849978"><ele>19.25</ele></trkpt>
   <trkpt lat="35.364465" lon="-120.849978"><ele>19.25</ele></trkpt>
   <trkpt lat="35.364682" lon="-120.849977"><ele>19.5</ele></trkpt>
   <trkpt lat="35.364791" lon="-120.849977"><ele>19.75</ele></trkpt>
   <trkpt lat="35.364909" lon="-120.849977"><ele>19.75</ele></trkpt>
   <trkpt lat="35.364970" lon="-120.849977"><ele>20.0</ele></trkpt>
   <trkpt lat="35.364971" lon="-120.850105"><ele>19.5</ele></trkpt>
   <trkpt lat="35.364978" lon="-120.851145"><ele>15.75</ele></trkpt>
   <trkpt lat="35.364966" lon="-120.851815"><ele>13.0</ele></trkpt>
   <trkpt lat="35.364958" lon="-120.852299"><ele>10.0</ele></trkpt>
   <trkpt lat="35.364948" lon="-120.852835"><ele>7.25</ele></trkpt>
   <trkpt lat="35.364943" lon="-120.852915"><ele>6.75</ele></trkpt>
   <trkpt lat="35.365056" lon="-120.852951"><ele>6.75</ele></trkpt>
   <trkpt lat="35.365662" lon="-120.853134"><ele>6.5</ele></trkpt>
   <trkpt lat="35.365808" lon="-120.853174"><ele>6.5</ele></trkpt>
   <trkpt lat="35.365849" lon="-120.853186"><ele>6.5</ele></trkpt>
   <trkpt lat="35.365841" lon="-120.853244"><ele>6.25</ele></trkpt>
   <trkpt lat="35.365843" lon="-120.853250"><ele>6.25</ele></trkpt>
   <trkpt lat="35.365846" lon="-120.853256"><ele>6.25</ele></trkpt>
   <trkpt lat="35.366119" lon="-120.853343"><ele>6.25</ele></trkpt>
   <trkpt lat="35.366082" lon="-120.853524"><ele>6.25</ele></trkpt>
   <trkpt lat="35.366100" lon="-120.853530"><ele>6.25</ele></trkpt>
   <trkpt lat="35.366101" lon="-120.853530"><ele>6.25</ele></trkpt>
   <trkpt lat="35.366082" lon="-120.853524"><ele>6.25</ele></trkpt>
   <trkpt lat="35.366119" lon="-120.853343"><ele>6.25</ele></trkpt>
   <trkpt lat="35.365846" lon="-120.853256"><ele>6.25</ele></trkpt>
   <trkpt lat="35.365843" lon="-120.853250"><ele>6.25</ele></trkpt>
   <trkpt lat="35.365841" lon="-120.853244"><ele>6.25</ele></trkpt>
   <trkpt lat="35.365849" lon="-120.853186"><ele>6.5</ele></trkpt>
   <trkpt lat="35.365808" lon="-120.853174"><ele>6.5</ele></trkpt>
   <trkpt lat="35.365662" lon="-120.853134"><ele>6.5</ele></trkpt>
   <trkpt lat="35.365056" lon="-120.852951"><ele>6.75</ele></trkpt>
   <trkpt lat="35.364943" lon="-120.852915"><ele>7.25</ele></trkpt>
   <trkpt lat="35.364003" lon="-120.852626"><ele>11.5</ele></trkpt>
   <trkpt lat="35.364018" lon="-120.852519"><ele>12.0</ele></trkpt>
   <trkpt lat="35.364019" lon="-120.851141"><ele>17.25</ele></trkpt>
   <trkpt lat="35.364023" lon="-120.850517"><ele>17.25</ele></trkpt>
   <trkpt lat="35.364027" lon="-120.849978"><ele>19.25</ele></trkpt>
   <trkpt lat="35.363087" lon="-120.849985"><ele>21.25</ele></trkpt>
   <trkpt lat="35.362764" lon="-120.849981"><ele>21.75</ele></trkpt>
   <trkpt lat="35.362646" lon="-120.849980"><ele>21.75</ele></trkpt>
   <trkpt lat="35.362134" lon="-120.849974"><ele>22.5</ele></trkpt>
   <trkpt lat="35.361568" lon="-120.849969"><ele>23.0</ele></trkpt>
   <trkpt lat="35.360447" lon="-120.849979"><ele>23.0</ele></trkpt>
   <trkpt lat="35.360214" lon="-120.849968"><ele>23.0</ele></trkpt>
   <trkpt lat="35.360017" lon="-120.849948"><ele>23.25</ele></trkpt>
   <trkpt lat="35.359822" lon="-120.849875"><ele>24.25</ele></trkpt>
   <trkpt lat="35.359001" lon="-120.849530"><ele>29.0</ele></trkpt>
   <trkpt lat="35.358876" lon="-120.849467"><ele>28.0</ele></trkpt>
   <trkpt lat="35.358559" lon="-120.849242"><ele>26.25</ele></trkpt>
   <trkpt lat="35.358081" lon="-120.848848"><ele>23.75</ele></trkpt>
   <trkpt lat="35.357731" lon="-120.848588"><ele>20.0</ele></trkpt>
   <trkpt lat="35.357562" lon="-120.848435"><ele>18.25</ele></trkpt>
   <trkpt lat="35.357274" lon="-120.848062"><ele>16.25</ele></trkpt>
   <trkpt lat="35.357184" lon="-120.847925"><ele>15.75</ele></trkpt>
   <trkpt lat="35.356472" lon="-120.846994"><ele>15.0</ele></trkpt>
   <trkpt lat="35.356157" lon="-120.846592"><ele>16.75</ele></trkpt>
   <trkpt lat="35.356106" lon="-120.846499"><ele>17.0</ele></trkpt>
   <trkpt lat="35.356084" lon="-120.846435"><ele>17.25</ele></trkpt>
   <trkpt lat="35.356048" lon="-120.846307"><ele>17.75</ele></trkpt>
   <trkpt lat="35.356023" lon="-120.846130"><ele>18.75</ele></trkpt>
   <trkpt lat="35.356016" lon="-120.845934"><ele>20.0</ele></trkpt>
   <trkpt lat="35.356016" lon="-120.845526"><ele>22.25</ele></trkpt>
   <trkpt lat="35.356018" lon="-120.845353"><ele>23.0</ele></trkpt>
   <trkpt lat="35.356001" lon="-120.845078"><ele>24.25</ele></trkpt>
   <trkpt lat="35.355964" lon="-120.844892"><ele>25.25</ele></trkpt>
   <trkpt lat="35.355923" lon="-120.844766"><ele>25.75</ele></trkpt>
   <trkpt lat="35.355888" lon="-120.844685"><ele>26.0</ele></trkpt>
   <trkpt lat="35.355864" lon="-120.844650"><ele>26.25</ele></trkpt>
   <trkpt lat="35.355704" lon="-120.844459"><ele>26.5</ele></trkpt>
   <trkpt lat="35.355526" lon="-120.844345"><ele>26.25</ele></trkpt>
   <trkpt lat="35.354685" lon="-120.843894"><ele>27.75</ele></trkpt>
   <trkpt lat="35.354464" lon="-120.843813"><ele>29.5</ele></trkpt>
   <trkpt lat="35.354131" lon="-120.843751"><ele>31.25</ele></trkpt>
   <trkpt lat="35.354002" lon="-120.843738"><ele>31.25</ele></trkpt>
   <trkpt lat="35.353919" lon="-120.843726"><ele>31.25</ele></trkpt>
   <trkpt lat="35.353673" lon="-120.843715"><ele>31.0</ele></trkpt>
   <trkpt lat="35.353578" lon="-120.843708"><ele>30.75</ele></trkpt>
   <trkpt lat="35.353137" lon="-120.843679"><ele>31.25</ele></trkpt>
   <trkpt lat="35.352284" lon="-120.843607"><ele>32.25</ele></trkpt>
   <trkpt lat="35.352037" lon="-120.843555"><ele>30.75</ele></trkpt>
   <trkpt lat="35.351153" lon="-120.843256"><ele>25.75</ele></trkpt>
   <trkpt lat="35.350959" lon="-120.843208"><ele>24.25</ele></trkpt>
   <trkpt lat="35.350796" lon="-120.843185"><ele>23.0</ele></trkpt>
   <trkpt lat="35.350520" lon="-120.843227"><ele>21.75</ele></trkpt>
   <trkpt lat="35.350198" lon="-120.843314"><ele>20.75</ele></trkpt>
   <trkpt lat="35.350082" lon="-120.843324"><ele>20.25</ele></trkpt>
   <trkpt lat="35.349983" lon="-120.843315"><ele>19.5</ele></trkpt>
   <trkpt lat="35.349418" lon="-120.843224"><ele>14.25</ele></trkpt>
   <trkpt lat="35.349250" lon="-120.843208"><ele>12.75</ele></trkpt>
   <trkpt lat="35.349184" lon="-120.843211"><ele>12.25</ele></trkpt>
   <trkpt lat="35.348566" lon="-120.843306"><ele>11.75</ele></trkpt>
   <trkpt lat="35.348374" lon="-120.843328"><ele>12.25</ele></trkpt>
   <trkpt lat="35.348129" lon="-120.843337"><ele>13.25</ele></trkpt>
   <trkpt lat="35.347772" lon="-120.843301"><ele>14.5</ele></trkpt>
   <trkpt lat="35.347671" lon="-120.843291"><ele>14.5</ele></trkpt>
   <trkpt lat="35.347438" lon="-120.843233"><ele>14.75</ele></trkpt>
   <trkpt lat="35.347346" lon="-120.843179"><ele>14.5</ele></trkpt>
   <trkpt lat="35.347196" lon="-120.843074"><ele>14.25</ele></trkpt>
   <trkpt lat="35.346894" lon="-120.842764"><ele>15.0</ele></trkpt>
   <trkpt lat="35.346821" lon="-120.842670"><ele>15.75</ele></trkpt>
   <trkpt lat="35.346658" lon="-120.842394"><ele>18.0</ele></trkpt>
   <trkpt lat="35.346500" lon="-120.842078"><ele>17.0</ele></trkpt>
   <trkpt lat="35.345781" lon="-120.840166"><ele>12.75</ele></trkpt>
   <trkpt lat="35.345626" lon="-120.839667"><ele>11.75</ele></trkpt>
   <trkpt lat="35.345554" lon="-120.839390"><ele>11.25</ele></trkpt>
   <trkpt lat="35.345508" lon="-120.839109"><ele>10.75</ele></trkpt>
   <trkpt lat="35.345501" lon="-120.839010"><ele>10.75</ele></trkpt>
   <trkpt lat="35.345509" lon="-120.838872"><ele>10.25</ele></trkpt>
   <trkpt lat="35.345542" lon="-120.838740"><ele>10.0</ele></trkpt>
   <trkpt lat="35.345676" lon="-120.838470"><ele>9.5</ele></trkpt>
   <trkpt lat="35.346141" lon="-120.837819"><ele>10.25</ele></trkpt>
   <trkpt lat="35.346402" lon="-120.837343"><ele>11.75</ele></trkpt>
   <trkpt lat="35.347318" lon="-120.835461"><ele>8.0</ele></trkpt>
   <trkpt lat="35.347585" lon="-120.834874"><ele>8.5</ele></trkpt>
   <trkpt lat="35.347777" lon="-120.834475"><ele>7.25</ele></trkpt>
   <trkpt lat="35.347874" lon="-120.834302"><ele>6.75</ele></trkpt>
   <trkpt lat="35.348029" lon="-120.834058"><ele>6.5</ele></trkpt>
   <trkpt lat="35.348320" lon="-120.833750"><ele>5.75</ele></trkpt>
   <trkpt lat="35.348578" lon="-120.833528"><ele>5.5</ele></trkpt>
   <trkpt lat="35.348702" lon="-120.833451"><ele>5.5</ele></trkpt>
   <trkpt lat="35.348821" lon="-120.833396"><ele>5.75</ele></trkpt>
   <trkpt lat="35.349324" lon="-120.833225"><ele>7.25</ele></trkpt>
   <trkpt lat="35.349762" lon="-120.833034"><ele>8.0</ele></trkpt>
   <trkpt lat="35.349998" lon="-120.832909"><ele>7.75</ele></trkpt>
   <trkpt lat="35.350187" lon="-120.832775"><ele>9.0</ele></trkpt>
   <trkpt lat="35.350590" lon="-120.832424"><ele>10.0</ele></trkpt>
   <trkpt lat="35.350858" lon="-120.832138"><ele>10.25</ele></trkpt>
   <trkpt lat="35.351388" lon="-120.831504"><ele>12.25</ele></trkpt>
   <trkpt lat="35.351804" lon="-120.831043"><ele>10.5</ele></trkpt>
   <trkpt lat="35.351995" lon="-120.830853"><ele>8.75</ele></trkpt>
   <trkpt lat="35.352397" lon="-120.830498"><ele>8.75</ele></trkpt>
   <trkpt lat="35.352857" lon="-120.830172"><ele>10.25</ele></trkpt>
   <trkpt lat="35.353330" lon="-120.829939"><ele>10.5</ele></trkpt>
   <trkpt lat="35.353552" lon="-120.829800"><ele>12.25</ele></trkpt>
   <trkpt lat="35.353879" lon="-120.829549"><ele>12.5</ele></trkpt>
   <trkpt lat="35.353941" lon="-120.829474"><ele>11.75</ele></trkpt>
   <trkpt lat="35.354241" lon="-120.829153"><ele>8.25</ele></trkpt>
   <trkpt lat="35.354688" lon="-120.828687"><ele>12.25</ele></trkpt>
   <trkpt lat="35.354791" lon="-120.828569"><ele>11.75</ele></trkpt>
   <trkpt lat="35.354896" lon="-120.828421"><ele>10.75</ele></trkpt>
   <trkpt lat="35.354932" lon="-120.828344"><ele>9.75</ele></trkpt>
   <trkpt lat="35.354970" lon="-120.828235"><ele>9.25</ele></trkpt>
   <trkpt lat="35.355019" lon="-120.828050"><ele>8.25</ele></trkpt>
   <trkpt lat="35.354636" lon="-120.827867"><ele>7.0</ele></trkpt>
   <trkpt lat="35.353849" lon="-120.827506"><ele>6.0</ele></trkpt>
   <trkpt lat="35.353680" lon="-120.827453"><ele>6.0</ele></trkpt>
   <trkpt lat="35.353534" lon="-120.827422"><ele>6.25</ele></trkpt>
   <trkpt lat="35.353288" lon="-120.827408"><ele>7.25</ele></trkpt>
   <trkpt lat="35.353018" lon="-120.827455"><ele>10.0</ele></trkpt>
   <trkpt lat="35.352802" lon="-120.827533"><ele>11.25</ele></trkpt>
   <trkpt lat="35.352693" lon="-120.827590"><ele>11.75</ele></trkpt>
   <trkpt lat="35.352498" lon="-120.827731"><ele>11.5</ele></trkpt>
   <trkpt lat="35.352159" lon="-120.828019"><ele>9.75</ele></trkpt>
   <trkpt lat="35.352023" lon="-120.828099"><ele>9.25</ele></trkpt>
   <trkpt lat="35.351860" lon="-120.828167"><ele>8.75</ele></trkpt>
   <trkpt lat="35.351709" lon="-120.828201"><ele>8.75</ele></trkpt>
   <trkpt lat="35.351429" lon="-120.828243"><ele>8.25</ele></trkpt>
   <trkpt lat="35.351059" lon="-120.828273"><ele>8.0</ele></trkpt>
   <trkpt lat="35.350802" lon="-120.828272"><ele>8.0</ele></trkpt>
   <trkpt lat="35.350620" lon="-120.828220"><ele>8.0</ele></trkpt>
   <trkpt lat="35.350185" lon="-120.828058"><ele>8.5</ele></trkpt>
   <trkpt lat="35.350042" lon="-120.827983"><ele>8.75</ele></trkpt>
   <trkpt lat="35.349918" lon="-120.827898"><ele>9.0</ele></trkpt>
   <trkpt lat="35.349715" lon="-120.827699"><ele>9.5</ele></trkpt>
   <trkpt lat="35.349482" lon="-120.827337"><ele>10.5</ele></trkpt>
   <trkpt lat="35.349338" lon="-120.827138"><ele>10.75</ele></trkpt>
   <trkpt lat="35.349207" lon="-120.827000"><ele>10.0</ele></trkpt>
   <trkpt lat="35.349049" lon="-120.826874"><ele>10.0</ele></trkpt>
   <trkpt lat="35.348924" lon="-120.826790"><ele>10.0</ele></trkpt>
   <trkpt lat="35.348724" lon="-120.826687"><ele>9.5</ele></trkpt>
   <trkpt lat="35.348050" lon="-120.826472"><ele>7.5</ele></trkpt>
   <trkpt lat="35.347855" lon="-120.826399"><ele>7.0</ele></trkpt>
   <trkpt lat="35.347590" lon="-120.826262"><ele>6.5</ele></trkpt>
   <trkpt lat="35.346967" lon="-120.825884"><ele>6.75</ele></trkpt>
   <trkpt lat="35.346823" lon="-120.825813"><ele>6.5</ele></trkpt>
   <trkpt lat="35.346583" lon="-120.825732"><ele>6.25</ele></trkpt>
   <trkpt lat="35.346319" lon="-120.825696"><ele>6.75</ele></trkpt>
   <trkpt lat="35.345295" lon="-120.825658"><ele>7.75</ele></trkpt>
   <trkpt lat="35.344806" lon="-120.825611"><ele>8.5</ele></trkpt>
   <trkpt lat="35.344393" lon="-120.825517"><ele>10.25</ele></trkpt>
   <trkpt lat="35.344093" lon="-120.825438"><ele>11.25</ele></trkpt>
   <trkpt lat="35.343819" lon="-120.825356"><ele>11.25</ele></trkpt>
   <trkpt lat="35.343357" lon="-120.825167"><ele>10.75</ele></trkpt>
   <trkpt lat="35.343057" lon="-120.825028"><ele>9.25</ele></trkpt>
   <trkpt lat="35.342684" lon="-120.824824"><ele>8.5</ele></trkpt>
   <trkpt lat="35.341411" lon="-120.824018"><ele>8.5</ele></trkpt>
   <trkpt lat="35.340966" lon="-120.823766"><ele>9.0</ele></trkpt>
   <trkpt lat="35.340671" lon="-120.823633"><ele>9.25</ele></trkpt>
   <trkpt lat="35.340337" lon="-120.823506"><ele>9.0</ele></trkpt>
   <trkpt lat="35.339877" lon="-120.823368"><ele>8.25</ele></trkpt>
   <trkpt lat="35.339536" lon="-120.823312"><ele>7.25</ele></trkpt>
   <trkpt lat="35.339382" lon="-120.823290"><ele>6.5</ele></trkpt>
   <trkpt lat="35.339170" lon="-120.823300"><ele>5.75</ele></trkpt>
   <trkpt lat="35.336559" lon="-120.823310"><ele>5.75</ele></trkpt>
   <trkpt lat="35.335333" lon="-120.823313"><ele>5.0</ele></trkpt>
   <trkpt lat="35.334796" lon="-120.823310"><ele>8.5</ele></trkpt>
   <trkpt lat="35.334270" lon="-120.823329"><ele>15.5</ele></trkpt>
   <trkpt lat="35.333322" lon="-120.823362"><ele>26.0</ele></trkpt>
   <trkpt lat="35.330839" lon="-120.823365"><ele>31.0</ele></trkpt>
   <trkpt lat="35.330268" lon="-120.823362"><ele>28.75</ele></trkpt>
   <trkpt lat="35.329936" lon="-120.823352"><ele>27.75</ele></trkpt>
   <trkpt lat="35.329947" lon="-120.823959"><ele>27.25</ele></trkpt>
   <trkpt lat="35.329968" lon="-120.824134"><ele>27.0</ele></trkpt>
   <trkpt lat="35.329980" lon="-120.824391"><ele>27.75</ele></trkpt>
   <trkpt lat="35.329971" lon="-120.824688"><ele>28.75</ele></trkpt>
   <trkpt lat="35.329951" lon="-120.825003"><ele>30.0</ele></trkpt>
   <trkpt lat="35.329953" lon="-120.825484"><ele>31.75</ele></trkpt>
   <trkpt lat="35.329953" lon="-120.825978"><ele>33.0</ele></trkpt>
   <trkpt lat="35.329975" lon="-120.826292"><ele>33.0</ele></trkpt>
   <trkpt lat="35.329989" lon="-120.826595"><ele>33.0</ele></trkpt>
   <trkpt lat="35.329917" lon="-120.826596"><ele>33.25</ele></trkpt>
   <trkpt lat="35.328094" lon="-120.826576"><ele>38.5</ele></trkpt>
   <trkpt lat="35.326153" lon="-120.826627"><ele>30.75</ele></trkpt>
   <trkpt lat="35.324355" lon="-120.826609"><ele>23.75</ele></trkpt>
   <trkpt lat="35.322464" lon="-120.826632"><ele>36.0</ele></trkpt>
   <trkpt lat="35.320621" lon="-120.826639"><ele>35.5</ele></trkpt>
   <trkpt lat="35.320635" lon="-120.827752"><ele>35.75</ele></trkpt>
   <trkpt lat="35.320629" lon="-120.828871"><ele>34.0</ele></trkpt>
   <trkpt lat="35.320638" lon="-120.829960"><ele>30.5</ele></trkpt>
   <trkpt lat="35.318784" lon="-120.829951"><ele>35.75</ele></trkpt>
   <trkpt lat="35.317998" lon="-120.829970"><ele>35.5</ele></trkpt>
   <trkpt lat="35.316910" lon="-120.829994"><ele>35.5</ele></trkpt>
   <trkpt lat="35.316897" lon="-120.828897"><ele>36.25</ele></trkpt>
   <trkpt lat="35.316871" lon="-120.824769"><ele>34.5</ele></trkpt>
   <trkpt lat="35.316859" lon="-120.824462"><ele>34.75</ele></trkpt>
   <trkpt lat="35.316845" lon="-120.824319"><ele>35.0</ele></trkpt>
   <trkpt lat="35.316811" lon="-120.824141"><ele>35.0</ele></trkpt>
   <trkpt lat="35.316743" lon="-120.823928"><ele>35.0</ele></trkpt>
   <trkpt lat="35.316518" lon="-120.823436"><ele>35.0</ele></trkpt>
   <trkpt lat="35.314547" lon="-120.823431"><ele>33.25</ele></trkpt>
   <trkpt lat="35.314278" lon="-120.823434"><ele>33.75</ele></trkpt>
   <trkpt lat="35.313961" lon="-120.823453"><ele>35.25</ele></trkpt>
   <trkpt lat="35.313690" lon="-120.823484"><ele>37.0</ele></trkpt>
   <trkpt lat="35.313001" lon="-120.823616"><ele>39.5</ele></trkpt>
   <trkpt lat="35.312701" lon="-120.823695"><ele>39.75</ele></trkpt>
   <trkpt lat="35.312507" lon="-120.823766"><ele>39.75</ele></trkpt>
   <trkpt lat="35.312374" lon="-120.823807"><ele>40.25</ele></trkpt>
   <trkpt lat="35.312271" lon="-120.823844"><ele>40.75</ele></trkpt>
   <trkpt lat="35.312032" lon="-120.823959"><ele>41.75</ele></trkpt>
   <trkpt lat="35.311570" lon="-120.824245"><ele>44.25</ele></trkpt>
   <trkpt lat="35.311322" lon="-120.824419"><ele>45.0</ele></trkpt>
   <trkpt lat="35.310762" lon="-120.824887"><ele>48.0</ele></trkpt>
   <trkpt lat="35.310538" lon="-120.825082"><ele>49.25</ele></trkpt>
   <trkpt lat="35.310138" lon="-120.825419"><ele>51.25</ele></trkpt>
   <trkpt lat="35.309749" lon="-120.824692"><ele>53.0</ele></trkpt>
   <trkpt lat="35.309619" lon="-120.824455"><ele>53.0</ele></trkpt>
   <trkpt lat="35.309298" lon="-120.823898"><ele>54.0</ele></trkpt>
   <trkpt lat="35.309129" lon="-120.823584"><ele>54.75</ele></trkpt>
   <trkpt lat="35.308987" lon="-120.823297"><ele>55.25</ele></trkpt>
   <trkpt lat="35.308861" lon="-120.822995"><ele>54.75</ele></trkpt>
   <trkpt lat="35.308773" lon="-120.822682"><ele>54.0</ele></trkpt>
   <trkpt lat="35.308646" lon="-120.822163"><ele>53.5</ele></trkpt>
   <trkpt lat="35.308516" lon="-120.821634"><ele>54.0</ele></trkpt>
   <trkpt lat="35.308131" lon="-120.820165"><ele>56.5</ele></trkpt>
   <trkpt lat="35.308082" lon="-120.819960"><ele>57.0</ele></trkpt>
   <trkpt lat="35.307980" lon="-120.819530"><ele>57.0</ele></trkpt>
   <trkpt lat="35.307829" lon="-120.818938"><ele>56.25</ele></trkpt>
   <trkpt lat="35.307497" lon="-120.817619"><ele>56.75</ele></trkpt>
   <trkpt lat="35.307233" lon="-120.816575"><ele>51.75</ele></trkpt>
   <trkpt lat="35.307023" lon="-120.815674"><ele>48.5</ele></trkpt>
   <trkpt lat="35.306607" lon="-120.813980"><ele>47.75</ele></trkpt>
   <trkpt lat="35.306468" lon="-120.813447"><ele>44.75</ele></trkpt>
   <trkpt lat="35.306388" lon="-120.813117"><ele>41.0</ele></trkpt>
   <trkpt lat="35.306033" lon="-120.811657"><ele>31.75</ele></trkpt>
   <trkpt lat="35.305732" lon="-120.810526"><ele>30.0</ele></trkpt>
   <trkpt lat="35.305411" lon="-120.809202"><ele>29.25</ele></trkpt>
   <trkpt lat="35.305327" lon="-120.808857"><ele>30.0</ele></trkpt>
   <trkpt lat="35.305195" lon="-120.808313"><ele>31.0</ele></trkpt>
   <trkpt lat="35.305105" lon="-120.807941"><ele>30.25</ele></trkpt>
   <trkpt lat="35.305083" lon="-120.807850"><ele>30.0</ele></trkpt>
   <trkpt lat="35.304923" lon="-120.807191"><ele>28.25</ele></trkpt>
   <trkpt lat="35.304837" lon="-120.806837"><ele>28.0</ele></trkpt>
   <trkpt lat="35.304657" lon="-120.806145"><ele>27.5</ele></trkpt>
   <trkpt lat="35.304468" lon="-120.805346"><ele>28.25</ele></trkpt>
   <trkpt lat="35.304077" lon="-120.803704"><ele>40.25</ele></trkpt>
   <trkpt lat="35.304059" lon="-120.803625"><ele>40.25</ele></trkpt>
   <trkpt lat="35.303941" lon="-120.803103"><ele>39.5</ele></trkpt>
   <trkpt lat="35.303512" lon="-120.801413"><ele>36.0</ele></trkpt>
   <trkpt lat="35.303365" lon="-120.800784"><ele>34.75</ele></trkpt>
   <trkpt lat="35.303340" lon="-120.800668"><ele>34.75</ele></trkpt>
   <trkpt lat="35.303273" lon="-120.800370"><ele>35.0</ele></trkpt>
   <trkpt lat="35.303234" lon="-120.800191"><ele>35.0</ele></trkpt>
   <trkpt lat="35.302837" lon="-120.798020"><ele>31.5</ele></trkpt>
   <trkpt lat="35.302591" lon="-120.796764"><ele>30.5</ele></trkpt>
   <trkpt lat="35.302387" lon="-120.795601"><ele>29.25</ele></trkpt>
   <trkpt lat="35.302283" lon="-120.795165"><ele>29.25</ele></trkpt>
   <trkpt lat="35.302223" lon="-120.794915"><ele>28.75</ele></trkpt>
   <trkpt lat="35.302028" lon="-120.794200"><ele>26.25</ele></trkpt>
   <trkpt lat="35.301845" lon="-120.793633"><ele>22.75</ele></trkpt>
   <trkpt lat="35.301744" lon="-120.793344"><ele>20.75</ele></trkpt>
   <trkpt lat="35.301659" lon="-120.793152"><ele>19.75</ele></trkpt>
   <trkpt lat="35.300483" lon="-120.790109"><ele>14.5</ele></trkpt>
   <trkpt lat="35.300059" lon="-120.788976"><ele>15.5</ele></trkpt>
   <trkpt lat="35.299986" lon="-120.788769"><ele>15.0</ele></trkpt>
   <trkpt lat="35.299369" lon="-120.787138"><ele>14.75</ele></trkpt>
   <trkpt lat="35.299200" lon="-120.786609"><ele>13.75</ele></trkpt>
   <trkpt lat="35.299025" lon="-120.785923"><ele>14.5</ele></trkpt>
   <trkpt lat="35.298943" lon="-120.785504"><ele>14.5</ele></trkpt>
   <trkpt lat="35.298835" lon="-120.784783"><ele>14.0</ele></trkpt>
   <trkpt lat="35.298775" lon="-120.784107"><ele>13.5</ele></trkpt>
   <trkpt lat="35.298751" lon="-120.783533"><ele>13.75</ele></trkpt>
   <trkpt lat="35.298753" lon="-120.783405"><ele>13.75</ele></trkpt>
   <trkpt lat="35.298761" lon="-120.782838"><ele>14.25</ele></trkpt>
   <trkpt lat="35.298771" lon="-120.782550"><ele>14.25</ele></trkpt>
   <trkpt lat="35.298813" lon="-120.782090"><ele>15.0</ele></trkpt>
   <trkpt lat="35.298888" lon="-120.781458"><ele>15.5</ele></trkpt>
   <trkpt lat="35.298958" lon="-120.781006"><ele>14.75</ele></trkpt>
   <trkpt lat="35.299110" lon="-120.780338"><ele>15.25</ele></trkpt>
   <trkpt lat="35.299300" lon="-120.779655"><ele>16.0</ele></trkpt>
   <trkpt lat="35.299614" lon="-120.778572"><ele>16.5</ele></trkpt>
   <trkpt lat="35.299786" lon="-120.777973"><ele>16.25</ele></trkpt>
   <trkpt lat="35.299927" lon="-120.777095"><ele>16.5</ele></trkpt>
   <trkpt lat="35.299966" lon="-120.776610"><ele>17.0</ele></trkpt>
   <trkpt lat="35.299973" lon="-120.776404"><ele>17.5</ele></trkpt>
   <trkpt lat="35.299965" lon="-120.775762"><ele>19.25</ele></trkpt>
   <trkpt lat="35.299907" lon="-120.775198"><ele>22.75</ele></trkpt>
   <trkpt lat="35.299804" lon="-120.774654"><ele>23.0</ele></trkpt>
   <trkpt lat="35.299662" lon="-120.774054"><ele>21.75</ele></trkpt>
   <trkpt lat="35.299528" lon="-120.773646"><ele>22.0</ele></trkpt>
   <trkpt lat="35.299021" lon="-120.772342"><ele>20.75</ele></trkpt>
   <trkpt lat="35.298798" lon="-120.771748"><ele>20.0</ele></trkpt>
   <trkpt lat="35.297204" lon="-120.767379"><ele>22.0</ele></trkpt>
   <trkpt lat="35.297110" lon="-120.767123"><ele>22.0</ele></trkpt>
   <trkpt lat="35.296590" lon="-120.765749"><ele>24.25</ele></trkpt>
   <trkpt lat="35.296282" lon="-120.764891"><ele>25.25</ele></trkpt>
   <trkpt lat="35.294130" lon="-120.759013"><ele>33.0</ele></trkpt>
   <trkpt lat="35.293557" lon="-120.757480"><ele>35.5</ele></trkpt>
   <trkpt lat="35.292943" lon="-120.755822"><ele>38.25</ele></trkpt>
   <trkpt lat="35.292590" lon="-120.754862"><ele>39.75</ele></trkpt>
   <trkpt lat="35.292166" lon="-120.753713"><ele>40.25</ele></trkpt>
   <trkpt lat="35.292046" lon="-120.753393"><ele>40.0</ele></trkpt>
   <trkpt lat="35.291468" lon="-120.751847"><ele>39.25</ele></trkpt>
   <trkpt lat="35.291309" lon="-120.751395"><ele>39.25</ele></trkpt>
   <trkpt lat="35.289525" lon="-120.746534"><ele>49.5</ele></trkpt>
   <trkpt lat="35.289131" lon="-120.745461"><ele>51.75</ele></trkpt>
   <trkpt lat="35.288208" lon="-120.742930"><ele>55.25</ele></trkpt>
   <trkpt lat="35.287636" lon="-120.741394"><ele>57.0</ele></trkpt>
   <trkpt lat="35.286464" lon="-120.738198"><ele>58.5</ele></trkpt>
   <trkpt lat="35.286086" lon="-120.737157"><ele>59.0</ele></trkpt>
   <trkpt lat="35.284597" lon="-120.733094"><ele>53.75</ele></trkpt>
   <trkpt lat="35.284524" lon="-120.732882"><ele>53.5</ele></trkpt>
   <trkpt lat="35.284325" lon="-120.732353"><ele>52.5</ele></trkpt>
   <trkpt lat="35.283285" lon="-120.729514"><ele>49.0</ele></trkpt>
   <trkpt lat="35.282456" lon="-120.727259"><ele>49.5</ele></trkpt>
   <trkpt lat="35.282282" lon="-120.726769"><ele>51.0</ele></trkpt>
   <trkpt lat="35.281895" lon="-120.725729"><ele>53.25</ele></trkpt>
   <trkpt lat="35.279395" lon="-120.718903"><ele>45.0</ele></trkpt>
   <trkpt lat="35.279083" lon="-120.718043"><ele>45.25</ele></trkpt>
   <trkpt lat="35.278642" lon="-120.716819"><ele>46.5</ele></trkpt>
   <trkpt lat="35.278208" lon="-120.715661"><ele>44.25</ele></trkpt>
   <trkpt lat="35.277862" lon="-120.714698"><ele>43.25</ele></trkpt>
   <trkpt lat="35.277792" lon="-120.714491"><ele>43.5</ele></trkpt>
   <trkpt lat="35.277480" lon="-120.713536"><ele>45.75</ele></trkpt>
   <trkpt lat="35.277299" lon="-120.713019"><ele>45.5</ele></trkpt>
   <trkpt lat="35.277101" lon="-120.712554"><ele>45.5</ele></trkpt>
   <trkpt lat="35.276889" lon="-120.712120"><ele>44.75</ele></trkpt>
   <trkpt lat="35.276607" lon="-120.711622"><ele>44.25</ele></trkpt>
   <trkpt lat="35.276454" lon="-120.711406"><ele>44.75</ele></trkpt>
   <trkpt lat="35.275936" lon="-120.710811"><ele>45.75</ele></trkpt>
   <trkpt lat="35.275678" lon="-120.710582"><ele>46.0</ele></trkpt>
   <trkpt lat="35.274318" lon="-120.709374"><ele>46.25</ele></trkpt>
   <trkpt lat="35.274209" lon="-120.709269"><ele>46.0</ele></trkpt>
   <trkpt lat="35.272724" lon="-120.707947"><ele>44.75</ele></trkpt>
   <trkpt lat="35.269685" lon="-120.705310"><ele>43.25</ele></trkpt>
   <trkpt lat="35.268396" lon="-120.704165"><ele>47.25</ele></trkpt>
   <trkpt lat="35.268297" lon="-120.704071"><ele>47.75</ele></trkpt>
   <trkpt lat="35.267643" lon="-120.703304"><ele>48.25</ele></trkpt>
   <trkpt lat="35.267207" lon="-120.702803"><ele>47.5</ele></trkpt>
   <trkpt lat="35.267166" lon="-120.702768"><ele>47.25</ele></trkpt>
   <trkpt lat="35.267060" lon="-120.702736"><ele>47.5</ele></trkpt>
   <trkpt lat="35.266122" lon="-120.701599"><ele>49.25</ele></trkpt>
   <trkpt lat="35.264799" lon="-120.700020"><ele>53.5</ele></trkpt>
   <trkpt lat="35.263525" lon="-120.698534"><ele>55.0</ele></trkpt>
   <trkpt lat="35.263485" lon="-120.698374"><ele>54.75</ele></trkpt>
   <trkpt lat="35.263104" lon="-120.698868"><ele>55.25</ele></trkpt>
   <trkpt lat="35.262613" lon="-120.699474"><ele>54.75</ele></trkpt>
   <trkpt lat="35.262119" lon="-120.700086"><ele>56.75</ele></trkpt>
   <trkpt lat="35.262095" lon="-120.700116"><ele>57.5</ele></trkpt>
   <trkpt lat="35.262119" lon="-120.700086"><ele>56.75</ele></trkpt>
   <trkpt lat="35.262613" lon="-120.699474"><ele>54.75</ele></trkpt>
   <trkpt lat="35.263104" lon="-120.698868"><ele>55.25</ele></trkpt>
   <trkpt lat="35.263485" lon="-120.698374"><ele>54.75</ele></trkpt>
   <trkpt lat="35.263043" lon="-120.697851"><ele>53.0</ele></trkpt>
   <trkpt lat="35.262519" lon="-120.697233"><ele>53.5</ele></trkpt>
   <trkpt lat="35.262188" lon="-120.696840"><ele>51.5</ele></trkpt>
   <trkpt lat="35.261921" lon="-120.696523"><ele>49.5</ele></trkpt>
   <trkpt lat="35.260819" lon="-120.695204"><ele>44.5</ele></trkpt>
   <trkpt lat="35.260427" lon="-120.694737"><ele>46.25</ele></trkpt>
   <trkpt lat="35.260039" lon="-120.694272"><ele>47.0</ele></trkpt>
   <trkpt lat="35.259830" lon="-120.694023"><ele>46.75</ele></trkpt>
   <trkpt lat="35.258568" lon="-120.692547"><ele>49.0</ele></trkpt>
   <trkpt lat="35.258197" lon="-120.692111"><ele>49.5</ele></trkpt>
   <trkpt lat="35.258069" lon="-120.691978"><ele>49.25</ele></trkpt>
   <trkpt lat="35.257801" lon="-120.691756"><ele>49.0</ele></trkpt>
   <trkpt lat="35.257483" lon="-120.691492"><ele>48.25</ele></trkpt>
   <trkpt lat="35.257028" lon="-120.691113"><ele>46.5</ele></trkpt>
   <trkpt lat="35.256687" lon="-120.690829"><ele>45.75</ele></trkpt>
   <trkpt lat="35.256597" lon="-120.690754"><ele>45.75</ele></trkpt>
   <trkpt lat="35.256427" lon="-120.690722"><ele>46.0</ele></trkpt>
   <trkpt lat="35.256403" lon="-120.690717"><ele>46.0</ele></trkpt>
   <trkpt lat="35.255522" lon="-120.690090"><ele>44.25</ele></trkpt>
   <trkpt lat="35.254778" lon="-120.689516"><ele>42.75</ele></trkpt>
   <trkpt lat="35.254383" lon="-120.689164"><ele>43.0</ele></trkpt>
   <trkpt lat="35.254248" lon="-120.689055"><ele>42.75</ele></trkpt>
   <trkpt lat="35.253789" lon="-120.688681"><ele>43.0</ele></trkpt>
   <trkpt lat="35.253179" lon="-120.688190"><ele>40.25</ele></trkpt>
   <trkpt lat="35.252970" lon="-120.688012"><ele>39.75</ele></trkpt>
   <trkpt lat="35.252909" lon="-120.688022"><ele>39.75</ele></trkpt>
   <trkpt lat="35.252838" lon="-120.688004"><ele>39.75</ele></trkpt>
   <trkpt lat="35.252802" lon="-120.687982"><ele>39.5</ele></trkpt>
   <trkpt lat="35.252686" lon="-120.687883"><ele>39.75</ele></trkpt>
   <trkpt lat="35.252649" lon="-120.687868"><ele>39.75</ele></trkpt>
   <trkpt lat="35.252590" lon="-120.687851"><ele>39.75</ele></trkpt>
   <trkpt lat="35.252490" lon="-120.687768"><ele>40.0</ele></trkpt>
   <trkpt lat="35.252410" lon="-120.687698"><ele>40.25</ele></trkpt>
   <trkpt lat="35.252399" lon="-120.687670"><ele>40.25</ele></trkpt>
   <trkpt lat="35.252363" lon="-120.687607"><ele>40.5</ele></trkpt>
   <trkpt lat="35.252316" lon="-120.687554"><ele>40.75</ele></trkpt>
   <trkpt lat="35.251902" lon="-120.687185"><ele>41.25</ele></trkpt>
   <trkpt lat="35.251866" lon="-120.687147"><ele>41.25</ele></trkpt>
   <trkpt lat="35.251836" lon="-120.687103"><ele>41.5</ele></trkpt>
   <trkpt lat="35.251796" lon="-120.687019"><ele>41.75</ele></trkpt>
   <trkpt lat="35.251782" lon="-120.686973"><ele>41.75</ele></trkpt>
   <trkpt lat="35.251058" lon="-120.686309"><ele>40.0</ele></trkpt>
   <trkpt lat="35.250805" lon="-120.686077"><ele>40.25</ele></trkpt>
   <trkpt lat="35.250650" lon="-120.685940"><ele>40.25</ele></trkpt>
   <trkpt lat="35.250601" lon="-120.685795"><ele>40.5</ele></trkpt>
   <trkpt lat="35.250430" lon="-120.685637"><ele>40.0</ele></trkpt>
   <trkpt lat="35.249868" lon="-120.685154"><ele>37.75</ele></trkpt>
   <trkpt lat="35.249274" lon="-120.684655"><ele>35.5</ele></trkpt>
   <trkpt lat="35.248902" lon="-120.684360"><ele>36.25</ele></trkpt>
   <trkpt lat="35.248385" lon="-120.683992"><ele>37.0</ele></trkpt>
   <trkpt lat="35.248236" lon="-120.683892"><ele>37.25</ele></trkpt>
   <trkpt lat="35.248026" lon="-120.683759"><ele>37.25</ele></trkpt>
   <trkpt lat="35.247901" lon="-120.683680"><ele>37.25</ele></trkpt>
   <trkpt lat="35.247732" lon="-120.683574"><ele>37.0</ele></trkpt>
   <trkpt lat="35.247430" lon="-120.683409"><ele>36.75</ele></trkpt>
   <trkpt lat="35.246744" lon="-120.683095"><ele>36.25</ele></trkpt>
   <trkpt lat="35.246639" lon="-120.683046"><ele>35.75</ele></trkpt>
   <trkpt lat="35.246558" lon="-120.683011"><ele>35.75</ele></trkpt>
   <trkpt lat="35.246495" lon="-120.682984"><ele>35.75</ele></trkpt>
   <trkpt lat="35.246269" lon="-120.682885"><ele>35.5</ele></trkpt>
   <trkpt lat="35.245921" lon="-120.682759"><ele>36.0</ele></trkpt>
   <trkpt lat="35.245783" lon="-120.682769"><ele>36.25</ele></trkpt>
   <trkpt lat="35.245378" lon="-120.682630"><ele>37.0</ele></trkpt>
   <trkpt lat="35.245091" lon="-120.682513"><ele>36.25</ele></trkpt>
   <trkpt lat="35.244261" lon="-120.682127"><ele>34.5</ele></trkpt>
   <trkpt lat="35.243989" lon="-120.682012"><ele>34.0</ele></trkpt>
   <trkpt lat="35.243827" lon="-120.681952"><ele>34.0</ele></trkpt>
   <trkpt lat="35.243655" lon="-120.681866"><ele>34.25</ele></trkpt>
   <trkpt lat="35.243476" lon="-120.681749"><ele>34.5</ele></trkpt>
   <trkpt lat="35.243391" lon="-120.681626"><ele>35.0</ele></trkpt>
   <trkpt lat="35.243250" lon="-120.681492"><ele>35.5</ele></trkpt>
   <trkpt lat="35.242896" lon="-120.681056"><ele>37.5</ele></trkpt>
   <trkpt lat="35.242777" lon="-120.680845"><ele>38.5</ele></trkpt>
   <trkpt lat="35.242682" lon="-120.680623"><ele>38.5</ele></trkpt>
   <trkpt lat="35.242577" lon="-120.680305"><ele>38.25</ele></trkpt>
   <trkpt lat="35.242497" lon="-120.679935"><ele>38.0</ele></trkpt>
   <trkpt lat="35.242426" lon="-120.679430"><ele>38.0</ele></trkpt>
   <trkpt lat="35.242398" lon="-120.678898"><ele>38.0</ele></trkpt>
   <trkpt lat="35.242346" lon="-120.678752"><ele>38.25</ele></trkpt>
   <trkpt lat="35.242320" lon="-120.678170"><ele>38.25</ele></trkpt>
   <trkpt lat="35.242306" lon="-120.677798"><ele>38.0</ele></trkpt>
   <trkpt lat="35.242278" lon="-120.677538"><ele>38.0</ele></trkpt>
   <trkpt lat="35.242242" lon="-120.677356"><ele>38.25</ele></trkpt>
   <trkpt lat="35.242180" lon="-120.677152"><ele>38.25</ele></trkpt>
   <trkpt lat="35.242087" lon="-120.676940"><ele>38.5</ele></trkpt>
   <trkpt lat="35.242008" lon="-120.676782"><ele>38.5</ele></trkpt>
   <trkpt lat="35.242004" lon="-120.676636"><ele>38.5</ele></trkpt>
   <trkpt lat="35.242201" lon="-120.676492"><ele>38.25</ele></trkpt>
   <trkpt lat="35.242281" lon="-120.676434"><ele>38.25</ele></trkpt>
   <trkpt lat="35.242898" lon="-120.676003"><ele>38.75</ele></trkpt>
   <trkpt lat="35.243165" lon="-120.675825"><ele>39.5</ele></trkpt>
   <trkpt lat="35.243603" lon="-120.675571"><ele>40.0</ele></trkpt>
   <trkpt lat="35.243993" lon="-120.675341"><ele>40.25</ele></trkpt>
   <trkpt lat="35.243998" lon="-120.674281"><ele>39.75</ele></trkpt>
   <trkpt lat="35.244000" lon="-120.673681"><ele>39.25</ele></trkpt>
   <trkpt lat="35.244003" lon="-120.673018"><ele>39.5</ele></trkpt>
   <trkpt lat="35.244004" lon="-120.672814"><ele>39.75</ele></trkpt>
   <trkpt lat="35.244005" lon="-120.672589"><ele>40.0</ele></trkpt>
   <trkpt lat="35.244007" lon="-120.672256"><ele>40.25</ele></trkpt>
   <trkpt lat="35.244009" lon="-120.672004"><ele>40.25</ele></trkpt>
   <trkpt lat="35.244015" lon="-120.671138"><ele>40.75</ele></trkpt>
   <trkpt lat="35.244014" lon="-120.670749"><ele>40.75</ele></trkpt>
   <trkpt lat="35.243919" lon="-120.670748"><ele>40.75</ele></trkpt>
   <trkpt lat="35.243177" lon="-120.670737"><ele>40.25</ele></trkpt>
   <trkpt lat="35.243054" lon="-120.670696"><ele>39.75</ele></trkpt>
   <trkpt lat="35.243054" lon="-120.670510"><ele>39.5</ele></trkpt>
   <trkpt lat="35.243054" lon="-120.670696"><ele>39.75</ele></trkpt>
   <trkpt lat="35.243022" lon="-120.670687"><ele>39.75</ele></trkpt>
   <trkpt lat="35.242851" lon="-120.670574"><ele>39.25</ele></trkpt>
   <trkpt lat="35.242700" lon="-120.670511"><ele>38.75</ele></trkpt>
   <trkpt lat="35.240061" lon="-120.670478"><ele>36.0</ele></trkpt>
   <trkpt lat="35.239996" lon="-120.670474"><ele>35.75</ele></trkpt>
   <trkpt lat="35.239924" lon="-120.670476"><ele>35.75</ele></trkpt>
   <trkpt lat="35.239787" lon="-120.670474"><ele>35.5</ele></trkpt>
   <trkpt lat="35.239703" lon="-120.670505"><ele>35.25</ele></trkpt>
   <trkpt lat="35.239655" lon="-120.670502"><ele>35.25</ele></trkpt>
   <trkpt lat="35.239601" lon="-120.670499"><ele>35.0</ele></trkpt>
   <trkpt lat="35.239519" lon="-120.670532"><ele>35.0</ele></trkpt>
   <trkpt lat="35.239482" lon="-120.670576"><ele>34.75</ele></trkpt>
   <trkpt lat="35.239447" lon="-120.670593"><ele>34.75</ele></trkpt>
   <trkpt lat="35.239409" lon="-120.670595"><ele>34.75</ele></trkpt>
   <trkpt lat="35.239374" lon="-120.670580"><ele>34.5</ele></trkpt>
   <trkpt lat="35.239344" lon="-120.670552"><ele>34.5</ele></trkpt>
   <trkpt lat="35.239269" lon="-120.670523"><ele>34.5</ele></trkpt>
   <trkpt lat="35.239194" lon="-120.670530"><ele>34.25</ele></trkpt>
   <trkpt lat="35.239067" lon="-120.670538"><ele>34.25</ele></trkpt>
   <trkpt lat="35.238963" lon="-120.670602"><ele>34.5</ele></trkpt>
   <trkpt lat="35.238871" lon="-120.670695"><ele>34.5</ele></trkpt>
   <trkpt lat="35.238807" lon="-120.670798"><ele>34.25</ele></trkpt>
   <trkpt lat="35.238714" lon="-120.670924"><ele>34.25</ele></trkpt>
   <trkpt lat="35.238661" lon="-120.671012"><ele>34.25</ele></trkpt>
   <trkpt lat="35.238589" lon="-120.671102"><ele>34.0</ele></trkpt>
   <trkpt lat="35.238508" lon="-120.671178"><ele>34.0</ele></trkpt>
   <trkpt lat="35.238416" lon="-120.671232"><ele>34.0</ele></trkpt>
   <trkpt lat="35.238308" lon="-120.671275"><ele>33.75</ele></trkpt>
   <trkpt lat="35.238207" lon="-120.671297"><ele>34.0</ele></trkpt>
   <trkpt lat="35.237953" lon="-120.671291"><ele>34.5</ele></trkpt>
   <trkpt lat="35.237770" lon="-120.671286"><ele>34.75</ele></trkpt>
   <trkpt lat="35.237661" lon="-120.671297"><ele>35.0</ele></trkpt>
   <trkpt lat="35.237552" lon="-120.671320"><ele>35.25</ele></trkpt>
   <trkpt lat="35.237446" lon="-120.671356"><ele>35.25</ele></trkpt>
   <trkpt lat="35.237337" lon="-120.671419"><ele>35.25</ele></trkpt>
   <trkpt lat="35.237309" lon="-120.671441"><ele>35.25</ele></trkpt>
   <trkpt lat="35.237239" lon="-120.671497"><ele>35.0</ele></trkpt>
   <trkpt lat="35.237129" lon="-120.671646"><ele>35.0</ele></trkpt>
   <trkpt lat="35.237071" lon="-120.671753"><ele>34.5</ele></trkpt>
   <trkpt lat="35.237057" lon="-120.671797"><ele>34.5</ele></trkpt>
   <trkpt lat="35.237030" lon="-120.671884"><ele>34.25</ele></trkpt>
   <trkpt lat="35.237009" lon="-120.671998"><ele>33.75</ele></trkpt>
   <trkpt lat="35.237008" lon="-120.672165"><ele>33.25</ele></trkpt>
   <trkpt lat="35.237002" lon="-120.673283"><ele>32.0</ele></trkpt>
   <trkpt lat="35.236996" lon="-120.674727"><ele>33.5</ele></trkpt>
   <trkpt lat="35.236994" lon="-120.675196"><ele>34.75</ele></trkpt>
   <trkpt lat="35.236992" lon="-120.675735"><ele>36.75</ele></trkpt>
   <trkpt lat="35.236011" lon="-120.675719"><ele>34.0</ele></trkpt>
   <trkpt lat="35.235913" lon="-120.675724"><ele>33.75</ele></trkpt>
   <trkpt lat="35.235793" lon="-120.675734"><ele>33.75</ele></trkpt>
   <trkpt lat="35.235727" lon="-120.675122"><ele>32.25</ele></trkpt>
   <trkpt lat="35.235703" lon="-120.674787"><ele>32.0</ele></trkpt>
   <trkpt lat="35.235698" lon="-120.674676"><ele>32.0</ele></trkpt>
   <trkpt lat="35.235688" lon="-120.674097"><ele>32.25</ele></trkpt>
   <trkpt lat="35.235686" lon="-120.673533"><ele>31.75</ele></trkpt>
   <trkpt lat="35.235726" lon="-120.672788"><ele>32.0</ele></trkpt>
   <trkpt lat="35.235749" lon="-120.672521"><ele>32.0</ele></trkpt>
   <trkpt lat="35.235755" lon="-120.672331"><ele>32.0</ele></trkpt>
   <trkpt lat="35.235773" lon="-120.669318"><ele>33.0</ele></trkpt>
   <trkpt lat="35.235767" lon="-120.666919"><ele>36.25</ele></trkpt>
   <trkpt lat="35.235784" lon="-120.663071"><ele>38.75</ele></trkpt>
   <trkpt lat="35.235789" lon="-120.660241"><ele>40.0</ele></trkpt>
   <trkpt lat="35.235804" lon="-120.658271"><ele>39.0</ele></trkpt>
   <trkpt lat="35.235807" lon="-120.657994"><ele>39.25</ele></trkpt>
   <trkpt lat="35.235808" lon="-120.657857"><ele>39.5</ele></trkpt>
   <trkpt lat="35.235803" lon="-120.657077"><ele>40.75</ele></trkpt>
   <trkpt lat="35.235812" lon="-120.655725"><ele>41.0</ele></trkpt>
   <trkpt lat="35.235833" lon="-120.654282"><ele>42.75</ele></trkpt>
   <trkpt lat="35.235833" lon="-120.652968"><ele>46.25</ele></trkpt>
   <trkpt lat="35.235818" lon="-120.652350"><ele>47.0</ele></trkpt>
   <trkpt lat="35.235823" lon="-120.651677"><ele>48.75</ele></trkpt>
   <trkpt lat="35.235823" lon="-120.650413"><ele>48.25</ele></trkpt>
   <trkpt lat="35.235831" lon="-120.649086"><ele>51.0</ele></trkpt>
   <trkpt lat="35.235830" lon="-120.647444"><ele>49.75</ele></trkpt>
   <trkpt lat="35.235841" lon="-120.645757"><ele>52.25</ele></trkpt>
   <trkpt lat="35.235846" lon="-120.644830"><ele>55.75</ele></trkpt>
   <trkpt lat="35.235848" lon="-120.643383"><ele>55.0</ele></trkpt>
   <trkpt lat="35.235851" lon="-120.642010"><ele>56.75</ele></trkpt>
   <trkpt lat="35.235866" lon="-120.641404"><ele>57.0</ele></trkpt>
   <trkpt lat="35.235855" lon="-120.641138"><ele>58.25</ele></trkpt>
   <trkpt lat="35.235773" lon="-120.640666"><ele>59.75</ele></trkpt>
   <trkpt lat="35.235680" lon="-120.640342"><ele>59.5</ele></trkpt>
   <trkpt lat="35.235659" lon="-120.640292"><ele>59.5</ele></trkpt>
   <trkpt lat="35.235598" lon="-120.640165"><ele>59.5</ele></trkpt>
   <trkpt lat="35.235461" lon="-120.639897"><ele>59.75</ele></trkpt>
   <trkpt lat="35.235031" lon="-120.639133"><ele>62.0</ele></trkpt>
   <trkpt lat="35.234462" lon="-120.638143"><ele>59.5</ele></trkpt>
   <trkpt lat="35.233613" lon="-120.636650"><ele>58.5</ele></trkpt>
   <trkpt lat="35.233332" lon="-120.636148"><ele>59.75</ele></trkpt>
   <trkpt lat="35.231321" lon="-120.632629"><ele>63.0</ele></trkpt>
   <trkpt lat="35.231050" lon="-120.632143"><ele>64.75</ele></trkpt>
   <trkpt lat="35.230895" lon="-120.631829"><ele>66.25</ele></trkpt>
   <trkpt lat="35.230827" lon="-120.631636"><ele>67.0</ele></trkpt>
   <trkpt lat="35.230798" lon="-120.631554"><ele>67.75</ele></trkpt>
   <trkpt lat="35.230735" lon="-120.631297"><ele>69.25</ele></trkpt>
   <trkpt lat="35.230704" lon="-120.631121"><ele>70.0</ele></trkpt>
   <trkpt lat="35.230684" lon="-120.630879"><ele>71.0</ele></trkpt>
   <trkpt lat="35.230683" lon="-120.630673"><ele>71.0</ele></trkpt>
   <trkpt lat="35.230690" lon="-120.630481"><ele>70.5</ele></trkpt>
   <trkpt lat="35.230707" lon="-120.630282"><ele>70.0</ele></trkpt>
   <trkpt lat="35.230830" lon="-120.629723"><ele>69.25</ele></trkpt>
   <trkpt lat="35.229388" lon="-120.628974"><ele>74.5</ele></trkpt>
   <trkpt lat="35.228914" lon="-120.628714"><ele>76.0</ele></trkpt>
   <trkpt lat="35.227443" lon="-120.627780"><ele>72.75</ele></trkpt>
   <trkpt lat="35.226474" lon="-120.627138"><ele>72.25</ele></trkpt>
   <trkpt lat="35.226320" lon="-120.627039"><ele>71.75</ele></trkpt>
   <trkpt lat="35.225933" lon="-120.626794"><ele>70.25</ele></trkpt>
   <trkpt lat="35.225216" lon="-120.626322"><ele>68.75</ele></trkpt>
   <trkpt lat="35.225071" lon="-120.626228"><ele>68.5</ele></trkpt>
   <trkpt lat="35.224911" lon="-120.626112"><ele>68.5</ele></trkpt>
   <trkpt lat="35.224653" lon="-120.625912"><ele>69.0</ele></trkpt>
   <trkpt lat="35.224469" lon="-120.625760"><ele>69.75</ele></trkpt>
   <trkpt lat="35.224392" lon="-120.625696"><ele>70.0</ele></trkpt>
   <trkpt lat="35.224196" lon="-120.625529"><ele>70.5</ele></trkpt>
   <trkpt lat="35.224089" lon="-120.625437"><ele>70.75</ele></trkpt>
   <trkpt lat="35.223980" lon="-120.625315"><ele>71.0</ele></trkpt>
   <trkpt lat="35.223847" lon="-120.625194"><ele>71.0</ele></trkpt>
   <trkpt lat="35.223422" lon="-120.624715"><ele>71.0</ele></trkpt>
   <trkpt lat="35.223079" lon="-120.624281"><ele>70.25</ele></trkpt>
   <trkpt lat="35.222888" lon="-120.624009"><ele>69.75</ele></trkpt>
   <trkpt lat="35.222477" lon="-120.623372"><ele>69.75</ele></trkpt>
   <trkpt lat="35.222338" lon="-120.623127"><ele>70.5</ele></trkpt>
   <trkpt lat="35.221016" lon="-120.620599"><ele>76.0</ele></trkpt>
   <trkpt lat="35.220866" lon="-120.620339"><ele>76.5</ele></trkpt>
   <trkpt lat="35.220471" lon="-120.619735"><ele>78.25</ele></trkpt>
   <trkpt lat="35.220113" lon="-120.619253"><ele>80.25</ele></trkpt>
   <trkpt lat="35.219717" lon="-120.618790"><ele>79.5</ele></trkpt>
   <trkpt lat="35.219348" lon="-120.618411"><ele>78.5</ele></trkpt>
   <trkpt lat="35.219266" lon="-120.618335"><ele>78.25</ele></trkpt>
   <trkpt lat="35.219087" lon="-120.618177"><ele>78.5</ele></trkpt>
   <trkpt lat="35.218694" lon="-120.617848"><ele>78.75</ele></trkpt>
   <trkpt lat="35.218166" lon="-120.617482"><ele>77.75</ele></trkpt>
   <trkpt lat="35.217759" lon="-120.617234"><ele>77.25</ele></trkpt>
   <trkpt lat="35.217606" lon="-120.617141"><ele>77.0</ele></trkpt>
   <trkpt lat="35.217275" lon="-120.616974"><ele>77.5</ele></trkpt>
   <trkpt lat="35.216867" lon="-120.616786"><ele>78.5</ele></trkpt>
   <trkpt lat="35.216446" lon="-120.616623"><ele>78.75</ele></trkpt>
   <trkpt lat="35.216038" lon="-120.616490"><ele>78.75</ele></trkpt>
   <trkpt lat="35.215513" lon="-120.616362"><ele>78.5</ele></trkpt>
   <trkpt lat="35.214904" lon="-120.616272"><ele>77.75</ele></trkpt>
   <trkpt lat="35.212617" lon="-120.616136"><ele>79.0</ele></trkpt>
   <trkpt lat="35.211698" lon="-120.616071"><ele>77.5</ele></trkpt>
   <trkpt lat="35.210761" lon="-120.615999"><ele>80.25</ele></trkpt>
   <trkpt lat="35.210249" lon="-120.615917"><ele>78.0</ele></trkpt>
   <trkpt lat="35.209597" lon="-120.615764"><ele>76.5</ele></trkpt>
   <trkpt lat="35.209184" lon="-120.615619"><ele>76.0</ele></trkpt>
   <trkpt lat="35.208818" lon="-120.615481"><ele>75.75</ele></trkpt>
   <trkpt lat="35.208386" lon="-120.615271"><ele>75.5</ele></trkpt>
   <trkpt lat="35.208217" lon="-120.615188"><ele>75.75</ele></trkpt>
   <trkpt lat="35.207787" lon="-120.614978"><ele>76.0</ele></trkpt>
   <trkpt lat="35.207252" lon="-120.614698"><ele>75.5</ele></trkpt>
   <trkpt lat="35.206429" lon="-120.614287"><ele>74.75</ele></trkpt>
   <trkpt lat="35.205800" lon="-120.613969"><ele>73.25</ele></trkpt>
   <trkpt lat="35.205641" lon="-120.613889"><ele>73.75</ele></trkpt>
   <trkpt lat="35.205390" lon="-120.613764"><ele>74.5</ele></trkpt>
   <trkpt lat="35.205167" lon="-120.613652"><ele>75.0</ele></trkpt>
   <trkpt lat="35.204996" lon="-120.613567"><ele>75.25</ele></trkpt>
   <trkpt lat="35.204629" lon="-120.613386"><ele>74.75</ele></trkpt>
   <trkpt lat="35.204440" lon="-120.613283"><ele>75.0</ele></trkpt>
   <trkpt lat="35.204070" lon="-120.613082"><ele>75.0</ele></trkpt>
   <trkpt lat="35.203704" lon="-120.612863"><ele>74.25</ele></trkpt>
   <trkpt lat="35.203647" lon="-120.612820"><ele>74.25</ele></trkpt>
   <trkpt lat="35.203291" lon="-120.612551"><ele>73.75</ele></trkpt>
   <trkpt lat="35.203274" lon="-120.612538"><ele>74.0</ele></trkpt>
   <trkpt lat="35.203222" lon="-120.612499"><ele>74.0</ele></trkpt>
   <trkpt lat="35.202839" lon="-120.612150"><ele>73.75</ele></trkpt>
   <trkpt lat="35.202604" lon="-120.611899"><ele>73.5</ele></trkpt>
   <trkpt lat="35.202517" lon="-120.611810"><ele>73.25</ele></trkpt>
   <trkpt lat="35.202356" lon="-120.611624"><ele>73.0</ele></trkpt>
   <trkpt lat="35.202179" lon="-120.611392"><ele>73.0</ele></trkpt>
   <trkpt lat="35.202024" lon="-120.611188"><ele>73.0</ele></trkpt>
   <trkpt lat="35.201839" lon="-120.610917"><ele>73.0</ele></trkpt>
   <trkpt lat="35.201762" lon="-120.610782"><ele>73.0</ele></trkpt>
   <trkpt lat="35.201673" lon="-120.610625"><ele>72.75</ele></trkpt>
   <trkpt lat="35.201417" lon="-120.610175"><ele>71.5</ele></trkpt>
   <trkpt lat="35.200689" lon="-120.608894"><ele>73.5</ele></trkpt>
   <trkpt lat="35.200431" lon="-120.608416"><ele>73.25</ele></trkpt>
   <trkpt lat="35.199808" lon="-120.607259"><ele>70.75</ele></trkpt>
   <trkpt lat="35.199120" lon="-120.605980"><ele>71.25</ele></trkpt>
   <trkpt lat="35.198973" lon="-120.605681"><ele>71.75</ele></trkpt>
   <trkpt lat="35.198550" lon="-120.604803"><ele>72.0</ele></trkpt>
   <trkpt lat="35.198398" lon="-120.604928"><ele>72.0</ele></trkpt>
   <trkpt lat="35.198345" lon="-120.604990"><ele>72.0</ele></trkpt>
   <trkpt lat="35.198249" lon="-120.604966"><ele>73.75</ele></trkpt>
   <trkpt lat="35.198345" lon="-120.604990"><ele>72.0</ele></trkpt>
   <trkpt lat="35.198398" lon="-120.604928"><ele>72.0</ele></trkpt>
   <trkpt lat="35.198550" lon="-120.604803"><ele>72.0</ele></trkpt>
   <trkpt lat="35.198973" lon="-120.605681"><ele>71.75</ele></trkpt>
   <trkpt lat="35.199120" lon="-120.605980"><ele>71.25</ele></trkpt>
   <trkpt lat="35.199808" lon="-120.607259"><ele>70.75</ele></trkpt>
   <trkpt lat="35.200431" lon="-120.608416"><ele>73.25</ele></trkpt>
   <trkpt lat="35.200689" lon="-120.608894"><ele>73.5</ele></trkpt>
   <trkpt lat="35.200452" lon="-120.609039"><ele>72.75</ele></trkpt>
   <trkpt lat="35.199752" lon="-120.609582"><ele>70.0</ele></trkpt>
   <trkpt lat="35.199112" lon="-120.610086"><ele>68.75</ele></trkpt>
   <trkpt lat="35.198492" lon="-120.610609"><ele>69.25</ele></trkpt>
   <trkpt lat="35.198127" lon="-120.610894"><ele>68.75</ele></trkpt>
   <trkpt lat="35.197969" lon="-120.611023"><ele>67.5</ele></trkpt>
   <trkpt lat="35.197386" lon="-120.611483"><ele>65.25</ele></trkpt>
   <trkpt lat="35.196799" lon="-120.611934"><ele>66.75</ele></trkpt>
   <trkpt lat="35.196424" lon="-120.612229"><ele>68.25</ele></trkpt>
   <trkpt lat="35.195288" lon="-120.613078"><ele>66.75</ele></trkpt>
   <trkpt lat="35.195095" lon="-120.613221"><ele>65.5</ele></trkpt>
   <trkpt lat="35.194810" lon="-120.613441"><ele>66.0</ele></trkpt>
   <trkpt lat="35.194129" lon="-120.613927"><ele>68.75</ele></trkpt>
   <trkpt lat="35.193560" lon="-120.614287"><ele>67.75</ele></trkpt>
   <trkpt lat="35.189815" lon="-120.616546"><ele>78.5</ele></trkpt>
   <trkpt lat="35.188426" lon="-120.617401"><ele>68.0</ele></trkpt>
   <trkpt lat="35.187169" lon="-120.618156"><ele>68.5</ele></trkpt>
   <trkpt lat="35.186367" lon="-120.618639"><ele>65.75</ele></trkpt>
   <trkpt lat="35.186191" lon="-120.618734"><ele>64.0</ele></trkpt>
   <trkpt lat="35.185903" lon="-120.618858"><ele>59.75</ele></trkpt>
   <trkpt lat="35.185518" lon="-120.619007"><ele>58.25</ele></trkpt>
   <trkpt lat="35.185164" lon="-120.619099"><ele>57.25</ele></trkpt>
   <trkpt lat="35.184802" lon="-120.619162"><ele>57.25</ele></trkpt>
   <trkpt lat="35.184582" lon="-120.619201"><ele>58.25</ele></trkpt>
   <trkpt lat="35.181876" lon="-120.619546"><ele>55.5</ele></trkpt>
   <trkpt lat="35.180667" lon="-120.619711"><ele>54.0</ele></trkpt>
   <trkpt lat="35.180409" lon="-120.619768"><ele>53.0</ele></trkpt>
   <trkpt lat="35.180066" lon="-120.619864"><ele>51.5</ele></trkpt>
   <trkpt lat="35.179681" lon="-120.620012"><ele>50.75</ele></trkpt>
   <trkpt lat="35.179344" lon="-120.620168"><ele>49.0</ele></trkpt>
   <trkpt lat="35.179007" lon="-120.620363"><ele>47.5</ele></trkpt>
   <trkpt lat="35.178226" lon="-120.620872"><ele>43.75</ele></trkpt>
   <trkpt lat="35.178173" lon="-120.620907"><ele>43.5</ele></trkpt>
   <trkpt lat="35.177912" lon="-120.621076"><ele>43.25</ele></trkpt>
   <trkpt lat="35.177505" lon="-120.621322"><ele>42.75</ele></trkpt>
   <trkpt lat="35.177159" lon="-120.621481"><ele>41.0</ele></trkpt>
   <trkpt lat="35.176904" lon="-120.621583"><ele>39.5</ele></trkpt>
   <trkpt lat="35.175479" lon="-120.622020"><ele>38.75</ele></trkpt>
   <trkpt lat="35.175068" lon="-120.622155"><ele>38.75</ele></trkpt>
   <trkpt lat="35.174904" lon="-120.622233"><ele>39.0</ele></trkpt>
   <trkpt lat="35.174651" lon="-120.622379"><ele>39.5</ele></trkpt>
   <trkpt lat="35.174278" lon="-120.622638"><ele>40.25</ele></trkpt>
   <trkpt lat="35.173909" lon="-120.622957"><ele>39.5</ele></trkpt>
   <trkpt lat="35.173355" lon="-120.623471"><ele>37.25</ele></trkpt>
   <trkpt lat="35.172983" lon="-120.623771"><ele>36.0</ele></trkpt>
   <trkpt lat="35.172796" lon="-120.623903"><ele>35.25</ele></trkpt>
   <trkpt lat="35.172437" lon="-120.624119"><ele>33.75</ele></trkpt>
   <trkpt lat="35.170084" lon="-120.625249"><ele>29.75</ele></trkpt>
   <trkpt lat="35.169979" lon="-120.625307"><ele>29.25</ele></trkpt>
   <trkpt lat="35.169761" lon="-120.625448"><ele>29.75</ele></trkpt>
   <trkpt lat="35.169541" lon="-120.625615"><ele>30.25</ele></trkpt>
   <trkpt lat="35.169378" lon="-120.625763"><ele>30.75</ele></trkpt>
   <trkpt lat="35.169159" lon="-120.625999"><ele>31.5</ele></trkpt>
   <trkpt lat="35.169031" lon="-120.626155"><ele>31.5</ele></trkpt>
   <trkpt lat="35.168860" lon="-120.626401"><ele>31.25</ele></trkpt>
   <trkpt lat="35.168468" lon="-120.627081"><ele>29.5</ele></trkpt>
   <trkpt lat="35.168400" lon="-120.627183"><ele>28.75</ele></trkpt>
   <trkpt lat="35.168235" lon="-120.627465"><ele>27.75</ele></trkpt>
   <trkpt lat="35.168046" lon="-120.627739"><ele>27.75</ele></trkpt>
   <trkpt lat="35.167802" lon="-120.628024"><ele>27.75</ele></trkpt>
   <trkpt lat="35.167534" lon="-120.628284"><ele>27.75</ele></trkpt>
   <trkpt lat="35.167458" lon="-120.628344"><ele>27.75</ele></trkpt>
   <trkpt lat="35.166772" lon="-120.628827"><ele>25.75</ele></trkpt>
   <trkpt lat="35.166562" lon="-120.628986"><ele>25.5</ele></trkpt>
   <trkpt lat="35.166448" lon="-120.629084"><ele>25.5</ele></trkpt>
   <trkpt lat="35.166260" lon="-120.629265"><ele>25.5</ele></trkpt>
   <trkpt lat="35.166039" lon="-120.629513"><ele>25.25</ele></trkpt>
   <trkpt lat="35.165946" lon="-120.629640"><ele>25.0</ele></trkpt>
   <trkpt lat="35.165713" lon="-120.630013"><ele>25.0</ele></trkpt>
   <trkpt lat="35.165600" lon="-120.630236"><ele>25.25</ele></trkpt>
   <trkpt lat="35.165510" lon="-120.630482"><ele>25.5</ele></trkpt>
   <trkpt lat="35.165399" lon="-120.630905"><ele>26.25</ele></trkpt>
   <trkpt lat="35.165081" lon="-120.632598"><ele>27.5</ele></trkpt>
   <trkpt lat="35.165001" lon="-120.633111"><ele>27.0</ele></trkpt>
   <trkpt lat="35.164939" lon="-120.633411"><ele>27.0</ele></trkpt>
   <trkpt lat="35.164875" lon="-120.633625"><ele>28.0</ele></trkpt>
   <trkpt lat="35.164751" lon="-120.633936"><ele>28.5</ele></trkpt>
   <trkpt lat="35.164612" lon="-120.634204"><ele>28.25</ele></trkpt>
   <trkpt lat="35.164451" lon="-120.634441"><ele>27.75</ele></trkpt>
   <trkpt lat="35.164267" lon="-120.634649"><ele>27.0</ele></trkpt>
   <trkpt lat="35.164230" lon="-120.634690"><ele>27.0</ele></trkpt>
   <trkpt lat="35.164015" lon="-120.634868"><ele>27.0</ele></trkpt>
   <trkpt lat="35.163804" lon="-120.635014"><ele>27.75</ele></trkpt>
   <trkpt lat="35.163563" lon="-120.635143"><ele>30.75</ele></trkpt>
   <trkpt lat="35.163387" lon="-120.635207"><ele>32.0</ele></trkpt>
   <trkpt lat="35.163153" lon="-120.635257"><ele>32.75</ele></trkpt>
   <trkpt lat="35.162781" lon="-120.635282"><ele>33.0</ele></trkpt>
   <trkpt lat="35.162487" lon="-120.635253"><ele>32.25</ele></trkpt>
   <trkpt lat="35.162228" lon="-120.635179"><ele>35.75</ele></trkpt>
   <trkpt lat="35.162081" lon="-120.635114"><ele>37.0</ele></trkpt>
   <trkpt lat="35.161876" lon="-120.635006"><ele>38.0</ele></trkpt>
   <trkpt lat="35.161680" lon="-120.634878"><ele>39.25</ele></trkpt>
   <trkpt lat="35.161579" lon="-120.634794"><ele>40.75</ele></trkpt>
   <trkpt lat="35.161440" lon="-120.634662"><ele>43.0</ele></trkpt>
   <trkpt lat="35.161260" lon="-120.634464"><ele>44.5</ele></trkpt>
   <trkpt lat="35.161108" lon="-120.634253"><ele>44.0</ele></trkpt>
   <trkpt lat="35.160955" lon="-120.633985"><ele>42.5</ele></trkpt>
   <trkpt lat="35.160676" lon="-120.633406"><ele>35.0</ele></trkpt>
   <trkpt lat="35.160517" lon="-120.633103"><ele>35.25</ele></trkpt>
   <trkpt lat="35.160379" lon="-120.632871"><ele>36.25</ele></trkpt>
   <trkpt lat="35.160293" lon="-120.632748"><ele>37.0</ele></trkpt>
   <trkpt lat="35.159970" lon="-120.632351"><ele>38.5</ele></trkpt>
   <trkpt lat="35.159799" lon="-120.632173"><ele>41.0</ele></trkpt>
   <trkpt lat="35.159578" lon="-120.631990"><ele>42.25</ele></trkpt>
   <trkpt lat="35.159246" lon="-120.631758"><ele>40.25</ele></trkpt>
   <trkpt lat="35.158872" lon="-120.631565"><ele>37.5</ele></trkpt>
   <trkpt lat="35.158563" lon="-120.631455"><ele>37.5</ele></trkpt>
   <trkpt lat="35.158384" lon="-120.631413"><ele>37.5</ele></trkpt>
   <trkpt lat="35.158041" lon="-120.631364"><ele>36.5</ele></trkpt>
   <trkpt lat="35.156738" lon="-120.631299"><ele>34.75</ele></trkpt>
   <trkpt lat="35.156011" lon="-120.631247"><ele>29.5</ele></trkpt>
   <trkpt lat="35.155356" lon="-120.631219"><ele>28.75</ele></trkpt>
   <trkpt lat="35.154819" lon="-120.631185"><ele>29.0</ele></trkpt>
   <trkpt lat="35.154450" lon="-120.631174"><ele>29.0</ele></trkpt>
   <trkpt lat="35.154216" lon="-120.631198"><ele>29.75</ele></trkpt>
   <trkpt lat="35.154030" lon="-120.631250"><ele>29.75</ele></trkpt>
   <trkpt lat="35.153752" lon="-120.631369"><ele>29.5</ele></trkpt>
   <trkpt lat="35.153520" lon="-120.631498"><ele>29.0</ele></trkpt>
   <trkpt lat="35.153107" lon="-120.631840"><ele>28.25</ele></trkpt>
   <trkpt lat="35.152323" lon="-120.632780"><ele>27.5</ele></trkpt>
   <trkpt lat="35.152061" lon="-120.633060"><ele>29.0</ele></trkpt>
   <trkpt lat="35.151923" lon="-120.633208"><ele>29.25</ele></trkpt>
   <trkpt lat="35.151614" lon="-120.633497"><ele>31.0</ele></trkpt>
   <trkpt lat="35.151366" lon="-120.633688"><ele>32.75</ele></trkpt>
   <trkpt lat="35.151074" lon="-120.633889"><ele>33.25</ele></trkpt>
   <trkpt lat="35.150618" lon="-120.634150"><ele>32.0</ele></trkpt>
   <trkpt lat="35.150294" lon="-120.634299"><ele>32.5</ele></trkpt>
   <trkpt lat="35.149803" lon="-120.634473"><ele>32.75</ele></trkpt>
   <trkpt lat="35.148647" lon="-120.634903"><ele>33.0</ele></trkpt>
   <trkpt lat="35.148290" lon="-120.635008"><ele>31.75</ele></trkpt>
   <trkpt lat="35.148162" lon="-120.635045"><ele>31.5</ele></trkpt>
   <trkpt lat="35.147679" lon="-120.635153"><ele>30.25</ele></trkpt>
   <trkpt lat="35.147228" lon="-120.635209"><ele>30.75</ele></trkpt>
   <trkpt lat="35.146288" lon="-120.635312"><ele>33.5</ele></trkpt>
   <trkpt lat="35.146094" lon="-120.635345"><ele>34.0</ele></trkpt>
   <trkpt lat="35.145373" lon="-120.635471"><ele>34.75</ele></trkpt>
   <trkpt lat="35.144793" lon="-120.635645"><ele>37.0</ele></trkpt>
   <trkpt lat="35.144338" lon="-120.635799"><ele>38.75</ele></trkpt>
   <trkpt lat="35.143827" lon="-120.636029"><ele>38.0</ele></trkpt>
   <trkpt lat="35.143468" lon="-120.636240"><ele>36.5</ele></trkpt>
   <trkpt lat="35.143015" lon="-120.636624"><ele>35.0</ele></trkpt>
   <trkpt lat="35.142696" lon="-120.636970"><ele>36.25</ele></trkpt>
   <trkpt lat="35.142590" lon="-120.637101"><ele>36.5</ele></trkpt>
   <trkpt lat="35.142230" lon="-120.637578"><ele>34.5</ele></trkpt>
   <trkpt lat="35.141982" lon="-120.637928"><ele>30.0</ele></trkpt>
   <trkpt lat="35.141776" lon="-120.638196"><ele>26.5</ele></trkpt>
   <trkpt lat="35.141625" lon="-120.638394"><ele>24.5</ele></trkpt>
   <trkpt lat="35.141251" lon="-120.638879"><ele>22.0</ele></trkpt>
   <trkpt lat="35.141184" lon="-120.638963"><ele>21.75</ele></trkpt>
   <trkpt lat="35.140995" lon="-120.639207"><ele>21.25</ele></trkpt>
   <trkpt lat="35.141406" lon="-120.639666"><ele>21.25</ele></trkpt>
   <trkpt lat="35.141696" lon="-120.639990"><ele>21.0</ele></trkpt>
   <trkpt lat="35.141787" lon="-120.640012"><ele>21.25</ele></trkpt>
   <trkpt lat="35.142139" lon="-120.640410"><ele>21.0</ele></trkpt>
   <trkpt lat="35.142299" lon="-120.640592"><ele>21.0</ele></trkpt>
   <trkpt lat="35.142350" lon="-120.640650"><ele>21.0</ele></trkpt>
   <trkpt lat="35.142271" lon="-120.640745"><ele>20.5</ele></trkpt>
   <trkpt lat="35.142249" lon="-120.640772"><ele>20.5</ele></trkpt>
   <trkpt lat="35.142204" lon="-120.640724"><ele>20.5</ele></trkpt>
   <trkpt lat="35.142008" lon="-120.640506"><ele>20.5</ele></trkpt>
   <trkpt lat="35.142204" lon="-120.640724"><ele>20.5</ele></trkpt>
   <trkpt lat="35.142249" lon="-120.640772"><ele>20.5</ele></trkpt>
   <trkpt lat="35.142240" lon="-120.640784"><ele>20.25</ele></trkpt>
   <trkpt lat="35.142016" lon="-120.641050"><ele>19.0</ele></trkpt>
   <trkpt lat="35.141672" lon="-120.641503"><ele>16.5</ele></trkpt>
   <trkpt lat="35.141534" lon="-120.641684"><ele>15.5</ele></trkpt>
   <trkpt lat="35.141492" lon="-120.641739"><ele>15.25</ele></trkpt>
   <trkpt lat="35.141434" lon="-120.641815"><ele>15.25</ele></trkpt>
   <trkpt lat="35.141389" lon="-120.641885"><ele>15.0</ele></trkpt>
   <trkpt lat="35.141345" lon="-120.641962"><ele>14.75</ele></trkpt>
   <trkpt lat="35.141294" lon="-120.642058"><ele>14.5</ele></trkpt>
   <trkpt lat="35.141221" lon="-120.641991"><ele>14.5</ele></trkpt>
   <trkpt lat="35.140984" lon="-120.641725"><ele>14.25</ele></trkpt>
   <trkpt lat="35.140661" lon="-120.641363"><ele>14.5</ele></trkpt>
   <trkpt lat="35.140570" lon="-120.641261"><ele>14.5</ele></trkpt>
   <trkpt lat="35.140424" lon="-120.641098"><ele>14.0</ele></trkpt>
   <trkpt lat="35.140272" lon="-120.640928"><ele>13.5</ele></trkpt>
   <trkpt lat="35.139961" lon="-120.640580"><ele>12.0</ele></trkpt>
   <trkpt lat="35.139736" lon="-120.640330"><ele>11.75</ele></trkpt>
   <trkpt lat="35.139267" lon="-120.639805"><ele>10.5</ele></trkpt>
   <trkpt lat="35.138935" lon="-120.639434"><ele>9.5</ele></trkpt>
   <trkpt lat="35.138682" lon="-120.639152"><ele>8.5</ele></trkpt>
   <trkpt lat="35.138198" lon="-120.638612"><ele>6.75</ele></trkpt>
   <trkpt lat="35.138058" lon="-120.638466"><ele>6.5</ele></trkpt>
   <trkpt lat="35.138042" lon="-120.638450"><ele>6.5</ele></trkpt>
   <trkpt lat="35.137940" lon="-120.638365"><ele>6.5</ele></trkpt>
   <trkpt lat="35.137777" lon="-120.638252"><ele>6.0</ele></trkpt>
   <trkpt lat="35.137630" lon="-120.638177"><ele>5.75</ele></trkpt>
   <trkpt lat="35.137530" lon="-120.638141"><ele>5.75</ele></trkpt>
   <trkpt lat="35.137428" lon="-120.638116"><ele>5.5</ele></trkpt>
   <trkpt lat="35.137246" lon="-120.638091"><ele>5.5</ele></trkpt>
   <trkpt lat="35.137099" lon="-120.638070"><ele>5.5</ele></trkpt>
   <trkpt lat="35.136738" lon="-120.638018"><ele>5.5</ele></trkpt>
   <trkpt lat="35.136623" lon="-120.638000"><ele>5.5</ele></trkpt>
   <trkpt lat="35.136289" lon="-120.637943"><ele>5.5</ele></trkpt>
   <trkpt lat="35.136150" lon="-120.637893"><ele>5.75</ele></trkpt>
   <trkpt lat="35.136016" lon="-120.637823"><ele>5.75</ele></trkpt>
   <trkpt lat="35.135952" lon="-120.637780"><ele>5.75</ele></trkpt>
   <trkpt lat="35.135860" lon="-120.637709"><ele>5.75</ele></trkpt>
   <trkpt lat="35.135683" lon="-120.637543"><ele>6.0</ele></trkpt>
   <trkpt lat="35.135167" lon="-120.636962"><ele>6.5</ele></trkpt>
   <trkpt lat="35.135044" lon="-120.636829"><ele>6.75</ele></trkpt>
   <trkpt lat="35.134268" lon="-120.635950"><ele>7.5</ele></trkpt>
   <trkpt lat="35.133420" lon="-120.635014"><ele>6.75</ele></trkpt>
   <trkpt lat="35.133354" lon="-120.634932"><ele>6.75</ele></trkpt>
   <trkpt lat="35.133015" lon="-120.634563"><ele>6.75</ele></trkpt>
   <trkpt lat="35.132407" lon="-120.633926"><ele>6.25</ele></trkpt>
   <trkpt lat="35.132249" lon="-120.634000"><ele>6.5</ele></trkpt>
   <trkpt lat="35.132124" lon="-120.634115"><ele>6.75</ele></trkpt>
   <trkpt lat="35.132099" lon="-120.634178"><ele>6.75</ele></trkpt>
   <trkpt lat="35.132101" lon="-120.634278"><ele>6.75</ele></trkpt>
   <trkpt lat="35.132134" lon="-120.634346"><ele>6.75</ele></trkpt>
   <trkpt lat="35.132194" lon="-120.634413"><ele>6.75</ele></trkpt>
   <trkpt lat="35.132378" lon="-120.634551"><ele>7.25</ele></trkpt>
   <trkpt lat="35.132807" lon="-120.634844"><ele>7.25</ele></trkpt>
   <trkpt lat="35.132883" lon="-120.634904"><ele>7.25</ele></trkpt>
   <trkpt lat="35.132923" lon="-120.634979"><ele>7.25</ele></trkpt>
   <trkpt lat="35.132948" lon="-120.635087"><ele>7.25</ele></trkpt>
   <trkpt lat="35.132928" lon="-120.635237"><ele>7.25</ele></trkpt>
   <trkpt lat="35.132715" lon="-120.635610"><ele>6.75</ele></trkpt>
   <trkpt lat="35.132605" lon="-120.635757"><ele>6.25</ele></trkpt>
   <trkpt lat="35.132473" lon="-120.635880"><ele>5.75</ele></trkpt>
   <trkpt lat="35.132367" lon="-120.635941"><ele>5.5</ele></trkpt>
   <trkpt lat="35.132291" lon="-120.635981"><ele>5.5</ele></trkpt>
   <trkpt lat="35.132170" lon="-120.635997"><ele>5.25</ele></trkpt>
   <trkpt lat="35.131856" lon="-120.635918"><ele>4.5</ele></trkpt>
   <trkpt lat="35.131878" lon="-120.635716"><ele>4.5</ele></trkpt>
   <trkpt lat="35.131884" lon="-120.635670"><ele>4.75</ele></trkpt>
   <trkpt lat="35.131892" lon="-120.635592"><ele>4.75</ele></trkpt>
   <trkpt lat="35.131918" lon="-120.635366"><ele>5.25</ele></trkpt>
   <trkpt lat="35.131751" lon="-120.635334"><ele>4.75</ele></trkpt>
   <trkpt lat="35.131712" lon="-120.635315"><ele>4.75</ele></trkpt>
   <trkpt lat="35.131570" lon="-120.635240"><ele>4.75</ele></trkpt>
   <trkpt lat="35.131508" lon="-120.635204"><ele>5.0</ele></trkpt>
   <trkpt lat="35.131396" lon="-120.635132"><ele>5.25</ele></trkpt>
   <trkpt lat="35.131327" lon="-120.635087"><ele>5.25</ele></trkpt>
   <trkpt lat="35.131263" lon="-120.635046"><ele>5.25</ele></trkpt>
   <trkpt lat="35.131179" lon="-120.634959"><ele>5.5</ele></trkpt>
   <trkpt lat="35.131114" lon="-120.634893"><ele>5.5</ele></trkpt>
   <trkpt lat="35.131093" lon="-120.634872"><ele>5.5</ele></trkpt>
   <trkpt lat="35.131035" lon="-120.634981"><ele>5.75</ele></trkpt>
   <trkpt lat="35.131032" lon="-120.635051"><ele>5.75</ele></trkpt>
   <trkpt lat="35.131042" lon="-120.635115"><ele>5.75</ele></trkpt>
  </trkseg>
 </trk>
</gpx>
