<?xml version="1.0" encoding="UTF-8"?>
<gpx version="1.1" creator="BRouter" xmlns="http://www.topografix.com/GPX/1/1">
 <metadata><name>Day 5 - O&apos;Cairns Inn Lompoc &gt; Lompoc-Surf Amtrak Station</name></metadata>
 <trk>
  <name>Day 5 - O&apos;Cairns Inn Lompoc &gt; Lompoc-Surf Amtrak Station</name>
  <type>cycling</type>
  <trkseg>
   <trkpt lat="34.638882" lon="-120.446620"><ele>35.5</ele></trkpt>
   <trkpt lat="34.638883" lon="-120.446658"><ele>35.5</ele></trkpt>
   <trkpt lat="34.638045" lon="-120.446677"><ele>36.5</ele></trkpt>
   <trkpt lat="34.638053" lon="-120.447259"><ele>36.75</ele></trkpt>
   <trkpt lat="34.638710" lon="-120.447251"><ele>36.0</ele></trkpt>
   <trkpt lat="34.638719" lon="-120.447723"><ele>35.5</ele></trkpt>
   <trkpt lat="34.638678" lon="-120.449039"><ele>34.75</ele></trkpt>
   <trkpt lat="34.638338" lon="-120.449043"><ele>34.75</ele></trkpt>
   <trkpt lat="34.637550" lon="-120.449051"><ele>35.75</ele></trkpt>
   <trkpt lat="34.637239" lon="-120.449059"><ele>35.5</ele></trkpt>
   <trkpt lat="34.637240" lon="-120.449149"><ele>35.5</ele></trkpt>
   <trkpt lat="34.637241" lon="-120.449690"><ele>35.0</ele></trkpt>
   <trkpt lat="34.637240" lon="-120.450305"><ele>34.25</ele></trkpt>
   <trkpt lat="34.637243" lon="-120.450930"><ele>34.0</ele></trkpt>
   <trkpt lat="34.637247" lon="-120.451598"><ele>34.5</ele></trkpt>
   <trkpt lat="34.637256" lon="-120.452830"><ele>34.5</ele></trkpt>
   <trkpt lat="34.637264" lon="-120.453459"><ele>34.5</ele></trkpt>
   <trkpt lat="34.637264" lon="-120.453501"><ele>34.5</ele></trkpt>
   <trkpt lat="34.637272" lon="-120.454090"><ele>34.5</ele></trkpt>
   <trkpt lat="34.637275" lon="-120.454735"><ele>34.0</ele></trkpt>
   <trkpt lat="34.637278" lon="-120.455378"><ele>34.25</ele></trkpt>
   <trkpt lat="34.637289" lon="-120.455997"><ele>34.75</ele></trkpt>
   <trkpt lat="34.637293" lon="-120.456624"><ele>34.75</ele></trkpt>
   <trkpt lat="34.637298" lon="-120.457268"><ele>34.75</ele></trkpt>
   <trkpt lat="34.637303" lon="-120.457817"><ele>34.75</ele></trkpt>
   <trkpt lat="34.637304" lon="-120.457938"><ele>34.5</ele></trkpt>
   <trkpt lat="34.637304" lon="-120.458052"><ele>34.5</ele></trkpt>
   <trkpt lat="34.637302" lon="-120.458603"><ele>34.25</ele></trkpt>
   <trkpt lat="34.637304" lon="-120.459211"><ele>34.25</ele></trkpt>
   <trkpt lat="34.637306" lon="-120.459336"><ele>34.0</ele></trkpt>
   <trkpt lat="34.637312" lon="-120.459834"><ele>33.0</ele></trkpt>
   <trkpt lat="34.637324" lon="-120.460520"><ele>32.5</ele></trkpt>
   <trkpt lat="34.637327" lon="-120.461121"><ele>32.25</ele></trkpt>
   <trkpt lat="34.637338" lon="-120.461741"><ele>32.5</ele></trkpt>
   <trkpt lat="34.637339" lon="-120.461794"><ele>32.5</ele></trkpt>
   <trkpt lat="34.637338" lon="-120.462389"><ele>33.0</ele></trkpt>
   <trkpt lat="34.637351" lon="-120.463030"><ele>33.5</ele></trkpt>
   <trkpt lat="34.637350" lon="-120.463654"><ele>32.75</ele></trkpt>
   <trkpt lat="34.637351" lon="-120.463778"><ele>32.25</ele></trkpt>
   <trkpt lat="34.637356" lon="-120.464272"><ele>31.25</ele></trkpt>
   <trkpt lat="34.637360" lon="-120.464904"><ele>32.0</ele></trkpt>
   <trkpt lat="34.637365" lon="-120.465535"><ele>32.0</ele></trkpt>
   <trkpt lat="34.637377" lon="-120.466176"><ele>31.0</ele></trkpt>
   <trkpt lat="34.637388" lon="-120.466826"><ele>29.25</ele></trkpt>
   <trkpt lat="34.638510" lon="-120.466824"><ele>31.0</ele></trkpt>
   <trkpt lat="34.638923" lon="-120.466822"><ele>31.0</ele></trkpt>
   <trkpt lat="34.639040" lon="-120.466823"><ele>31.0</ele></trkpt>
   <trkpt lat="34.639041" lon="-120.466942"><ele>31.25</ele></trkpt>
   <trkpt lat="34.639042" lon="-120.467091"><ele>29.5</ele></trkpt>
   <trkpt lat="34.639061" lon="-120.469707"><ele>29.5</ele></trkpt>
   <trkpt lat="34.639066" lon="-120.470486"><ele>28.25</ele></trkpt>
   <trkpt lat="34.639067" lon="-120.470610"><ele>28.25</ele></trkpt>
   <trkpt lat="34.639068" lon="-120.470725"><ele>28.0</ele></trkpt>
   <trkpt lat="34.639080" lon="-120.471799"><ele>30.25</ele></trkpt>
   <trkpt lat="34.639095" lon="-120.473114"><ele>29.5</ele></trkpt>
   <trkpt lat="34.639118" lon="-120.474412"><ele>29.25</ele></trkpt>
   <trkpt lat="34.639121" lon="-120.474890"><ele>27.25</ele></trkpt>
   <trkpt lat="34.639125" lon="-120.475429"><ele>27.25</ele></trkpt>
   <trkpt lat="34.639126" lon="-120.475544"><ele>27.25</ele></trkpt>
   <trkpt lat="34.639128" lon="-120.475667"><ele>27.0</ele></trkpt>
   <trkpt lat="34.639152" lon="-120.477203"><ele>25.5</ele></trkpt>
   <trkpt lat="34.639155" lon="-120.477877"><ele>26.25</ele></trkpt>
   <trkpt lat="34.639121" lon="-120.478868"><ele>26.75</ele></trkpt>
   <trkpt lat="34.639122" lon="-120.479996"><ele>25.75</ele></trkpt>
   <trkpt lat="34.639212" lon="-120.484311"><ele>25.75</ele></trkpt>
   <trkpt lat="34.639286" lon="-120.489230"><ele>24.75</ele></trkpt>
   <trkpt lat="34.639295" lon="-120.489779"><ele>24.75</ele></trkpt>
   <trkpt lat="34.639318" lon="-120.490072"><ele>24.75</ele></trkpt>
   <trkpt lat="34.639906" lon="-120.493150"><ele>22.75</ele></trkpt>
   <trkpt lat="34.640780" lon="-120.497861"><ele>23.5</ele></trkpt>
   <trkpt lat="34.641415" lon="-120.501008"><ele>22.25</ele></trkpt>
   <trkpt lat="34.641426" lon="-120.501071"><ele>22.0</ele></trkpt>
   <trkpt lat="34.641596" lon="-120.501961"><ele>22.0</ele></trkpt>
   <trkpt lat="34.642815" lon="-120.508052"><ele>20.75</ele></trkpt>
   <trkpt lat="34.643324" lon="-120.510711"><ele>19.0</ele></trkpt>
   <trkpt lat="34.643474" lon="-120.511548"><ele>20.25</ele></trkpt>
   <trkpt lat="34.643697" lon="-120.512626"><ele>20.0</ele></trkpt>
   <trkpt lat="34.644048" lon="-120.514437"><ele>18.25</ele></trkpt>
   <trkpt lat="34.644112" lon="-120.514737"><ele>18.5</ele></trkpt>
   <trkpt lat="34.644126" lon="-120.514809"><ele>18.75</ele></trkpt>
   <trkpt lat="34.644175" lon="-120.515055"><ele>18.75</ele></trkpt>
   <trkpt lat="34.644416" lon="-120.516233"><ele>19.75</ele></trkpt>
   <trkpt lat="34.645037" lon="-120.519457"><ele>19.5</ele></trkpt>
   <trkpt lat="34.645342" lon="-120.521126"><ele>19.0</ele></trkpt>
   <trkpt lat="34.645643" lon="-120.522720"><ele>18.0</ele></trkpt>
   <trkpt lat="34.645667" lon="-120.522828"><ele>19.75</ele></trkpt>
   <trkpt lat="34.645778" lon="-120.523303"><ele>19.75</ele></trkpt>
   <trkpt lat="34.645888" lon="-120.523643"><ele>20.25</ele></trkpt>
   <trkpt lat="34.646180" lon="-120.524496"><ele>20.25</ele></trkpt>
   <trkpt lat="34.646448" lon="-120.525082"><ele>19.5</ele></trkpt>
   <trkpt lat="34.646673" lon="-120.525473"><ele>18.75</ele></trkpt>
   <trkpt lat="34.648142" lon="-120.527646"><ele>16.75</ele></trkpt>
   <trkpt lat="34.648428" lon="-120.528080"><ele>15.0</ele></trkpt>
   <trkpt lat="34.648686" lon="-120.528468"><ele>15.0</ele></trkpt>
   <trkpt lat="34.650867" lon="-120.531693"><ele>14.0</ele></trkpt>
   <trkpt lat="34.652544" lon="-120.534196"><ele>12.0</ele></trkpt>
   <trkpt lat="34.653377" lon="-120.535419"><ele>13.5</ele></trkpt>
   <trkpt lat="34.654084" lon="-120.536488"><ele>13.5</ele></trkpt>
   <trkpt lat="34.654560" lon="-120.537128"><ele>13.75</ele></trkpt>
   <trkpt lat="34.655687" lon="-120.538773"><ele>12.75</ele></trkpt>
   <trkpt lat="34.656543" lon="-120.540019"><ele>12.75</ele></trkpt>
   <trkpt lat="34.659422" lon="-120.544404"><ele>12.75</ele></trkpt>
   <trkpt lat="34.660350" lon="-120.545692"><ele>11.5</ele></trkpt>
   <trkpt lat="34.660858" lon="-120.546471"><ele>11.5</ele></trkpt>
   <trkpt lat="34.661818" lon="-120.547940"><ele>11.5</ele></trkpt>
   <trkpt lat="34.662524" lon="-120.548969"><ele>10.25</ele></trkpt>
   <trkpt lat="34.662809" lon="-120.549357"><ele>10.75</ele></trkpt>
   <trkpt lat="34.663047" lon="-120.549712"><ele>11.75</ele></trkpt>
   <trkpt lat="34.663638" lon="-120.550547"><ele>11.25</ele></trkpt>
   <trkpt lat="34.664236" lon="-120.551435"><ele>11.5</ele></trkpt>
   <trkpt lat="34.665000" lon="-120.552543"><ele>11.0</ele></trkpt>
   <trkpt lat="34.666070" lon="-120.554130"><ele>11.25</ele></trkpt>
   <trkpt lat="34.666168" lon="-120.554275"><ele>11.25</ele></trkpt>
   <trkpt lat="34.666231" lon="-120.554388"><ele>11.25</ele></trkpt>
   <trkpt lat="34.666997" lon="-120.555560"><ele>11.25</ele></trkpt>
   <trkpt lat="34.667163" lon="-120.555790"><ele>11.5</ele></trkpt>
   <trkpt lat="34.667707" lon="-120.556624"><ele>10.25</ele></trkpt>
   <trkpt lat="34.669569" lon="-120.559518"><ele>11.5</ele></trkpt>
   <trkpt lat="34.670485" lon="-120.560861"><ele>10.25</ele></trkpt>
   <trkpt lat="34.670570" lon="-120.560791"><ele>10.25</ele></trkpt>
   <trkpt lat="34.670485" lon="-120.560861"><ele>10.25</ele></trkpt>
   <trkpt lat="34.670584" lon="-120.560989"><ele>10.25</ele></trkpt>
   <trkpt lat="34.670940" lon="-120.561485"><ele>10.5</ele></trkpt>
   <trkpt lat="34.671610" lon="-120.562458"><ele>10.0</ele></trkpt>
   <trkpt lat="34.671962" lon="-120.563066"><ele>9.25</ele></trkpt>
   <trkpt lat="34.672126" lon="-120.563363"><ele>8.75</ele></trkpt>
   <trkpt lat="34.672349" lon="-120.563820"><ele>9.5</ele></trkpt>
   <trkpt lat="34.672896" lon="-120.565259"><ele>11.25</ele></trkpt>
   <trkpt lat="34.673821" lon="-120.567486"><ele>10.0</ele></trkpt>
   <trkpt lat="34.674342" lon="-120.568782"><ele>10.75</ele></trkpt>
   <trkpt lat="34.674378" lon="-120.568869"><ele>10.75</ele></trkpt>
   <trkpt lat="34.674822" lon="-120.569824"><ele>10.5</ele></trkpt>
   <trkpt lat="34.675095" lon="-120.570382"><ele>9.75</ele></trkpt>
   <trkpt lat="34.675668" lon="-120.571524"><ele>8.75</ele></trkpt>
   <trkpt lat="34.676328" lon="-120.572747"><ele>8.75</ele></trkpt>
   <trkpt lat="34.680930" lon="-120.580353"><ele>6.5</ele></trkpt>
   <trkpt lat="34.682984" lon="-120.583734"><ele>7.5</ele></trkpt>
   <trkpt lat="34.683209" lon="-120.584103"><ele>7.5</ele></trkpt>
   <trkpt lat="34.683706" lon="-120.585095"><ele>5.0</ele></trkpt>
   <trkpt lat="34.684154" lon="-120.586100"><ele>5.5</ele></trkpt>
   <trkpt lat="34.684309" lon="-120.586533"><ele>5.25</ele></trkpt>
   <trkpt lat="34.684423" lon="-120.586951"><ele>7.0</ele></trkpt>
   <trkpt lat="34.684629" lon="-120.587570"><ele>12.25</ele></trkpt>
   <trkpt lat="34.685006" lon="-120.588498"><ele>24.5</ele></trkpt>
   <trkpt lat="34.685100" lon="-120.588776"><ele>25.75</ele></trkpt>
   <trkpt lat="34.685201" lon="-120.589174"><ele>27.25</ele></trkpt>
   <trkpt lat="34.685385" lon="-120.590100"><ele>30.5</ele></trkpt>
   <trkpt lat="34.685439" lon="-120.590366"><ele>30.5</ele></trkpt>
   <trkpt lat="34.685475" lon="-120.590484"><ele>30.25</ele></trkpt>
   <trkpt lat="34.685605" lon="-120.591004"><ele>29.25</ele></trkpt>
   <trkpt lat="34.685668" lon="-120.591639"><ele>30.75</ele></trkpt>
   <trkpt lat="34.685797" lon="-120.592144"><ele>32.0</ele></trkpt>
   <trkpt lat="34.685815" lon="-120.592282"><ele>33.0</ele></trkpt>
   <trkpt lat="34.685835" lon="-120.592575"><ele>34.75</ele></trkpt>
   <trkpt lat="34.685895" lon="-120.592958"><ele>32.75</ele></trkpt>
   <trkpt lat="34.685910" lon="-120.593140"><ele>32.25</ele></trkpt>
   <trkpt lat="34.685915" lon="-120.593523"><ele>32.0</ele></trkpt>
   <trkpt lat="34.685975" lon="-120.593913"><ele>29.75</ele></trkpt>
   <trkpt lat="34.685994" lon="-120.594112"><ele>29.0</ele></trkpt>
   <trkpt lat="34.686011" lon="-120.594467"><ele>28.75</ele></trkpt>
   <trkpt lat="34.686015" lon="-120.594752"><ele>29.0</ele></trkpt>
   <trkpt lat="34.685980" lon="-120.595250"><ele>29.25</ele></trkpt>
   <trkpt lat="34.685964" lon="-120.595663"><ele>28.0</ele></trkpt>
   <trkpt lat="34.685936" lon="-120.596111"><ele>27.25</ele></trkpt>
   <trkpt lat="34.685830" lon="-120.597433"><ele>23.25</ele></trkpt>
   <trkpt lat="34.685819" lon="-120.598129"><ele>22.5</ele></trkpt>
   <trkpt lat="34.685771" lon="-120.599423"><ele>21.0</ele></trkpt>
   <trkpt lat="34.685723" lon="-120.600017"><ele>16.25</ele></trkpt>
   <trkpt lat="34.685696" lon="-120.600357"><ele>16.25</ele></trkpt>
   <trkpt lat="34.685656" lon="-120.600592"><ele>15.5</ele></trkpt>
   <trkpt lat="34.685607" lon="-120.600798"><ele>15.0</ele></trkpt>
   <trkpt lat="34.685503" lon="-120.601183"><ele>15.75</ele></trkpt>
   <trkpt lat="34.685293" lon="-120.601779"><ele>18.5</ele></trkpt>
   <trkpt lat="34.685204" lon="-120.601983"><ele>20.0</ele></trkpt>
   <trkpt lat="34.684985" lon="-120.602344"><ele>23.0</ele></trkpt>
   <trkpt lat="34.684604" lon="-120.602848"><ele>21.0</ele></trkpt>
   <trkpt lat="34.684399" lon="-120.603038"><ele>20.5</ele></trkpt>
   <trkpt lat="34.684200" lon="-120.603210"><ele>20.25</ele></trkpt>
   <trkpt lat="34.684033" lon="-120.603321"><ele>20.25</ele></trkpt>
   <trkpt lat="34.683440" lon="-120.603619"><ele>20.5</ele></trkpt>
   <trkpt lat="34.682674" lon="-120.603803"><ele>21.5</ele></trkpt>
   <trkpt lat="34.682724" lon="-120.604213"><ele>21.0</ele></trkpt>
   <trkpt lat="34.682785" lon="-120.604494"><ele>19.75</ele></trkpt>
   <trkpt lat="34.682835" lon="-120.604754"><ele>18.5</ele></trkpt>
   <trkpt lat="34.682672" lon="-120.604806"><ele>19.0</ele></trkpt>
  </trkseg>
 </trk>
</gpx>
